%
(FILL PLATE - 1 BORING)
(MACHINE)
(  VENDOR PRINTNC)
(  MODEL PRINTNC V4 METALCUTTER)
(  DESCRIPTION GENERIC 3-AXIS ROUTER)
(T10 D=0.125 CR=0. - ZMIN=-0.5906 - FLAT END MILL)
N10 G90 G94 G17 G91.1
N15 G20
(WHEN USING FUSION FOR PERSONAL USE, THE FEEDRATE OF RAPID)
(MOVES IS REDUCED TO MATCH THE FEEDRATE OF CUTTING MOVES,)
(WHICH CAN INCREASE MACHINING TIME. UNRESTRICTED RAPID MOVES)
(ARE AVAILABLE WITH A FUSION SUBSCRIPTION.)
N20 G53 G0 Z0.
(BORE1 2)
N25 T10 M6
N30 S24000 M3
N35 G17 G90 G94
N40 G54
N45 G64 P0.0004 Q0.0004
N50 G0 X-0.5513 Y-0.4908
N55 G43 Z0.5906 H10
N60 G1 Z0.1575 F9.843
N65 Z0.0912
N70 G18 G3 X-0.5638 Z0.0787 I-0.0125 K0.
N75 G1 X-0.5701
N80 G17 G3 X-0.5826 Y-0.5033 I0. J-0.0125
N85 X-0.4753 Z0.0689 I0.0536 J0.
N90 X-0.5826 Z0.0591 I-0.0536 J0.
N95 X-0.4753 Z0.0492 I0.0536 J0.
N100 X-0.5826 Z0.0394 I-0.0536 J0.
N105 X-0.4753 Z0.0295 I0.0536 J0.
N110 X-0.5826 Z0.0197 I-0.0536 J0.
N115 X-0.4753 Z0.0098 I0.0536 J0.
N120 X-0.5826 Z0. I-0.0536 J0.
N125 X-0.4753 Z-0.0098 I0.0536 J0.
N130 X-0.5826 Z-0.0197 I-0.0536 J0.
N135 X-0.4753 Z-0.0295 I0.0536 J0.
N140 X-0.5826 Z-0.0394 I-0.0536 J0.
N145 X-0.4753 Z-0.0492 I0.0536 J0.
N150 X-0.5826 Z-0.0591 I-0.0536 J0.
N155 X-0.4753 Z-0.0689 I0.0536 J0.
N160 X-0.5826 Z-0.0787 I-0.0536 J0.
N165 X-0.4753 Z-0.0886 I0.0536 J0.
N170 X-0.5826 Z-0.0984 I-0.0536 J0.
N175 X-0.4753 Z-0.1083 I0.0536 J0.
N180 X-0.5826 Z-0.1181 I-0.0536 J0.
N185 X-0.4753 Z-0.128 I0.0536 J0.
N190 X-0.5826 Z-0.1378 I-0.0536 J0.
N195 X-0.4753 Z-0.1476 I0.0536 J0.
N200 X-0.5826 Z-0.1575 I-0.0536 J0.
N205 X-0.4753 Z-0.1673 I0.0536 J0.
N210 X-0.5826 Z-0.1772 I-0.0536 J0.
N215 X-0.4753 Z-0.187 I0.0536 J0.
N220 X-0.5826 Z-0.1969 I-0.0536 J0.
N225 X-0.4753 Z-0.2067 I0.0536 J0.
N230 X-0.5826 Z-0.2165 I-0.0536 J0.
N235 X-0.4753 Z-0.2264 I0.0536 J0.
N240 X-0.5826 Z-0.2362 I-0.0536 J0.
N245 X-0.4753 Z-0.2461 I0.0536 J0.
N250 X-0.5826 Z-0.2559 I-0.0536 J0.
N255 X-0.4753 Z-0.2657 I0.0536 J0.
N260 X-0.5826 Z-0.2756 I-0.0536 J0.
N265 X-0.4753 Z-0.2854 I0.0536 J0.
N270 X-0.5826 Z-0.2953 I-0.0536 J0.
N275 X-0.4753 Z-0.3051 I0.0536 J0.
N280 X-0.5826 Z-0.315 I-0.0536 J0.
N285 X-0.4753 Z-0.3248 I0.0536 J0.
N290 X-0.5826 Z-0.3346 I-0.0536 J0.
N295 X-0.4753 Z-0.3445 I0.0536 J0.
N300 X-0.5826 Z-0.3543 I-0.0536 J0.
N305 X-0.4753 Z-0.3642 I0.0536 J0.
N310 X-0.5826 Z-0.374 I-0.0536 J0.
N315 X-0.4753 Z-0.3839 I0.0536 J0.
N320 X-0.5826 Z-0.3937 I-0.0536 J0.
N325 X-0.4753 Z-0.4035 I0.0536 J0.
N330 X-0.5826 Z-0.4134 I-0.0536 J0.
N335 X-0.4753 Z-0.4232 I0.0536 J0.
N340 X-0.5826 Z-0.4331 I-0.0536 J0.
N345 X-0.4753 Z-0.4429 I0.0536 J0.
N350 X-0.5826 Z-0.4528 I-0.0536 J0.
N355 X-0.4753 Z-0.4626 I0.0536 J0.
N360 X-0.5826 Z-0.4724 I-0.0536 J0.
N365 X-0.4753 Z-0.4823 I0.0536 J0.
N370 X-0.5826 Z-0.4921 I-0.0536 J0.
N375 X-0.4753 Z-0.502 I0.0536 J0.
N380 X-0.5826 Z-0.5118 I-0.0536 J0.
N385 X-0.4753 Z-0.5217 I0.0536 J0.
N390 X-0.5826 Z-0.5315 I-0.0536 J0.
N395 X-0.4753 Z-0.5413 I0.0536 J0.
N400 X-0.5826 Z-0.5512 I-0.0536 J0.
N405 X-0.4753 Z-0.561 I0.0536 J0.
N410 X-0.5826 Z-0.5709 I-0.0536 J0.
N415 X-0.4753 Z-0.5807 I0.0536 J0.
N420 X-0.5826 Z-0.5906 I-0.0536 J0.
N425 X-0.4753 I0.0536 J0.
N430 X-0.5826 I-0.0536 J0.
N435 X-0.5701 Y-0.5158 I0.0125 J0.
N440 G1 X-0.5638
N445 G18 G2 X-0.5513 Z-0.5781 I0. K0.0125
N450 G1 Z0.1969
N455 X-0.7704 Y0.0381
N460 Z0.1575
N465 Z0.0912
N470 G3 X-0.7829 Z0.0787 I-0.0125 K0.
N475 G1 X-0.7892
N480 G17 G3 X-0.8017 Y0.0256 I0. J-0.0125
N485 X-0.6944 Z0.0689 I0.0536 J0.
N490 X-0.8017 Z0.0591 I-0.0536 J0.
N495 X-0.6944 Z0.0492 I0.0536 J0.
N500 X-0.8017 Z0.0394 I-0.0536 J0.
N505 X-0.6944 Z0.0295 I0.0536 J0.
N510 X-0.8017 Z0.0197 I-0.0536 J0.
N515 X-0.6944 Z0.0098 I0.0536 J0.
N520 X-0.8017 Z0. I-0.0536 J0.
N525 X-0.6944 Z-0.0098 I0.0536 J0.
N530 X-0.8017 Z-0.0197 I-0.0536 J0.
N535 X-0.6944 Z-0.0295 I0.0536 J0.
N540 X-0.8017 Z-0.0394 I-0.0536 J0.
N545 X-0.6944 Z-0.0492 I0.0536 J0.
N550 X-0.8017 Z-0.0591 I-0.0536 J0.
N555 X-0.6944 Z-0.0689 I0.0536 J0.
N560 X-0.8017 Z-0.0787 I-0.0536 J0.
N565 X-0.6944 Z-0.0886 I0.0536 J0.
N570 X-0.8017 Z-0.0984 I-0.0536 J0.
N575 X-0.6944 Z-0.1083 I0.0536 J0.
N580 X-0.8017 Z-0.1181 I-0.0536 J0.
N585 X-0.6944 Z-0.128 I0.0536 J0.
N590 X-0.8017 Z-0.1378 I-0.0536 J0.
N595 X-0.6944 Z-0.1476 I0.0536 J0.
N600 X-0.8017 Z-0.1575 I-0.0536 J0.
N605 X-0.6944 Z-0.1673 I0.0536 J0.
N610 X-0.8017 Z-0.1772 I-0.0536 J0.
N615 X-0.6944 Z-0.187 I0.0536 J0.
N620 X-0.8017 Z-0.1969 I-0.0536 J0.
N625 X-0.6944 Z-0.2067 I0.0536 J0.
N630 X-0.8017 Z-0.2165 I-0.0536 J0.
N635 X-0.6944 Z-0.2264 I0.0536 J0.
N640 X-0.8017 Z-0.2362 I-0.0536 J0.
N645 X-0.6944 Z-0.2461 I0.0536 J0.
N650 X-0.8017 Z-0.2559 I-0.0536 J0.
N655 X-0.6944 Z-0.2657 I0.0536 J0.
N660 X-0.8017 Z-0.2756 I-0.0536 J0.
N665 X-0.6944 Z-0.2854 I0.0536 J0.
N670 X-0.8017 Z-0.2953 I-0.0536 J0.
N675 X-0.6944 Z-0.3051 I0.0536 J0.
N680 X-0.8017 Z-0.315 I-0.0536 J0.
N685 X-0.6944 Z-0.3248 I0.0536 J0.
N690 X-0.8017 Z-0.3346 I-0.0536 J0.
N695 X-0.6944 Z-0.3445 I0.0536 J0.
N700 X-0.8017 Z-0.3543 I-0.0536 J0.
N705 X-0.6944 Z-0.3642 I0.0536 J0.
N710 X-0.8017 Z-0.374 I-0.0536 J0.
N715 X-0.6944 Z-0.3839 I0.0536 J0.
N720 X-0.8017 Z-0.3937 I-0.0536 J0.
N725 X-0.6944 Z-0.4035 I0.0536 J0.
N730 X-0.8017 Z-0.4134 I-0.0536 J0.
N735 X-0.6944 Z-0.4232 I0.0536 J0.
N740 X-0.8017 Z-0.4331 I-0.0536 J0.
N745 X-0.6944 Z-0.4429 I0.0536 J0.
N750 X-0.8017 Z-0.4528 I-0.0536 J0.
N755 X-0.6944 Z-0.4626 I0.0536 J0.
N760 X-0.8017 Z-0.4724 I-0.0536 J0.
N765 X-0.6944 Z-0.4823 I0.0536 J0.
N770 X-0.8017 Z-0.4921 I-0.0536 J0.
N775 X-0.6944 Z-0.502 I0.0536 J0.
N780 X-0.8017 Z-0.5118 I-0.0536 J0.
N785 X-0.6944 Z-0.5217 I0.0536 J0.
N790 X-0.8017 Z-0.5315 I-0.0536 J0.
N795 X-0.6944 Z-0.5413 I0.0536 J0.
N800 X-0.8017 Z-0.5512 I-0.0536 J0.
N805 X-0.6944 Z-0.561 I0.0536 J0.
N810 X-0.8017 Z-0.5709 I-0.0536 J0.
N815 X-0.6944 Z-0.5807 I0.0536 J0.
N820 X-0.8017 Z-0.5906 I-0.0536 J0.
N825 X-0.6944 I0.0536 J0.
N830 X-0.8017 I-0.0536 J0.
N835 X-0.7892 Y0.0131 I0.0125 J0.
N840 G1 X-0.7829
N845 G18 G2 X-0.7704 Z-0.5781 I0. K0.0125
N850 G1 Z0.1969
N855 X-0.5513 Y0.567
N860 Z0.1575
N865 Z0.0912
N870 G3 X-0.5638 Z0.0787 I-0.0125 K0.
N875 G1 X-0.5701
N880 G17 G3 X-0.5826 Y0.5545 I0. J-0.0125
N885 X-0.4753 Z0.0689 I0.0536 J0.
N890 X-0.5826 Z0.0591 I-0.0536 J0.
N895 X-0.4753 Z0.0492 I0.0536 J0.
N900 X-0.5826 Z0.0394 I-0.0536 J0.
N905 X-0.4753 Z0.0295 I0.0536 J0.
N910 X-0.5826 Z0.0197 I-0.0536 J0.
N915 X-0.4753 Z0.0098 I0.0536 J0.
N920 X-0.5826 Z0. I-0.0536 J0.
N925 X-0.4753 Z-0.0098 I0.0536 J0.
N930 X-0.5826 Z-0.0197 I-0.0536 J0.
N935 X-0.4753 Z-0.0295 I0.0536 J0.
N940 X-0.5826 Z-0.0394 I-0.0536 J0.
N945 X-0.4753 Z-0.0492 I0.0536 J0.
N950 X-0.5826 Z-0.0591 I-0.0536 J0.
N955 X-0.4753 Z-0.0689 I0.0536 J0.
N960 X-0.5826 Z-0.0787 I-0.0536 J0.
N965 X-0.4753 Z-0.0886 I0.0536 J0.
N970 X-0.5826 Z-0.0984 I-0.0536 J0.
N975 X-0.4753 Z-0.1083 I0.0536 J0.
N980 X-0.5826 Z-0.1181 I-0.0536 J0.
N985 X-0.4753 Z-0.128 I0.0536 J0.
N990 X-0.5826 Z-0.1378 I-0.0536 J0.
N995 X-0.4753 Z-0.1476 I0.0536 J0.
N1000 X-0.5826 Z-0.1575 I-0.0536 J0.
N1005 X-0.4753 Z-0.1673 I0.0536 J0.
N1010 X-0.5826 Z-0.1772 I-0.0536 J0.
N1015 X-0.4753 Z-0.187 I0.0536 J0.
N1020 X-0.5826 Z-0.1969 I-0.0536 J0.
N1025 X-0.4753 Z-0.2067 I0.0536 J0.
N1030 X-0.5826 Z-0.2165 I-0.0536 J0.
N1035 X-0.4753 Z-0.2264 I0.0536 J0.
N1040 X-0.5826 Z-0.2362 I-0.0536 J0.
N1045 X-0.4753 Z-0.2461 I0.0536 J0.
N1050 X-0.5826 Z-0.2559 I-0.0536 J0.
N1055 X-0.4753 Z-0.2657 I0.0536 J0.
N1060 X-0.5826 Z-0.2756 I-0.0536 J0.
N1065 X-0.4753 Z-0.2854 I0.0536 J0.
N1070 X-0.5826 Z-0.2953 I-0.0536 J0.
N1075 X-0.4753 Z-0.3051 I0.0536 J0.
N1080 X-0.5826 Z-0.315 I-0.0536 J0.
N1085 X-0.4753 Z-0.3248 I0.0536 J0.
N1090 X-0.5826 Z-0.3346 I-0.0536 J0.
N1095 X-0.4753 Z-0.3445 I0.0536 J0.
N1100 X-0.5826 Z-0.3543 I-0.0536 J0.
N1105 X-0.4753 Z-0.3642 I0.0536 J0.
N1110 X-0.5826 Z-0.374 I-0.0536 J0.
N1115 X-0.4753 Z-0.3839 I0.0536 J0.
N1120 X-0.5826 Z-0.3937 I-0.0536 J0.
N1125 X-0.4753 Z-0.4035 I0.0536 J0.
N1130 X-0.5826 Z-0.4134 I-0.0536 J0.
N1135 X-0.4753 Z-0.4232 I0.0536 J0.
N1140 X-0.5826 Z-0.4331 I-0.0536 J0.
N1145 X-0.4753 Z-0.4429 I0.0536 J0.
N1150 X-0.5826 Z-0.4528 I-0.0536 J0.
N1155 X-0.4753 Z-0.4626 I0.0536 J0.
N1160 X-0.5826 Z-0.4724 I-0.0536 J0.
N1165 X-0.4753 Z-0.4823 I0.0536 J0.
N1170 X-0.5826 Z-0.4921 I-0.0536 J0.
N1175 X-0.4753 Z-0.502 I0.0536 J0.
N1180 X-0.5826 Z-0.5118 I-0.0536 J0.
N1185 X-0.4753 Z-0.5217 I0.0536 J0.
N1190 X-0.5826 Z-0.5315 I-0.0536 J0.
N1195 X-0.4753 Z-0.5413 I0.0536 J0.
N1200 X-0.5826 Z-0.5512 I-0.0536 J0.
N1205 X-0.4753 Z-0.561 I0.0536 J0.
N1210 X-0.5826 Z-0.5709 I-0.0536 J0.
N1215 X-0.4753 Z-0.5807 I0.0536 J0.
N1220 X-0.5826 Z-0.5906 I-0.0536 J0.
N1225 X-0.4753 I0.0536 J0.
N1230 X-0.5826 I-0.0536 J0.
N1235 X-0.5701 Y0.542 I0.0125 J0.
N1240 G1 X-0.5638
N1245 G18 G2 X-0.5513 Z-0.5781 I0. K0.0125
N1250 G1 Z0.1969
N1255 X0.5065 Y0.567
N1260 Z0.1575
N1265 Z0.0912
N1270 G3 X0.494 Z0.0787 I-0.0125 K0.
N1275 G1 X0.4878
N1280 G17 G3 X0.4753 Y0.5545 I0. J-0.0125
N1285 X0.5826 Z0.0689 I0.0536 J0.
N1290 X0.4753 Z0.0591 I-0.0536 J0.
N1295 X0.5826 Z0.0492 I0.0536 J0.
N1300 X0.4753 Z0.0394 I-0.0536 J0.
N1305 X0.5826 Z0.0295 I0.0536 J0.
N1310 X0.4753 Z0.0197 I-0.0536 J0.
N1315 X0.5826 Z0.0098 I0.0536 J0.
N1320 X0.4753 Z0. I-0.0536 J0.
N1325 X0.5826 Z-0.0098 I0.0536 J0.
N1330 X0.4753 Z-0.0197 I-0.0536 J0.
N1335 X0.5826 Z-0.0295 I0.0536 J0.
N1340 X0.4753 Z-0.0394 I-0.0536 J0.
N1345 X0.5826 Z-0.0492 I0.0536 J0.
N1350 X0.4753 Z-0.0591 I-0.0536 J0.
N1355 X0.5826 Z-0.0689 I0.0536 J0.
N1360 X0.4753 Z-0.0787 I-0.0536 J0.
N1365 X0.5826 Z-0.0886 I0.0536 J0.
N1370 X0.4753 Z-0.0984 I-0.0536 J0.
N1375 X0.5826 Z-0.1083 I0.0536 J0.
N1380 X0.4753 Z-0.1181 I-0.0536 J0.
N1385 X0.5826 Z-0.128 I0.0536 J0.
N1390 X0.4753 Z-0.1378 I-0.0536 J0.
N1395 X0.5826 Z-0.1476 I0.0536 J0.
N1400 X0.4753 Z-0.1575 I-0.0536 J0.
N1405 X0.5826 Z-0.1673 I0.0536 J0.
N1410 X0.4753 Z-0.1772 I-0.0536 J0.
N1415 X0.5826 Z-0.187 I0.0536 J0.
N1420 X0.4753 Z-0.1969 I-0.0536 J0.
N1425 X0.5826 Z-0.2067 I0.0536 J0.
N1430 X0.4753 Z-0.2165 I-0.0536 J0.
N1435 X0.5826 Z-0.2264 I0.0536 J0.
N1440 X0.4753 Z-0.2362 I-0.0536 J0.
N1445 X0.5826 Z-0.2461 I0.0536 J0.
N1450 X0.4753 Z-0.2559 I-0.0536 J0.
N1455 X0.5826 Z-0.2657 I0.0536 J0.
N1460 X0.4753 Z-0.2756 I-0.0536 J0.
N1465 X0.5826 Z-0.2854 I0.0536 J0.
N1470 X0.4753 Z-0.2953 I-0.0536 J0.
N1475 X0.5826 Z-0.3051 I0.0536 J0.
N1480 X0.4753 Z-0.315 I-0.0536 J0.
N1485 X0.5826 Z-0.3248 I0.0536 J0.
N1490 X0.4753 Z-0.3346 I-0.0536 J0.
N1495 X0.5826 Z-0.3445 I0.0536 J0.
N1500 X0.4753 Z-0.3543 I-0.0536 J0.
N1505 X0.5826 Z-0.3642 I0.0536 J0.
N1510 X0.4753 Z-0.374 I-0.0536 J0.
N1515 X0.5826 Z-0.3839 I0.0536 J0.
N1520 X0.4753 Z-0.3937 I-0.0536 J0.
N1525 X0.5826 Z-0.4035 I0.0536 J0.
N1530 X0.4753 Z-0.4134 I-0.0536 J0.
N1535 X0.5826 Z-0.4232 I0.0536 J0.
N1540 X0.4753 Z-0.4331 I-0.0536 J0.
N1545 X0.5826 Z-0.4429 I0.0536 J0.
N1550 X0.4753 Z-0.4528 I-0.0536 J0.
N1555 X0.5826 Z-0.4626 I0.0536 J0.
N1560 X0.4753 Z-0.4724 I-0.0536 J0.
N1565 X0.5826 Z-0.4823 I0.0536 J0.
N1570 X0.4753 Z-0.4921 I-0.0536 J0.
N1575 X0.5826 Z-0.502 I0.0536 J0.
N1580 X0.4753 Z-0.5118 I-0.0536 J0.
N1585 X0.5826 Z-0.5217 I0.0536 J0.
N1590 X0.4753 Z-0.5315 I-0.0536 J0.
N1595 X0.5826 Z-0.5413 I0.0536 J0.
N1600 X0.4753 Z-0.5512 I-0.0536 J0.
N1605 X0.5826 Z-0.561 I0.0536 J0.
N1610 X0.4753 Z-0.5709 I-0.0536 J0.
N1615 X0.5826 Z-0.5807 I0.0536 J0.
N1620 X0.4753 Z-0.5906 I-0.0536 J0.
N1625 X0.5826 I0.0536 J0.
N1630 X0.4753 I-0.0536 J0.
N1635 X0.4878 Y0.542 I0.0125 J0.
N1640 G1 X0.494
N1645 G18 G2 X0.5065 Z-0.5781 I0. K0.0125
N1650 G1 Z0.1969
N1655 X0.7256 Y0.0381
N1660 Z0.1575
N1665 Z0.0912
N1670 G3 X0.7131 Z0.0787 I-0.0125 K0.
N1675 G1 X0.7069
N1680 G17 G3 X0.6944 Y0.0256 I0. J-0.0125
N1685 X0.8017 Z0.0689 I0.0536 J0.
N1690 X0.6944 Z0.0591 I-0.0536 J0.
N1695 X0.8017 Z0.0492 I0.0536 J0.
N1700 X0.6944 Z0.0394 I-0.0536 J0.
N1705 X0.8017 Z0.0295 I0.0536 J0.
N1710 X0.6944 Z0.0197 I-0.0536 J0.
N1715 X0.8017 Z0.0098 I0.0536 J0.
N1720 X0.6944 Z0. I-0.0536 J0.
N1725 X0.8017 Z-0.0098 I0.0536 J0.
N1730 X0.6944 Z-0.0197 I-0.0536 J0.
N1735 X0.8017 Z-0.0295 I0.0536 J0.
N1740 X0.6944 Z-0.0394 I-0.0536 J0.
N1745 X0.8017 Z-0.0492 I0.0536 J0.
N1750 X0.6944 Z-0.0591 I-0.0536 J0.
N1755 X0.8017 Z-0.0689 I0.0536 J0.
N1760 X0.6944 Z-0.0787 I-0.0536 J0.
N1765 X0.8017 Z-0.0886 I0.0536 J0.
N1770 X0.6944 Z-0.0984 I-0.0536 J0.
N1775 X0.8017 Z-0.1083 I0.0536 J0.
N1780 X0.6944 Z-0.1181 I-0.0536 J0.
N1785 X0.8017 Z-0.128 I0.0536 J0.
N1790 X0.6944 Z-0.1378 I-0.0536 J0.
N1795 X0.8017 Z-0.1476 I0.0536 J0.
N1800 X0.6944 Z-0.1575 I-0.0536 J0.
N1805 X0.8017 Z-0.1673 I0.0536 J0.
N1810 X0.6944 Z-0.1772 I-0.0536 J0.
N1815 X0.8017 Z-0.187 I0.0536 J0.
N1820 X0.6944 Z-0.1969 I-0.0536 J0.
N1825 X0.8017 Z-0.2067 I0.0536 J0.
N1830 X0.6944 Z-0.2165 I-0.0536 J0.
N1835 X0.8017 Z-0.2264 I0.0536 J0.
N1840 X0.6944 Z-0.2362 I-0.0536 J0.
N1845 X0.8017 Z-0.2461 I0.0536 J0.
N1850 X0.6944 Z-0.2559 I-0.0536 J0.
N1855 X0.8017 Z-0.2657 I0.0536 J0.
N1860 X0.6944 Z-0.2756 I-0.0536 J0.
N1865 X0.8017 Z-0.2854 I0.0536 J0.
N1870 X0.6944 Z-0.2953 I-0.0536 J0.
N1875 X0.8017 Z-0.3051 I0.0536 J0.
N1880 X0.6944 Z-0.315 I-0.0536 J0.
N1885 X0.8017 Z-0.3248 I0.0536 J0.
N1890 X0.6944 Z-0.3346 I-0.0536 J0.
N1895 X0.8017 Z-0.3445 I0.0536 J0.
N1900 X0.6944 Z-0.3543 I-0.0536 J0.
N1905 X0.8017 Z-0.3642 I0.0536 J0.
N1910 X0.6944 Z-0.374 I-0.0536 J0.
N1915 X0.8017 Z-0.3839 I0.0536 J0.
N1920 X0.6944 Z-0.3937 I-0.0536 J0.
N1925 X0.8017 Z-0.4035 I0.0536 J0.
N1930 X0.6944 Z-0.4134 I-0.0536 J0.
N1935 X0.8017 Z-0.4232 I0.0536 J0.
N1940 X0.6944 Z-0.4331 I-0.0536 J0.
N1945 X0.8017 Z-0.4429 I0.0536 J0.
N1950 X0.6944 Z-0.4528 I-0.0536 J0.
N1955 X0.8017 Z-0.4626 I0.0536 J0.
N1960 X0.6944 Z-0.4724 I-0.0536 J0.
N1965 X0.8017 Z-0.4823 I0.0536 J0.
N1970 X0.6944 Z-0.4921 I-0.0536 J0.
N1975 X0.8017 Z-0.502 I0.0536 J0.
N1980 X0.6944 Z-0.5118 I-0.0536 J0.
N1985 X0.8017 Z-0.5217 I0.0536 J0.
N1990 X0.6944 Z-0.5315 I-0.0536 J0.
N1995 X0.8017 Z-0.5413 I0.0536 J0.
N2000 X0.6944 Z-0.5512 I-0.0536 J0.
N2005 X0.8017 Z-0.561 I0.0536 J0.
N2010 X0.6944 Z-0.5709 I-0.0536 J0.
N2015 X0.8017 Z-0.5807 I0.0536 J0.
N2020 X0.6944 Z-0.5906 I-0.0536 J0.
N2025 X0.8017 I0.0536 J0.
N2030 X0.6944 I-0.0536 J0.
N2035 X0.7069 Y0.0131 I0.0125 J0.
N2040 G1 X0.7131
N2045 G18 G2 X0.7256 Z-0.5781 I0. K0.0125
N2050 G1 Z0.1969
N2055 X0.5065 Y-0.4908
N2060 Z0.1575
N2065 Z0.0912
N2070 G3 X0.494 Z0.0787 I-0.0125 K0.
N2075 G1 X0.4878
N2080 G17 G3 X0.4753 Y-0.5033 I0. J-0.0125
N2085 X0.5826 Z0.0689 I0.0536 J0.
N2090 X0.4753 Z0.0591 I-0.0536 J0.
N2095 X0.5826 Z0.0492 I0.0536 J0.
N2100 X0.4753 Z0.0394 I-0.0536 J0.
N2105 X0.5826 Z0.0295 I0.0536 J0.
N2110 X0.4753 Z0.0197 I-0.0536 J0.
N2115 X0.5826 Z0.0098 I0.0536 J0.
N2120 X0.4753 Z0. I-0.0536 J0.
N2125 X0.5826 Z-0.0098 I0.0536 J0.
N2130 X0.4753 Z-0.0197 I-0.0536 J0.
N2135 X0.5826 Z-0.0295 I0.0536 J0.
N2140 X0.4753 Z-0.0394 I-0.0536 J0.
N2145 X0.5826 Z-0.0492 I0.0536 J0.
N2150 X0.4753 Z-0.0591 I-0.0536 J0.
N2155 X0.5826 Z-0.0689 I0.0536 J0.
N2160 X0.4753 Z-0.0787 I-0.0536 J0.
N2165 X0.5826 Z-0.0886 I0.0536 J0.
N2170 X0.4753 Z-0.0984 I-0.0536 J0.
N2175 X0.5826 Z-0.1083 I0.0536 J0.
N2180 X0.4753 Z-0.1181 I-0.0536 J0.
N2185 X0.5826 Z-0.128 I0.0536 J0.
N2190 X0.4753 Z-0.1378 I-0.0536 J0.
N2195 X0.5826 Z-0.1476 I0.0536 J0.
N2200 X0.4753 Z-0.1575 I-0.0536 J0.
N2205 X0.5826 Z-0.1673 I0.0536 J0.
N2210 X0.4753 Z-0.1772 I-0.0536 J0.
N2215 X0.5826 Z-0.187 I0.0536 J0.
N2220 X0.4753 Z-0.1969 I-0.0536 J0.
N2225 X0.5826 Z-0.2067 I0.0536 J0.
N2230 X0.4753 Z-0.2165 I-0.0536 J0.
N2235 X0.5826 Z-0.2264 I0.0536 J0.
N2240 X0.4753 Z-0.2362 I-0.0536 J0.
N2245 X0.5826 Z-0.2461 I0.0536 J0.
N2250 X0.4753 Z-0.2559 I-0.0536 J0.
N2255 X0.5826 Z-0.2657 I0.0536 J0.
N2260 X0.4753 Z-0.2756 I-0.0536 J0.
N2265 X0.5826 Z-0.2854 I0.0536 J0.
N2270 X0.4753 Z-0.2953 I-0.0536 J0.
N2275 X0.5826 Z-0.3051 I0.0536 J0.
N2280 X0.4753 Z-0.315 I-0.0536 J0.
N2285 X0.5826 Z-0.3248 I0.0536 J0.
N2290 X0.4753 Z-0.3346 I-0.0536 J0.
N2295 X0.5826 Z-0.3445 I0.0536 J0.
N2300 X0.4753 Z-0.3543 I-0.0536 J0.
N2305 X0.5826 Z-0.3642 I0.0536 J0.
N2310 X0.4753 Z-0.374 I-0.0536 J0.
N2315 X0.5826 Z-0.3839 I0.0536 J0.
N2320 X0.4753 Z-0.3937 I-0.0536 J0.
N2325 X0.5826 Z-0.4035 I0.0536 J0.
N2330 X0.4753 Z-0.4134 I-0.0536 J0.
N2335 X0.5826 Z-0.4232 I0.0536 J0.
N2340 X0.4753 Z-0.4331 I-0.0536 J0.
N2345 X0.5826 Z-0.4429 I0.0536 J0.
N2350 X0.4753 Z-0.4528 I-0.0536 J0.
N2355 X0.5826 Z-0.4626 I0.0536 J0.
N2360 X0.4753 Z-0.4724 I-0.0536 J0.
N2365 X0.5826 Z-0.4823 I0.0536 J0.
N2370 X0.4753 Z-0.4921 I-0.0536 J0.
N2375 X0.5826 Z-0.502 I0.0536 J0.
N2380 X0.4753 Z-0.5118 I-0.0536 J0.
N2385 X0.5826 Z-0.5217 I0.0536 J0.
N2390 X0.4753 Z-0.5315 I-0.0536 J0.
N2395 X0.5826 Z-0.5413 I0.0536 J0.
N2400 X0.4753 Z-0.5512 I-0.0536 J0.
N2405 X0.5826 Z-0.561 I0.0536 J0.
N2410 X0.4753 Z-0.5709 I-0.0536 J0.
N2415 X0.5826 Z-0.5807 I0.0536 J0.
N2420 X0.4753 Z-0.5906 I-0.0536 J0.
N2425 X0.5826 I0.0536 J0.
N2430 X0.4753 I-0.0536 J0.
N2435 X0.4878 Y-0.5158 I0.0125 J0.
N2440 G1 X0.494
N2445 G18 G2 X0.5065 Z-0.5781 I0. K0.0125
N2450 G1 Z0.5906
N2455 G17
N2460 M5
N2465 G53 G0 Z0.
N2470 M30
%
