%
(FILL PLATE - 3 CONTOURING)
(MACHINE)
(  VENDOR PRINTNC)
(  MODEL PRINTNC V4 METALCUTTER)
(  DESCRIPTION GENERIC 3-AXIS ROUTER)
(T1 D=0.2362 CR=0. - ZMIN=-0.5906 - FLAT END MILL)
N10 G90 G94 G17 G91.1
N15 G20
(WHEN USING FUSION FOR PERSONAL USE, THE FEEDRATE OF RAPID)
(MOVES IS REDUCED TO MATCH THE FEEDRATE OF CUTTING MOVES,)
(WHICH CAN INCREASE MACHINING TIME. UNRESTRICTED RAPID MOVES)
(ARE AVAILABLE WITH A FUSION SUBSCRIPTION.)
N20 G53 G0 Z0.
(2D CONTOUR7 2)
N25 T1 M6
N30 S12980 M3
N35 G17 G90 G94
N40 G54
N45 G64 P0.0004 Q0.0004
N50 G0 X0.1654 Y0.7303
N55 G43 Z0.5906 H1
N60 G1 Z0.1969 F40.697
N65 Z0.0394 F13.123
N70 Z-0.2717
N75 G18 G2 X0.189 Z-0.2953 I0.0236 K0. F40.697
N80 G1 X0.2126
N85 G17 G3 X0.2362 Y0.7539 I0. J0.0236
N90 G2 X0.4724 Y0.9902 I0.2362 J0.
N95 G1 X1.0876
N100 G2 X1.4813 Y0.5965 I0. J-0.3937
N105 G1 Y-0.5965
N110 G2 X1.0876 Y-0.9902 I-0.3937 J0.
N115 G1 X-1.0876
N120 G2 X-1.4813 Y-0.5965 I0. J0.3937
N125 G1 Y0.5965
N130 G2 X-1.0876 Y0.9902 I0.3937 J0.
N135 G1 X-0.4724
N140 G2 X-0.2362 Y0.7539 I0. J-0.2362
N145 G3 X-0.2126 Y0.7303 I0.0236 J0.
N150 G1 X-0.189
N155 G18 G2 X-0.1654 Z-0.2717 I0. K0.0236
N160 G1 Z0.5906
N165 G17
(WHEN USING FUSION FOR PERSONAL USE, THE FEEDRATE OF RAPID)
(MOVES IS REDUCED TO MATCH THE FEEDRATE OF CUTTING MOVES,)
(WHICH CAN INCREASE MACHINING TIME. UNRESTRICTED RAPID MOVES)
(ARE AVAILABLE WITH A FUSION SUBSCRIPTION.)
(2D CONTOUR8 2)
N170 G0 X-1.249 Y1.1988
N175 G1 Z0.5906 F40.697
N180 Z0.1969
N185 Z0.0394 F13.123
N190 Z-0.5669
N195 G19 G2 Y1.1752 Z-0.5906 J-0.0236 K0. F40.697
N200 G1 Y1.1516
N205 G17 G3 X-1.2254 Y1.128 I0.0236 J0.
N210 G1 X-0.4724
N215 G2 X-0.2362 Y0.8917 I0. J-0.2362
N220 G1 Y0.0256
N225 G3 X0.2362 I0.2362 J0.
N230 G1 Y0.8917
N235 G2 X0.4724 Y1.128 I0.2362 J0.
N240 G1 X1.2254
N245 G2 X1.6191 Y0.7343 I0. J-0.3937
N250 G1 Y-0.7343
N255 G2 X1.2254 Y-1.128 I-0.3937 J0.
N260 G1 X-1.2254
N265 G2 X-1.6191 Y-0.7343 I0. J0.3937
N270 G1 Y0.7343
N275 G2 X-1.2254 Y1.128 I0.3937 J0.
N280 G3 X-1.2018 Y1.1516 I0. J0.0236
N285 G1 Y1.1752
N290 G19 G3 Y1.1988 Z-0.5669 J0. K0.0236
N295 G1 Z0.5906
N300 G17
N305 M5
N310 G53 G0 Z0.
N315 M30
%
