%
(FILL PLATE - 4 CHAMFERING)
(MACHINE)
(  VENDOR PRINTNC)
(  MODEL PRINTNC V4 METALCUTTER)
(  DESCRIPTION GENERIC 3-AXIS ROUTER)
(T11 D=0.1575 CR=0. TAPER=45DEG - ZMIN=-0.0787 - CHAMFER MILL)
N10 G90 G94 G17 G91.1
N15 G20
(WHEN USING FUSION FOR PERSONAL USE, THE FEEDRATE OF RAPID)
(MOVES IS REDUCED TO MATCH THE FEEDRATE OF CUTTING MOVES,)
(WHICH CAN INCREASE MACHINING TIME. UNRESTRICTED RAPID MOVES)
(ARE AVAILABLE WITH A FUSION SUBSCRIPTION.)
N20 G53 G0 Z0.
(2D CHAMFER1 3)
N25 T11 M6
N30 S15000 M3
N35 G17 G90 G94
N40 G54
N45 G64 P0.0004 Q0.0004
N50 G0 X1.0876 Y-0.9272
N55 G43 Z0.5906 H11
N60 G1 Z0.1969 F59.055
N65 Z0.0787 F13.123
N70 Z-0.0787
N75 Y-0.9114 F59.055
N80 X-1.0876
N85 G2 X-1.4026 Y-0.5965 I0. J0.315
N90 G1 Y0.5965
N95 G2 X-1.0876 Y0.9114 I0.315 J0.
N100 G1 X-0.4724
N105 G2 X-0.315 Y0.7539 I0. J-0.1575
N110 G1 Y0.0256
N115 G3 X0.315 I0.315 J0.
N120 G1 Y0.7539
N125 G2 X0.4724 Y0.9114 I0.1575 J0.
N130 G1 X1.0876
N135 G2 X1.4026 Y0.5965 I0. J-0.315
N140 G1 Y-0.5965
N145 G2 X1.0876 Y-0.9114 I-0.315 J0.
N150 G1 Y-0.9272
N155 Z0.1969
N160 X0.5722 Y-0.5033
N165 Z0.0787 F13.123
N170 Z-0.0787
N175 X0.588 F59.055
N180 G3 X0.4699 I-0.0591 J0.
N185 X0.588 I0.0591 J0.
N190 G1 X0.5722
N195 Z0.1969
N200 X0.7913 Y0.0256
N205 Z0.0787 F13.123
N210 Z-0.0787
N215 X0.8071 F59.055
N220 G3 X0.689 I-0.0591 J0.
N225 X0.8071 I0.0591 J0.
N230 G1 X0.7913
N235 Z0.1969
N240 X0.5722 Y0.5545
N245 Z0.0787 F13.123
N250 Z-0.0787
N255 X0.588 F59.055
N260 G3 X0.4699 I-0.0591 J0.
N265 X0.588 I0.0591 J0.
N270 G1 X0.5722
N275 Z0.1969
N280 X-0.4856
N285 Z0.0787 F13.123
N290 Z-0.0787
N295 X-0.4699 F59.055
N300 G3 X-0.588 I-0.0591 J0.
N305 X-0.4699 I0.0591 J0.
N310 G1 X-0.4856
N315 Z0.1969
N320 X-0.7059 Y0.0356
N325 Z0.0787 F13.123
N330 Z-0.0787
N335 X-0.6906 Y0.0392 F59.055
N340 G3 X-0.8055 Y0.012 I-0.0575 J-0.0136
N345 X-0.6906 Y0.0392 I0.0575 J0.0136
N350 G1 X-0.7059 Y0.0356
N355 Z0.1969
N360 X-0.4856 Y-0.5033
N365 Z0.0787 F13.123
N370 Z-0.0787
N375 X-0.4699 F59.055
N380 G3 X-0.588 I-0.0591 J0.
N385 X-0.4699 I0.0591 J0.
N390 G1 X-0.4856
N395 Z0.5906
N400 M5
N405 G53 G0 Z0.
N410 M30
%
