%
(FILL PLATE)
(MACHINE)
(  VENDOR PRINTNC)
(  MODEL PRINTNC V4 METALCUTTER)
(  DESCRIPTION GENERIC 3-AXIS ROUTER)
(T101 D=0.1969 CR=0. TAPER=135DEG - ZMIN=-0.6313 - DRILL)
N10 G90 G94 G17 G91.1
N15 G20
N20 G53 G0 Z0.
(DRILL3)
N25 T101 M6
N30 S10000 M3
N35 G17 G90 G94
N40 G54
N45 G0 X-0.5289 Y0.5545
N50 G43 Z0.5906 H6
N55 G0 Z0.1969
N60 G1 Z-0.0492 F39.37
N65 G0 Z0.1969
N70 Z0.0308
N75 G1 Z-0.0984 F39.37
N80 G0 Z0.1969
N85 Z-0.0184
N90 G1 Z-0.1476 F39.37
N95 G0 Z0.1969
N100 Z-0.0676
N105 G1 Z-0.1969 F39.37
N110 G0 Z0.1969
N115 Z-0.1169
N120 G1 Z-0.2461 F39.37
N125 G0 Z0.1969
N130 Z-0.1661
N135 G1 Z-0.2953 F39.37
N140 G0 Z0.1969
N145 Z-0.2153
N150 G1 Z-0.3445 F39.37
N155 G0 Z0.1969
N160 Z-0.2645
N165 G1 Z-0.3937 F39.37
N170 G0 Z0.1969
N175 Z-0.3137
N180 G1 Z-0.4429 F39.37
N185 G0 Z0.1969
N190 Z-0.3629
N195 G1 Z-0.4921 F39.37
N200 G0 Z0.1969
N205 Z-0.4121
N210 G1 Z-0.5413 F39.37
N215 G0 Z0.1969
N220 Z-0.4613
N225 G1 Z-0.5906 F39.37
N230 G0 Z0.1969
N235 Z-0.5106
N240 G1 Z-0.6313 F39.37
N245 G4 P0.5
N250 G0 Z0.1969
N255 X-0.748 Y0.0256
N260 G1 Z-0.0492 F39.37
N265 G0 Z0.1969
N270 Z0.0308
N275 G1 Z-0.0984 F39.37
N280 G0 Z0.1969
N285 Z-0.0184
N290 G1 Z-0.1476 F39.37
N295 G0 Z0.1969
N300 Z-0.0676
N305 G1 Z-0.1969 F39.37
N310 G0 Z0.1969
N315 Z-0.1169
N320 G1 Z-0.2461 F39.37
N325 G0 Z0.1969
N330 Z-0.1661
N335 G1 Z-0.2953 F39.37
N340 G0 Z0.1969
N345 Z-0.2153
N350 G1 Z-0.3445 F39.37
N355 G0 Z0.1969
N360 Z-0.2645
N365 G1 Z-0.3937 F39.37
N370 G0 Z0.1969
N375 Z-0.3137
N380 G1 Z-0.4429 F39.37
N385 G0 Z0.1969
N390 Z-0.3629
N395 G1 Z-0.4921 F39.37
N400 G0 Z0.1969
N405 Z-0.4121
N410 G1 Z-0.5413 F39.37
N415 G0 Z0.1969
N420 Z-0.4613
N425 G1 Z-0.5906 F39.37
N430 G0 Z0.1969
N435 Z-0.5106
N440 G1 Z-0.6313 F39.37
N445 G4 P0.5
N450 G0 Z0.1969
N455 X-0.5289 Y-0.5033
N460 G1 Z-0.0492 F39.37
N465 G0 Z0.1969
N470 Z0.0308
N475 G1 Z-0.0984 F39.37
N480 G0 Z0.1969
N485 Z-0.0184
N490 G1 Z-0.1476 F39.37
N495 G0 Z0.1969
N500 Z-0.0676
N505 G1 Z-0.1969 F39.37
N510 G0 Z0.1969
N515 Z-0.1169
N520 G1 Z-0.2461 F39.37
N525 G0 Z0.1969
N530 Z-0.1661
N535 G1 Z-0.2953 F39.37
N540 G0 Z0.1969
N545 Z-0.2153
N550 G1 Z-0.3445 F39.37
N555 G0 Z0.1969
N560 Z-0.2645
N565 G1 Z-0.3937 F39.37
N570 G0 Z0.1969
N575 Z-0.3137
N580 G1 Z-0.4429 F39.37
N585 G0 Z0.1969
N590 Z-0.3629
N595 G1 Z-0.4921 F39.37
N600 G0 Z0.1969
N605 Z-0.4121
N610 G1 Z-0.5413 F39.37
N615 G0 Z0.1969
N620 Z-0.4613
N625 G1 Z-0.5906 F39.37
N630 G0 Z0.1969
N635 Z-0.5106
N640 G1 Z-0.6313 F39.37
N645 G4 P0.5
N650 G0 Z0.1969
N655 X0.5289
N660 G1 Z-0.0492 F39.37
N665 G0 Z0.1969
N670 Z0.0308
N675 G1 Z-0.0984 F39.37
N680 G0 Z0.1969
N685 Z-0.0184
N690 G1 Z-0.1476 F39.37
N695 G0 Z0.1969
N700 Z-0.0676
N705 G1 Z-0.1969 F39.37
N710 G0 Z0.1969
N715 Z-0.1169
N720 G1 Z-0.2461 F39.37
N725 G0 Z0.1969
N730 Z-0.1661
N735 G1 Z-0.2953 F39.37
N740 G0 Z0.1969
N745 Z-0.2153
N750 G1 Z-0.3445 F39.37
N755 G0 Z0.1969
N760 Z-0.2645
N765 G1 Z-0.3937 F39.37
N770 G0 Z0.1969
N775 Z-0.3137
N780 G1 Z-0.4429 F39.37
N785 G0 Z0.1969
N790 Z-0.3629
N795 G1 Z-0.4921 F39.37
N800 G0 Z0.1969
N805 Z-0.4121
N810 G1 Z-0.5413 F39.37
N815 G0 Z0.1969
N820 Z-0.4613
N825 G1 Z-0.5906 F39.37
N830 G0 Z0.1969
N835 Z-0.5106
N840 G1 Z-0.6313 F39.37
N845 G4 P0.5
N850 G0 Z0.1969
N855 X0.748 Y0.0256
N860 G1 Z-0.0492 F39.37
N865 G0 Z0.1969
N870 Z0.0308
N875 G1 Z-0.0984 F39.37
N880 G0 Z0.1969
N885 Z-0.0184
N890 G1 Z-0.1476 F39.37
N895 G0 Z0.1969
N900 Z-0.0676
N905 G1 Z-0.1969 F39.37
N910 G0 Z0.1969
N915 Z-0.1169
N920 G1 Z-0.2461 F39.37
N925 G0 Z0.1969
N930 Z-0.1661
N935 G1 Z-0.2953 F39.37
N940 G0 Z0.1969
N945 Z-0.2153
N950 G1 Z-0.3445 F39.37
N955 G0 Z0.1969
N960 Z-0.2645
N965 G1 Z-0.3937 F39.37
N970 G0 Z0.1969
N975 Z-0.3137
N980 G1 Z-0.4429 F39.37
N985 G0 Z0.1969
N990 Z-0.3629
N995 G1 Z-0.4921 F39.37
N1000 G0 Z0.1969
N1005 Z-0.4121
N1010 G1 Z-0.5413 F39.37
N1015 G0 Z0.1969
N1020 Z-0.4613
N1025 G1 Z-0.5906 F39.37
N1030 G0 Z0.1969
N1035 Z-0.5106
N1040 G1 Z-0.6313 F39.37
N1045 G4 P0.5
N1050 G0 Z0.1969
N1055 X0.5289 Y0.5545
N1060 G1 Z-0.0492 F39.37
N1065 G0 Z0.1969
N1070 Z0.0308
N1075 G1 Z-0.0984 F39.37
N1080 G0 Z0.1969
N1085 Z-0.0184
N1090 G1 Z-0.1476 F39.37
N1095 G0 Z0.1969
N1100 Z-0.0676
N1105 G1 Z-0.1969 F39.37
N1110 G0 Z0.1969
N1115 Z-0.1169
N1120 G1 Z-0.2461 F39.37
N1125 G0 Z0.1969
N1130 Z-0.1661
N1135 G1 Z-0.2953 F39.37
N1140 G0 Z0.1969
N1145 Z-0.2153
N1150 G1 Z-0.3445 F39.37
N1155 G0 Z0.1969
N1160 Z-0.2645
N1165 G1 Z-0.3937 F39.37
N1170 G0 Z0.1969
N1175 Z-0.3137
N1180 G1 Z-0.4429 F39.37
N1185 G0 Z0.1969
N1190 Z-0.3629
N1195 G1 Z-0.4921 F39.37
N1200 G0 Z0.1969
N1205 Z-0.4121
N1210 G1 Z-0.5413 F39.37
N1215 G0 Z0.1969
N1220 Z-0.4613
N1225 G1 Z-0.5906 F39.37
N1230 G0 Z0.1969
N1235 Z-0.5106
N1240 G1 Z-0.6313 F39.37
N1245 G4 P0.5
N1250 G0 Z0.1969
N1255 Z0.5906
N1260 M5
N1265 G53 G0 Z0.
N1270 M30
%
