%
(BASE PLATE)
(MACHINE)
(  VENDOR PRINTNC)
(  MODEL PRINTNC V4 METALCUTTER)
(  DESCRIPTION GENERIC 3-AXIS ROUTER)
(T1 D=6. CR=0. - ZMIN=-20.05 - FLAT END MILL)
N10 G90 G94 G17 G91.1
N15 G21
(WHEN USING FUSION FOR PERSONAL USE, THE FEEDRATE OF RAPID)
(MOVES IS REDUCED TO MATCH THE FEEDRATE OF CUTTING MOVES,)
(WHICH CAN INCREASE MACHINING TIME. UNRESTRICTED RAPID MOVES)
(ARE AVAILABLE WITH A FUSION SUBSCRIPTION.)
N20 G53 G0 Z0.
(OUTSIDE CONTOUR)
N25 T1 M6
N30 S24000 M3
N35 G17 G90 G94
N40 G54
N45 G64 P0.01 Q0.01
N50 M7
N55 G0 X-0.6 Y155.4
N60 G43 Z15. H1
N65 G1 Z5. F3838.45
N70 Z-19.45 F333.33
N75 G19 G2 Y154.8 Z-20.05 J-0.6 K0. F3838.45
N80 G1 Y154.2
N85 G17 G3 X0. Y153.6 I0.6 J0.
N90 G1 X150.
N95 G2 X153.6 Y150. I0. J-3.6
N100 G1 Y-150.
N105 G2 X150. Y-153.6 I-3.6 J0.
N110 G1 X-150.
N115 G2 X-153.6 Y-150. I0. J3.6
N120 G1 Y150.
N125 G2 X-150. Y153.6 I3.6 J0.
N130 G1 X0.
N135 G2 X0.45 Y153.3 I0. J-0.488
N140 G3 X0.9 Y153. I0.45 J0.188
N145 G1 X150.
N150 G2 X153. Y150. I0. J-3.
N155 G1 Y-150.
N160 G2 X150. Y-153. I-3. J0.
N165 G1 X-150.
N170 G2 X-153. Y-150. I0. J3.
N175 G1 Y150.
N180 G2 X-150. Y153. I3. J0.
N185 G1 X0.9
N190 G3 X1.5 Y153.6 I0. J0.6
N195 G1 Y154.2
N200 G19 G3 Y154.8 Z-19.45 J0. K0.6
N205 G1 Z15.
N210 G17
N215 M9
N220 M5
N225 G53 G0 Z0.
N230 M30
%
