%
(BASE PLATE)
(MACHINE)
(  VENDOR PRINTNC)
(  MODEL PRINTNC V4 METALCUTTER)
(  DESCRIPTION GENERIC 3-AXIS ROUTER)
(T11 D=0.1575 CR=0. TAPER=45DEG - ZMIN=-0.0827 - CHAMFER MILL)
N10 G90 G94 G17 G91.1
N15 G20
(WHEN USING FUSION FOR PERSONAL USE, THE FEEDRATE OF RAPID)
(MOVES IS REDUCED TO MATCH THE FEEDRATE OF CUTTING MOVES,)
(WHICH CAN INCREASE MACHINING TIME. UNRESTRICTED RAPID MOVES)
(ARE AVAILABLE WITH A FUSION SUBSCRIPTION.)
N20 G53 G0 Z0.
(HOLE CHAMFERS)
N25 T11 M6
N30 S22000 M3
N35 G17 G90 G94
N40 G54
N45 G64 P0.0004 Q0.0004
N50 G0 X0.1555 Y0.032
N55 G43 Z0.5906 H11
N60 G1 Z0.1969 F78.74
N65 Z-0.063 F13.123
N70 Y0.0317 Z-0.0664 F39.37
N75 Y0.0308 Z-0.0697
N80 X0.1557 Y0.0294 Z-0.0728
N85 X0.1558 Y0.0274 Z-0.0756
N90 X0.156 Y0.025 Z-0.0781
N95 X0.1562 Y0.0222 Z-0.08
N100 X0.1565 Y0.0191 Z-0.0815
N105 X0.1567 Y0.0158 Z-0.0824
N110 X0.157 Y0.0124 Z-0.0827
N115 X0.1585 Y-0.0073
N120 G3 X0.1766 Y0.0139 I-0.0015 J0.0196
N125 X-0.1766 Y-0.0139 I-0.1766 J-0.0139 F78.74
N130 X0.1766 Y0.0139 I0.1766 J0.0139
N135 X0.1555 Y0.032 I-0.0196 J-0.0015
N140 G1 X0.157 Y0.0124
N145 X0.1573 Y0.0089 Z-0.0824
N150 X0.1575 Y0.0056 Z-0.0815
N155 X0.1578 Y0.0025 Z-0.08
N160 X0.158 Y-0.0003 Z-0.0781
N165 X0.1582 Y-0.0027 Z-0.0756
N170 X0.1583 Y-0.0046 Z-0.0728
N175 X0.1584 Y-0.0061 Z-0.0697
N180 X0.1585 Y-0.007 Z-0.0664
N185 Y-0.0073 Z-0.063
N190 Z0.1969
N195 X0.4331 Y-0.374
N200 Z-0.063 F13.123
N205 G19 G2 Y-0.3937 Z-0.0827 J-0.0197 K0. F39.37
N210 G1 Y-0.4134
N215 G17 G3 X0.4528 Y-0.3937 I0. J0.0197
N220 X0.3346 I-0.0591 J0. F78.74
N225 X0.4528 I0.0591 J0.
N230 X0.4331 Y-0.374 I-0.0197 J0.
N235 G1 Y-0.3937
N240 G19 G2 Y-0.4134 Z-0.063 J0. K0.0197
N245 G1 Z0.1969
N250 X1.2205 Y-0.374
N255 Z-0.063 F13.123
N260 G2 Y-0.3937 Z-0.0827 J-0.0197 K0. F39.37
N265 G1 Y-0.4134
N270 G17 G3 X1.2402 Y-0.3937 I0. J0.0197
N275 X1.122 I-0.0591 J0. F78.74
N280 X1.2402 I0.0591 J0.
N285 X1.2205 Y-0.374 I-0.0197 J0.
N290 G1 Y-0.3937
N295 G19 G2 Y-0.4134 Z-0.063 J0. K0.0197
N300 G1 Z0.1969
N305 X2.0079 Y-0.374
N310 Z-0.063 F13.123
N315 G2 Y-0.3937 Z-0.0827 J-0.0197 K0. F39.37
N320 G1 Y-0.4134
N325 G17 G3 X2.0276 Y-0.3937 I0. J0.0197
N330 X1.9094 I-0.0591 J0. F78.74
N335 X2.0276 I0.0591 J0.
N340 X2.0079 Y-0.374 I-0.0197 J0.
N345 G1 Y-0.3937
N350 G19 G2 Y-0.4134 Z-0.063 J0. K0.0197
N355 G1 Z0.1969
N360 X2.7953 Y-0.374
N365 Z-0.063 F13.123
N370 G2 Y-0.3937 Z-0.0827 J-0.0197 K0. F39.37
N375 G1 Y-0.4134
N380 G17 G3 X2.815 Y-0.3937 I0. J0.0197
N385 X2.6969 I-0.0591 J0. F78.74
N390 X2.815 I0.0591 J0.
N395 X2.7953 Y-0.374 I-0.0197 J0.
N400 G1 Y-0.3937
N405 G19 G2 Y-0.4134 Z-0.063 J0. K0.0197
N410 G1 Z0.1969
N415 X3.5827 Y-0.374
N420 Z-0.063 F13.123
N425 G2 Y-0.3937 Z-0.0827 J-0.0197 K0. F39.37
N430 G1 Y-0.4134
N435 G17 G3 X3.6024 Y-0.3937 I0. J0.0197
N440 X3.4843 I-0.0591 J0. F78.74
N445 X3.6024 I0.0591 J0.
N450 X3.5827 Y-0.374 I-0.0197 J0.
N455 G1 Y-0.3937
N460 G19 G2 Y-0.4134 Z-0.063 J0. K0.0197
N465 G1 Z0.1969
N470 X4.3701 Y-0.374
N475 Z-0.063 F13.123
N480 G2 Y-0.3937 Z-0.0827 J-0.0197 K0. F39.37
N485 G1 Y-0.4134
N490 G17 G3 X4.3898 Y-0.3937 I0. J0.0197
N495 X4.2717 I-0.0591 J0. F78.74
N500 X4.3898 I0.0591 J0.
N505 X4.3701 Y-0.374 I-0.0197 J0.
N510 G1 Y-0.3937
N515 G19 G2 Y-0.4134 Z-0.063 J0. K0.0197
N520 G1 Z0.1969
N525 X5.2756 Y0.0197
N530 Z-0.063 F13.123
N535 G2 Y0. Z-0.0827 J-0.0197 K0. F39.37
N540 G1 Y-0.0197
N545 G17 G3 X5.2953 Y0. I0. J0.0197
N550 X4.9409 I-0.1772 J0. F78.74
N555 X5.2953 I0.1772 J0.
N560 X5.2756 Y0.0197 I-0.0197 J0.
N565 G1 Y0.
N570 G19 G2 Y-0.0197 Z-0.063 J0. K0.0197
N575 G1 Z0.1969
N580 X5.1575 Y-0.374
N585 Z-0.063 F13.123
N590 G2 Y-0.3937 Z-0.0827 J-0.0197 K0. F39.37
N595 G1 Y-0.4134
N600 G17 G3 X5.1772 Y-0.3937 I0. J0.0197
N605 X5.0591 I-0.0591 J0. F78.74
N610 X5.1772 I0.0591 J0.
N615 X5.1575 Y-0.374 I-0.0197 J0.
N620 G1 Y-0.3937
N625 G19 G2 Y-0.4134 Z-0.063 J0. K0.0197
N630 G1 Z0.1969
N635 X5.1519 Y-1.1529
N640 Z-0.063 F13.123
N645 Y-1.1532 Z-0.0664 F39.37
N650 X5.1522 Y-1.154 Z-0.0697
N655 X5.1525 Y-1.1554 Z-0.0728
N660 X5.1529 Y-1.1573 Z-0.0756
N665 X5.1535 Y-1.1597 Z-0.0781
N670 X5.1541 Y-1.1624 Z-0.08
N675 X5.1549 Y-1.1655 Z-0.0815
N680 X5.1556 Y-1.1687 Z-0.0824
N685 X5.1564 Y-1.172 Z-0.0827
N690 X5.161 Y-1.1912
N695 G17 G3 X5.1756 Y-1.1675 I-0.0045 J0.0192
N700 X5.0606 Y-1.1947 I-0.0575 J-0.0136 F78.74
N705 X5.1756 Y-1.1675 I0.0575 J0.0136
N710 X5.1519 Y-1.1529 I-0.0192 J-0.0045
N715 G1 X5.1564 Y-1.172
N720 X5.1572 Y-1.1753 Z-0.0824
N725 X5.158 Y-1.1786 Z-0.0815
N730 X5.1587 Y-1.1816 Z-0.08
N735 X5.1593 Y-1.1843 Z-0.0781
N740 X5.1599 Y-1.1867 Z-0.0756
N745 X5.1604 Y-1.1886 Z-0.0728
N750 X5.1607 Y-1.19 Z-0.0697
N755 X5.1609 Y-1.1909 Z-0.0664
N760 X5.161 Y-1.1912 Z-0.063
N765 Z0.1969
N770 X5.1575 Y-1.9488
N775 Z-0.063 F13.123
N780 G19 G2 Y-1.9685 Z-0.0827 J-0.0197 K0. F39.37
N785 G1 Y-1.9882
N790 G17 G3 X5.1772 Y-1.9685 I0. J0.0197
N795 X5.0591 I-0.0591 J0. F78.74
N800 X5.1772 I0.0591 J0.
N805 X5.1575 Y-1.9488 I-0.0197 J0.
N810 G1 Y-1.9685
N815 G19 G2 Y-1.9882 Z-0.063 J0. K0.0197
N820 G1 Z0.1969
N825 Y-2.7362
N830 Z-0.063 F13.123
N835 G2 Y-2.7559 Z-0.0827 J-0.0197 K0. F39.37
N840 G1 Y-2.7756
N845 G17 G3 X5.1772 Y-2.7559 I0. J0.0197
N850 X5.0591 I-0.0591 J0. F78.74
N855 X5.1772 I0.0591 J0.
N860 X5.1575 Y-2.7362 I-0.0197 J0.
N865 G1 Y-2.7559
N870 G19 G2 Y-2.7756 Z-0.063 J0. K0.0197
N875 G1 Z0.1969
N880 Y-3.5236
N885 Z-0.063 F13.123
N890 G2 Y-3.5433 Z-0.0827 J-0.0197 K0. F39.37
N895 G1 Y-3.563
N900 G17 G3 X5.1772 Y-3.5433 I0. J0.0197
N905 X5.0591 I-0.0591 J0. F78.74
N910 X5.1772 I0.0591 J0.
N915 X5.1575 Y-3.5236 I-0.0197 J0.
N920 G1 Y-3.5433
N925 G19 G2 Y-3.563 Z-0.063 J0. K0.0197
N930 G1 Z0.1969
N935 Y-4.311
N940 Z-0.063 F13.123
N945 G2 Y-4.3307 Z-0.0827 J-0.0197 K0. F39.37
N950 G1 Y-4.3504
N955 G17 G3 X5.1772 Y-4.3307 I0. J0.0197
N960 X5.0591 I-0.0591 J0. F78.74
N965 X5.1772 I0.0591 J0.
N970 X5.1575 Y-4.311 I-0.0197 J0.
N975 G1 Y-4.3307
N980 G19 G2 Y-4.3504 Z-0.063 J0. K0.0197
N985 G1 Z0.1969
N990 X5.2756 Y-5.0984
N995 Z-0.063 F13.123
N1000 G2 Y-5.1181 Z-0.0827 J-0.0197 K0. F39.37
N1005 G1 Y-5.1378
N1010 G17 G3 X5.2953 Y-5.1181 I0. J0.0197
N1015 X4.9409 I-0.1772 J0. F78.74
N1020 X5.2953 I0.1772 J0.
N1025 X5.2756 Y-5.0984 I-0.0197 J0.
N1030 G1 Y-5.1181
N1035 G19 G2 Y-5.1378 Z-0.063 J0. K0.0197
N1040 G1 Z0.1969
N1045 X5.9646 Y-0.0197
N1050 Z-0.063 F13.123
N1055 G3 Y0. Z-0.0827 J0.0197 K0. F39.37
N1060 G1 Y0.0197
N1065 G17 G3 X5.9449 Y0. I0. J-0.0197
N1070 G1 Y-5.9055 F78.74
N1075 G2 X5.9055 Y-5.9449 I-0.0394 J0.
N1080 G1 X-5.9055
N1085 G2 X-5.9449 Y-5.9055 I0. J0.0394
N1090 G1 Y5.9055
N1095 G2 X-5.9055 Y5.9449 I0.0394 J0.
N1100 G1 X5.9055
N1105 G2 X5.9449 Y5.9055 I0. J-0.0394
N1110 G1 Y0.
N1115 G3 X5.9646 Y-0.0197 I0.0197 J0.
N1120 G1 Y0.
N1125 G19 G3 Y0.0197 Z-0.063 J0. K0.0197
N1130 G1 Z0.1969
N1135 X5.1575 Y0.4134
N1140 Z-0.063 F13.123
N1145 G2 Y0.3937 Z-0.0827 J-0.0197 K0. F39.37
N1150 G1 Y0.374
N1155 G17 G3 X5.1772 Y0.3937 I0. J0.0197
N1160 X5.0591 I-0.0591 J0. F78.74
N1165 X5.1772 I0.0591 J0.
N1170 X5.1575 Y0.4134 I-0.0197 J0.
N1175 G1 Y0.3937
N1180 G19 G2 Y0.374 Z-0.063 J0. K0.0197
N1185 G1 Z0.1969
N1190 Y1.2008
N1195 Z-0.063 F13.123
N1200 G2 Y1.1811 Z-0.0827 J-0.0197 K0. F39.37
N1205 G1 Y1.1614
N1210 G17 G3 X5.1772 Y1.1811 I0. J0.0197
N1215 X5.0591 I-0.0591 J0. F78.74
N1220 X5.1772 I0.0591 J0.
N1225 X5.1575 Y1.2008 I-0.0197 J0.
N1230 G1 Y1.1811
N1235 G19 G2 Y1.1614 Z-0.063 J0. K0.0197
N1240 G1 Z0.1969
N1245 X5.1519 Y1.9967
N1250 Z-0.063 F13.123
N1255 Y1.9964 Z-0.0664 F39.37
N1260 X5.1522 Y1.9956 Z-0.0697
N1265 X5.1525 Y1.9942 Z-0.0728
N1270 X5.1529 Y1.9923 Z-0.0756
N1275 X5.1535 Y1.9899 Z-0.0781
N1280 X5.1541 Y1.9872 Z-0.08
N1285 X5.1549 Y1.9841 Z-0.0815
N1290 X5.1556 Y1.9809 Z-0.0824
N1295 X5.1564 Y1.9776 Z-0.0827
N1300 X5.161 Y1.9584
N1305 G17 G3 X5.1756 Y1.9821 I-0.0045 J0.0192
N1310 X5.0606 Y1.9549 I-0.0575 J-0.0136 F78.74
N1315 X5.1756 Y1.9821 I0.0575 J0.0136
N1320 X5.1519 Y1.9967 I-0.0192 J-0.0045
N1325 G1 X5.1564 Y1.9776
N1330 X5.1572 Y1.9743 Z-0.0824
N1335 X5.158 Y1.971 Z-0.0815
N1340 X5.1587 Y1.968 Z-0.08
N1345 X5.1593 Y1.9653 Z-0.0781
N1350 X5.1599 Y1.9629 Z-0.0756
N1355 X5.1604 Y1.961 Z-0.0728
N1360 X5.1607 Y1.9596 Z-0.0697
N1365 X5.1609 Y1.9587 Z-0.0664
N1370 X5.161 Y1.9584 Z-0.063
N1375 Z0.1969
N1380 X5.1519 Y2.7841
N1385 Z-0.063 F13.123
N1390 Y2.7838 Z-0.0664 F39.37
N1395 X5.1522 Y2.783 Z-0.0697
N1400 X5.1525 Y2.7816 Z-0.0728
N1405 X5.1529 Y2.7797 Z-0.0756
N1410 X5.1535 Y2.7773 Z-0.0781
N1415 X5.1541 Y2.7746 Z-0.08
N1420 X5.1549 Y2.7715 Z-0.0815
N1425 X5.1556 Y2.7683 Z-0.0824
N1430 X5.1564 Y2.765 Z-0.0827
N1435 X5.161 Y2.7458
N1440 G3 X5.1756 Y2.7695 I-0.0045 J0.0192
N1445 X5.0606 Y2.7423 I-0.0575 J-0.0136 F78.74
N1450 X5.1756 Y2.7695 I0.0575 J0.0136
N1455 X5.1519 Y2.7841 I-0.0192 J-0.0045
N1460 G1 X5.1564 Y2.765
N1465 X5.1572 Y2.7617 Z-0.0824
N1470 X5.158 Y2.7584 Z-0.0815
N1475 X5.1587 Y2.7554 Z-0.08
N1480 X5.1593 Y2.7527 Z-0.0781
N1485 X5.1599 Y2.7503 Z-0.0756
N1490 X5.1604 Y2.7484 Z-0.0728
N1495 X5.1607 Y2.747 Z-0.0697
N1500 X5.1609 Y2.7461 Z-0.0664
N1505 X5.161 Y2.7458 Z-0.063
N1510 Z0.1969
N1515 X5.1519 Y3.5715
N1520 Z-0.063 F13.123
N1525 Y3.5712 Z-0.0664 F39.37
N1530 X5.1522 Y3.5704 Z-0.0697
N1535 X5.1525 Y3.569 Z-0.0728
N1540 X5.1529 Y3.5671 Z-0.0756
N1545 X5.1535 Y3.5647 Z-0.0781
N1550 X5.1541 Y3.562 Z-0.08
N1555 X5.1549 Y3.5589 Z-0.0815
N1560 X5.1556 Y3.5557 Z-0.0824
N1565 X5.1564 Y3.5524 Z-0.0827
N1570 X5.161 Y3.5332
N1575 G3 X5.1756 Y3.5569 I-0.0045 J0.0192
N1580 X5.0606 Y3.5297 I-0.0575 J-0.0136 F78.74
N1585 X5.1756 Y3.5569 I0.0575 J0.0136
N1590 X5.1519 Y3.5715 I-0.0192 J-0.0045
N1595 G1 X5.1564 Y3.5524
N1600 X5.1572 Y3.5491 Z-0.0824
N1605 X5.158 Y3.5458 Z-0.0815
N1610 X5.1587 Y3.5428 Z-0.08
N1615 X5.1593 Y3.5401 Z-0.0781
N1620 X5.1599 Y3.5377 Z-0.0756
N1625 X5.1604 Y3.5358 Z-0.0728
N1630 X5.1607 Y3.5344 Z-0.0697
N1635 X5.1609 Y3.5335 Z-0.0664
N1640 X5.161 Y3.5332 Z-0.063
N1645 Z0.1969
N1650 X5.1575 Y4.3504
N1655 Z-0.063 F13.123
N1660 G19 G2 Y4.3307 Z-0.0827 J-0.0197 K0. F39.37
N1665 G1 Y4.311
N1670 G17 G3 X5.1772 Y4.3307 I0. J0.0197
N1675 X5.0591 I-0.0591 J0. F78.74
N1680 X5.1772 I0.0591 J0.
N1685 X5.1575 Y4.3504 I-0.0197 J0.
N1690 G1 Y4.3307
N1695 G19 G2 Y4.311 Z-0.063 J0. K0.0197
N1700 G1 Z0.1969
N1705 X5.2756 Y5.1378
N1710 Z-0.063 F13.123
N1715 G2 Y5.1181 Z-0.0827 J-0.0197 K0. F39.37
N1720 G1 Y5.0984
N1725 G17 G3 X5.2953 Y5.1181 I0. J0.0197
N1730 X4.9409 I-0.1772 J0. F78.74
N1735 X5.2953 I0.1772 J0.
N1740 X5.2756 Y5.1378 I-0.0197 J0.
N1745 G1 Y5.1181
N1750 G19 G2 Y5.0984 Z-0.063 J0. K0.0197
N1755 G1 Z0.1969
N1760 X4.3701 Y5.1378
N1765 Z-0.063 F13.123
N1770 G2 Y5.1181 Z-0.0827 J-0.0197 K0. F39.37
N1775 G1 Y5.0984
N1780 G17 G3 X4.3898 Y5.1181 I0. J0.0197
N1785 X4.2717 I-0.0591 J0. F78.74
N1790 X4.3898 I0.0591 J0.
N1795 X4.3701 Y5.1378 I-0.0197 J0.
N1800 G1 Y5.1181
N1805 G19 G2 Y5.0984 Z-0.063 J0. K0.0197
N1810 G1 Z0.1969
N1815 Y4.3504
N1820 Z-0.063 F13.123
N1825 G2 Y4.3307 Z-0.0827 J-0.0197 K0. F39.37
N1830 G1 Y4.311
N1835 G17 G3 X4.3898 Y4.3307 I0. J0.0197
N1840 X4.2717 I-0.0591 J0. F78.74
N1845 X4.3898 I0.0591 J0.
N1850 X4.3701 Y4.3504 I-0.0197 J0.
N1855 G1 Y4.3307
N1860 G19 G2 Y4.311 Z-0.063 J0. K0.0197
N1865 G1 Z0.1969
N1870 Y3.563
N1875 Z-0.063 F13.123
N1880 G2 Y3.5433 Z-0.0827 J-0.0197 K0. F39.37
N1885 G1 Y3.5236
N1890 G17 G3 X4.3898 Y3.5433 I0. J0.0197
N1895 X4.2717 I-0.0591 J0. F78.74
N1900 X4.3898 I0.0591 J0.
N1905 X4.3701 Y3.563 I-0.0197 J0.
N1910 G1 Y3.5433
N1915 G19 G2 Y3.5236 Z-0.063 J0. K0.0197
N1920 G1 Z0.1969
N1925 Y2.7756
N1930 Z-0.063 F13.123
N1935 G2 Y2.7559 Z-0.0827 J-0.0197 K0. F39.37
N1940 G1 Y2.7362
N1945 G17 G3 X4.3898 Y2.7559 I0. J0.0197
N1950 X4.2717 I-0.0591 J0. F78.74
N1955 X4.3898 I0.0591 J0.
N1960 X4.3701 Y2.7756 I-0.0197 J0.
N1965 G1 Y2.7559
N1970 G19 G2 Y2.7362 Z-0.063 J0. K0.0197
N1975 G1 Z0.1969
N1980 Y1.9882
N1985 Z-0.063 F13.123
N1990 G2 Y1.9685 Z-0.0827 J-0.0197 K0. F39.37
N1995 G1 Y1.9488
N2000 G17 G3 X4.3898 Y1.9685 I0. J0.0197
N2005 X4.2717 I-0.0591 J0. F78.74
N2010 X4.3898 I0.0591 J0.
N2015 X4.3701 Y1.9882 I-0.0197 J0.
N2020 G1 Y1.9685
N2025 G19 G2 Y1.9488 Z-0.063 J0. K0.0197
N2030 G1 Z0.1969
N2035 Y1.2008
N2040 Z-0.063 F13.123
N2045 G2 Y1.1811 Z-0.0827 J-0.0197 K0. F39.37
N2050 G1 Y1.1614
N2055 G17 G3 X4.3898 Y1.1811 I0. J0.0197
N2060 X4.2717 I-0.0591 J0. F78.74
N2065 X4.3898 I0.0591 J0.
N2070 X4.3701 Y1.2008 I-0.0197 J0.
N2075 G1 Y1.1811
N2080 G19 G2 Y1.1614 Z-0.063 J0. K0.0197
N2085 G1 Z0.1969
N2090 Y0.4134
N2095 Z-0.063 F13.123
N2100 G2 Y0.3937 Z-0.0827 J-0.0197 K0. F39.37
N2105 G1 Y0.374
N2110 G17 G3 X4.3898 Y0.3937 I0. J0.0197
N2115 X4.2717 I-0.0591 J0. F78.74
N2120 X4.3898 I0.0591 J0.
N2125 X4.3701 Y0.4134 I-0.0197 J0.
N2130 G1 Y0.3937
N2135 G19 G2 Y0.374 Z-0.063 J0. K0.0197
N2140 G1 Z0.1969
N2145 X3.5771 Y0.4219
N2150 Z-0.063 F13.123
N2155 Y0.4216 Z-0.0664 F39.37
N2160 X3.5773 Y0.4208 Z-0.0697
N2165 X3.5777 Y0.4194 Z-0.0728
N2170 X3.5781 Y0.4175 Z-0.0756
N2175 X3.5787 Y0.4151 Z-0.0781
N2180 X3.5793 Y0.4124 Z-0.08
N2185 X3.5801 Y0.4093 Z-0.0815
N2190 X3.5808 Y0.4061 Z-0.0824
N2195 X3.5816 Y0.4028 Z-0.0827
N2200 X3.5862 Y0.3836
N2205 G17 G3 X3.6008 Y0.4073 I-0.0045 J0.0192
N2210 X3.4858 Y0.3801 I-0.0575 J-0.0136 F78.74
N2215 X3.6008 Y0.4073 I0.0575 J0.0136
N2220 X3.5771 Y0.4219 I-0.0192 J-0.0045
N2225 G1 X3.5816 Y0.4028
N2230 X3.5824 Y0.3995 Z-0.0824
N2235 X3.5832 Y0.3962 Z-0.0815
N2240 X3.5839 Y0.3932 Z-0.08
N2245 X3.5845 Y0.3905 Z-0.0781
N2250 X3.5851 Y0.3881 Z-0.0756
N2255 X3.5855 Y0.3862 Z-0.0728
N2260 X3.5859 Y0.3848 Z-0.0697
N2265 X3.5861 Y0.3839 Z-0.0664
N2270 X3.5862 Y0.3836 Z-0.063
N2275 Z0.1969
N2280 X3.5771 Y1.2093
N2285 Z-0.063 F13.123
N2290 Y1.209 Z-0.0664 F39.37
N2295 X3.5773 Y1.2082 Z-0.0697
N2300 X3.5777 Y1.2068 Z-0.0728
N2305 X3.5781 Y1.2049 Z-0.0756
N2310 X3.5787 Y1.2025 Z-0.0781
N2315 X3.5793 Y1.1998 Z-0.08
N2320 X3.5801 Y1.1967 Z-0.0815
N2325 X3.5808 Y1.1935 Z-0.0824
N2330 X3.5816 Y1.1902 Z-0.0827
N2335 X3.5862 Y1.171
N2340 G3 X3.6008 Y1.1947 I-0.0045 J0.0192
N2345 X3.4858 Y1.1675 I-0.0575 J-0.0136 F78.74
N2350 X3.6008 Y1.1947 I0.0575 J0.0136
N2355 X3.5771 Y1.2093 I-0.0192 J-0.0045
N2360 G1 X3.5816 Y1.1902
N2365 X3.5824 Y1.1869 Z-0.0824
N2370 X3.5832 Y1.1836 Z-0.0815
N2375 X3.5839 Y1.1806 Z-0.08
N2380 X3.5845 Y1.1779 Z-0.0781
N2385 X3.5851 Y1.1755 Z-0.0756
N2390 X3.5855 Y1.1736 Z-0.0728
N2395 X3.5859 Y1.1722 Z-0.0697
N2400 X3.5861 Y1.1713 Z-0.0664
N2405 X3.5862 Y1.171 Z-0.063
N2410 Z0.1969
N2415 X3.5827 Y1.9882
N2420 Z-0.063 F13.123
N2425 G19 G2 Y1.9685 Z-0.0827 J-0.0197 K0. F39.37
N2430 G1 Y1.9488
N2435 G17 G3 X3.6024 Y1.9685 I0. J0.0197
N2440 X3.4843 I-0.0591 J0. F78.74
N2445 X3.6024 I0.0591 J0.
N2450 X3.5827 Y1.9882 I-0.0197 J0.
N2455 G1 Y1.9685
N2460 G19 G2 Y1.9488 Z-0.063 J0. K0.0197
N2465 G1 Z0.1969
N2470 X3.5771 Y2.7841
N2475 Z-0.063 F13.123
N2480 Y2.7838 Z-0.0664 F39.37
N2485 X3.5773 Y2.783 Z-0.0697
N2490 X3.5777 Y2.7816 Z-0.0728
N2495 X3.5781 Y2.7797 Z-0.0756
N2500 X3.5787 Y2.7773 Z-0.0781
N2505 X3.5793 Y2.7746 Z-0.08
N2510 X3.5801 Y2.7715 Z-0.0815
N2515 X3.5808 Y2.7683 Z-0.0824
N2520 X3.5816 Y2.765 Z-0.0827
N2525 X3.5862 Y2.7458
N2530 G17 G3 X3.6008 Y2.7695 I-0.0045 J0.0192
N2535 X3.4858 Y2.7423 I-0.0575 J-0.0136 F78.74
N2540 X3.6008 Y2.7695 I0.0575 J0.0136
N2545 X3.5771 Y2.7841 I-0.0192 J-0.0045
N2550 G1 X3.5816 Y2.765
N2555 X3.5824 Y2.7617 Z-0.0824
N2560 X3.5832 Y2.7584 Z-0.0815
N2565 X3.5839 Y2.7554 Z-0.08
N2570 X3.5845 Y2.7527 Z-0.0781
N2575 X3.5851 Y2.7503 Z-0.0756
N2580 X3.5855 Y2.7484 Z-0.0728
N2585 X3.5859 Y2.747 Z-0.0697
N2590 X3.5861 Y2.7461 Z-0.0664
N2595 X3.5862 Y2.7458 Z-0.063
N2600 Z0.1969
N2605 X3.5827 Y3.563
N2610 Z-0.063 F13.123
N2615 G19 G2 Y3.5433 Z-0.0827 J-0.0197 K0. F39.37
N2620 G1 Y3.5236
N2625 G17 G3 X3.6024 Y3.5433 I0. J0.0197
N2630 X3.4843 I-0.0591 J0. F78.74
N2635 X3.6024 I0.0591 J0.
N2640 X3.5827 Y3.563 I-0.0197 J0.
N2645 G1 Y3.5433
N2650 G19 G2 Y3.5236 Z-0.063 J0. K0.0197
N2655 G1 Z0.1969
N2660 Y4.3504
N2665 Z-0.063 F13.123
N2670 G2 Y4.3307 Z-0.0827 J-0.0197 K0. F39.37
N2675 G1 Y4.311
N2680 G17 G3 X3.6024 Y4.3307 I0. J0.0197
N2685 X3.4843 I-0.0591 J0. F78.74
N2690 X3.6024 I0.0591 J0.
N2695 X3.5827 Y4.3504 I-0.0197 J0.
N2700 G1 Y4.3307
N2705 G19 G2 Y4.311 Z-0.063 J0. K0.0197
N2710 G1 Z0.1969
N2715 X3.5771 Y5.1463
N2720 Z-0.063 F13.123
N2725 Y5.1461 Z-0.0664 F39.37
N2730 X3.5773 Y5.1452 Z-0.0697
N2735 X3.5777 Y5.1438 Z-0.0728
N2740 X3.5781 Y5.1419 Z-0.0756
N2745 X3.5787 Y5.1395 Z-0.0781
N2750 X3.5793 Y5.1368 Z-0.08
N2755 X3.5801 Y5.1337 Z-0.0815
N2760 X3.5808 Y5.1305 Z-0.0824
N2765 X3.5816 Y5.1272 Z-0.0827
N2770 X3.5862 Y5.108
N2775 G17 G3 X3.6008 Y5.1317 I-0.0045 J0.0192
N2780 X3.4858 Y5.1045 I-0.0575 J-0.0136 F78.74
N2785 X3.6008 Y5.1317 I0.0575 J0.0136
N2790 X3.5771 Y5.1463 I-0.0192 J-0.0045
N2795 G1 X3.5816 Y5.1272
N2800 X3.5824 Y5.1239 Z-0.0824
N2805 X3.5832 Y5.1206 Z-0.0815
N2810 X3.5839 Y5.1176 Z-0.08
N2815 X3.5845 Y5.1149 Z-0.0781
N2820 X3.5851 Y5.1125 Z-0.0756
N2825 X3.5855 Y5.1106 Z-0.0728
N2830 X3.5859 Y5.1092 Z-0.0697
N2835 X3.5861 Y5.1083 Z-0.0664
N2840 X3.5862 Y5.108 Z-0.063
N2845 Z0.1969
N2850 X2.7953 Y5.1378
N2855 Z-0.063 F13.123
N2860 G19 G2 Y5.1181 Z-0.0827 J-0.0197 K0. F39.37
N2865 G1 Y5.0984
N2870 G17 G3 X2.815 Y5.1181 I0. J0.0197
N2875 X2.6969 I-0.0591 J0. F78.74
N2880 X2.815 I0.0591 J0.
N2885 X2.7953 Y5.1378 I-0.0197 J0.
N2890 G1 Y5.1181
N2895 G19 G2 Y5.0984 Z-0.063 J0. K0.0197
N2900 G1 Z0.1969
N2905 Y4.3504
N2910 Z-0.063 F13.123
N2915 G2 Y4.3307 Z-0.0827 J-0.0197 K0. F39.37
N2920 G1 Y4.311
N2925 G17 G3 X2.815 Y4.3307 I0. J0.0197
N2930 X2.6969 I-0.0591 J0. F78.74
N2935 X2.815 I0.0591 J0.
N2940 X2.7953 Y4.3504 I-0.0197 J0.
N2945 G1 Y4.3307
N2950 G19 G2 Y4.311 Z-0.063 J0. K0.0197
N2955 G1 Z0.1969
N2960 Y3.563
N2965 Z-0.063 F13.123
N2970 G2 Y3.5433 Z-0.0827 J-0.0197 K0. F39.37
N2975 G1 Y3.5236
N2980 G17 G3 X2.815 Y3.5433 I0. J0.0197
N2985 X2.6969 I-0.0591 J0. F78.74
N2990 X2.815 I0.0591 J0.
N2995 X2.7953 Y3.563 I-0.0197 J0.
N3000 G1 Y3.5433
N3005 G19 G2 Y3.5236 Z-0.063 J0. K0.0197
N3010 G1 Z0.1969
N3015 Y2.7756
N3020 Z-0.063 F13.123
N3025 G2 Y2.7559 Z-0.0827 J-0.0197 K0. F39.37
N3030 G1 Y2.7362
N3035 G17 G3 X2.815 Y2.7559 I0. J0.0197
N3040 X2.6969 I-0.0591 J0. F78.74
N3045 X2.815 I0.0591 J0.
N3050 X2.7953 Y2.7756 I-0.0197 J0.
N3055 G1 Y2.7559
N3060 G19 G2 Y2.7362 Z-0.063 J0. K0.0197
N3065 G1 Z0.1969
N3070 Y1.9882
N3075 Z-0.063 F13.123
N3080 G2 Y1.9685 Z-0.0827 J-0.0197 K0. F39.37
N3085 G1 Y1.9488
N3090 G17 G3 X2.815 Y1.9685 I0. J0.0197
N3095 X2.6969 I-0.0591 J0. F78.74
N3100 X2.815 I0.0591 J0.
N3105 X2.7953 Y1.9882 I-0.0197 J0.
N3110 G1 Y1.9685
N3115 G19 G2 Y1.9488 Z-0.063 J0. K0.0197
N3120 G1 Z0.1969
N3125 X2.7897 Y1.2093
N3130 Z-0.063 F13.123
N3135 Y1.209 Z-0.0664 F39.37
N3140 X2.7899 Y1.2082 Z-0.0697
N3145 X2.7903 Y1.2068 Z-0.0728
N3150 X2.7907 Y1.2049 Z-0.0756
N3155 X2.7913 Y1.2025 Z-0.0781
N3160 X2.7919 Y1.1998 Z-0.08
N3165 X2.7927 Y1.1967 Z-0.0815
N3170 X2.7934 Y1.1935 Z-0.0824
N3175 X2.7942 Y1.1902 Z-0.0827
N3180 X2.7988 Y1.171
N3185 G17 G3 X2.8134 Y1.1947 I-0.0045 J0.0192
N3190 X2.6984 Y1.1675 I-0.0575 J-0.0136 F78.74
N3195 X2.8134 Y1.1947 I0.0575 J0.0136
N3200 X2.7897 Y1.2093 I-0.0192 J-0.0045
N3205 G1 X2.7942 Y1.1902
N3210 X2.795 Y1.1869 Z-0.0824
N3215 X2.7958 Y1.1836 Z-0.0815
N3220 X2.7965 Y1.1806 Z-0.08
N3225 X2.7971 Y1.1779 Z-0.0781
N3230 X2.7977 Y1.1755 Z-0.0756
N3235 X2.7981 Y1.1736 Z-0.0728
N3240 X2.7985 Y1.1722 Z-0.0697
N3245 X2.7987 Y1.1713 Z-0.0664
N3250 X2.7988 Y1.171 Z-0.063
N3255 Z0.1969
N3260 X2.7897 Y0.4219
N3265 Z-0.063 F13.123
N3270 Y0.4216 Z-0.0664 F39.37
N3275 X2.7899 Y0.4208 Z-0.0697
N3280 X2.7903 Y0.4194 Z-0.0728
N3285 X2.7907 Y0.4175 Z-0.0756
N3290 X2.7913 Y0.4151 Z-0.0781
N3295 X2.7919 Y0.4124 Z-0.08
N3300 X2.7927 Y0.4093 Z-0.0815
N3305 X2.7934 Y0.4061 Z-0.0824
N3310 X2.7942 Y0.4028 Z-0.0827
N3315 X2.7988 Y0.3836
N3320 G3 X2.8134 Y0.4073 I-0.0045 J0.0192
N3325 X2.6984 Y0.3801 I-0.0575 J-0.0136 F78.74
N3330 X2.8134 Y0.4073 I0.0575 J0.0136
N3335 X2.7897 Y0.4219 I-0.0192 J-0.0045
N3340 G1 X2.7942 Y0.4028
N3345 X2.795 Y0.3995 Z-0.0824
N3350 X2.7958 Y0.3962 Z-0.0815
N3355 X2.7965 Y0.3932 Z-0.08
N3360 X2.7971 Y0.3905 Z-0.0781
N3365 X2.7977 Y0.3881 Z-0.0756
N3370 X2.7981 Y0.3862 Z-0.0728
N3375 X2.7985 Y0.3848 Z-0.0697
N3380 X2.7987 Y0.3839 Z-0.0664
N3385 X2.7988 Y0.3836 Z-0.063
N3390 Z0.1969
N3395 X2.0023 Y0.4219
N3400 Z-0.063 F13.123
N3405 Y0.4216 Z-0.0664 F39.37
N3410 X2.0025 Y0.4208 Z-0.0697
N3415 X2.0029 Y0.4194 Z-0.0728
N3420 X2.0033 Y0.4175 Z-0.0756
N3425 X2.0039 Y0.4151 Z-0.0781
N3430 X2.0045 Y0.4124 Z-0.08
N3435 X2.0053 Y0.4093 Z-0.0815
N3440 X2.006 Y0.4061 Z-0.0824
N3445 X2.0068 Y0.4028 Z-0.0827
N3450 X2.0114 Y0.3836
N3455 G3 X2.026 Y0.4073 I-0.0045 J0.0192
N3460 X1.911 Y0.3801 I-0.0575 J-0.0136 F78.74
N3465 X2.026 Y0.4073 I0.0575 J0.0136
N3470 X2.0023 Y0.4219 I-0.0192 J-0.0045
N3475 G1 X2.0068 Y0.4028
N3480 X2.0076 Y0.3995 Z-0.0824
N3485 X2.0084 Y0.3962 Z-0.0815
N3490 X2.0091 Y0.3932 Z-0.08
N3495 X2.0097 Y0.3905 Z-0.0781
N3500 X2.0103 Y0.3881 Z-0.0756
N3505 X2.0107 Y0.3862 Z-0.0728
N3510 X2.0111 Y0.3848 Z-0.0697
N3515 X2.0113 Y0.3839 Z-0.0664
N3520 X2.0114 Y0.3836 Z-0.063
N3525 Z0.1969
N3530 X2.0023 Y1.2093
N3535 Z-0.063 F13.123
N3540 Y1.209 Z-0.0664 F39.37
N3545 X2.0025 Y1.2082 Z-0.0697
N3550 X2.0029 Y1.2068 Z-0.0728
N3555 X2.0033 Y1.2049 Z-0.0756
N3560 X2.0039 Y1.2025 Z-0.0781
N3565 X2.0045 Y1.1998 Z-0.08
N3570 X2.0053 Y1.1967 Z-0.0815
N3575 X2.006 Y1.1935 Z-0.0824
N3580 X2.0068 Y1.1902 Z-0.0827
N3585 X2.0114 Y1.171
N3590 G3 X2.026 Y1.1947 I-0.0045 J0.0192
N3595 X1.911 Y1.1675 I-0.0575 J-0.0136 F78.74
N3600 X2.026 Y1.1947 I0.0575 J0.0136
N3605 X2.0023 Y1.2093 I-0.0192 J-0.0045
N3610 G1 X2.0068 Y1.1902
N3615 X2.0076 Y1.1869 Z-0.0824
N3620 X2.0084 Y1.1836 Z-0.0815
N3625 X2.0091 Y1.1806 Z-0.08
N3630 X2.0097 Y1.1779 Z-0.0781
N3635 X2.0103 Y1.1755 Z-0.0756
N3640 X2.0107 Y1.1736 Z-0.0728
N3645 X2.0111 Y1.1722 Z-0.0697
N3650 X2.0113 Y1.1713 Z-0.0664
N3655 X2.0114 Y1.171 Z-0.063
N3660 Z0.1969
N3665 X2.0023 Y1.9967
N3670 Z-0.063 F13.123
N3675 Y1.9964 Z-0.0664 F39.37
N3680 X2.0025 Y1.9956 Z-0.0697
N3685 X2.0029 Y1.9942 Z-0.0728
N3690 X2.0033 Y1.9923 Z-0.0756
N3695 X2.0039 Y1.9899 Z-0.0781
N3700 X2.0045 Y1.9872 Z-0.08
N3705 X2.0053 Y1.9841 Z-0.0815
N3710 X2.006 Y1.9809 Z-0.0824
N3715 X2.0068 Y1.9776 Z-0.0827
N3720 X2.0114 Y1.9584
N3725 G3 X2.026 Y1.9821 I-0.0045 J0.0192
N3730 X1.911 Y1.9549 I-0.0575 J-0.0136 F78.74
N3735 X2.026 Y1.9821 I0.0575 J0.0136
N3740 X2.0023 Y1.9967 I-0.0192 J-0.0045
N3745 G1 X2.0068 Y1.9776
N3750 X2.0076 Y1.9743 Z-0.0824
N3755 X2.0084 Y1.971 Z-0.0815
N3760 X2.0091 Y1.968 Z-0.08
N3765 X2.0097 Y1.9653 Z-0.0781
N3770 X2.0103 Y1.9629 Z-0.0756
N3775 X2.0107 Y1.961 Z-0.0728
N3780 X2.0111 Y1.9596 Z-0.0697
N3785 X2.0113 Y1.9587 Z-0.0664
N3790 X2.0114 Y1.9584 Z-0.063
N3795 Z0.1969
N3800 X2.0079 Y2.7756
N3805 Z-0.063 F13.123
N3810 G19 G2 Y2.7559 Z-0.0827 J-0.0197 K0. F39.37
N3815 G1 Y2.7362
N3820 G17 G3 X2.0276 Y2.7559 I0. J0.0197
N3825 X1.9094 I-0.0591 J0. F78.74
N3830 X2.0276 I0.0591 J0.
N3835 X2.0079 Y2.7756 I-0.0197 J0.
N3840 G1 Y2.7559
N3845 G19 G2 Y2.7362 Z-0.063 J0. K0.0197
N3850 G1 Z0.1969
N3855 X2.0023 Y3.5715
N3860 Z-0.063 F13.123
N3865 Y3.5712 Z-0.0664 F39.37
N3870 X2.0025 Y3.5704 Z-0.0697
N3875 X2.0029 Y3.569 Z-0.0728
N3880 X2.0033 Y3.5671 Z-0.0756
N3885 X2.0039 Y3.5647 Z-0.0781
N3890 X2.0045 Y3.562 Z-0.08
N3895 X2.0053 Y3.5589 Z-0.0815
N3900 X2.006 Y3.5557 Z-0.0824
N3905 X2.0068 Y3.5524 Z-0.0827
N3910 X2.0114 Y3.5332
N3915 G17 G3 X2.026 Y3.5569 I-0.0045 J0.0192
N3920 X1.911 Y3.5297 I-0.0575 J-0.0136 F78.74
N3925 X2.026 Y3.5569 I0.0575 J0.0136
N3930 X2.0023 Y3.5715 I-0.0192 J-0.0045
N3935 G1 X2.0068 Y3.5524
N3940 X2.0076 Y3.5491 Z-0.0824
N3945 X2.0084 Y3.5458 Z-0.0815
N3950 X2.0091 Y3.5428 Z-0.08
N3955 X2.0097 Y3.5401 Z-0.0781
N3960 X2.0103 Y3.5377 Z-0.0756
N3965 X2.0107 Y3.5358 Z-0.0728
N3970 X2.0111 Y3.5344 Z-0.0697
N3975 X2.0113 Y3.5335 Z-0.0664
N3980 X2.0114 Y3.5332 Z-0.063
N3985 Z0.1969
N3990 X2.0079 Y4.3504
N3995 Z-0.063 F13.123
N4000 G19 G2 Y4.3307 Z-0.0827 J-0.0197 K0. F39.37
N4005 G1 Y4.311
N4010 G17 G3 X2.0276 Y4.3307 I0. J0.0197
N4015 X1.9094 I-0.0591 J0. F78.74
N4020 X2.0276 I0.0591 J0.
N4025 X2.0079 Y4.3504 I-0.0197 J0.
N4030 G1 Y4.3307
N4035 G19 G2 Y4.311 Z-0.063 J0. K0.0197
N4040 G1 Z0.1969
N4045 Y5.1378
N4050 Z-0.063 F13.123
N4055 G2 Y5.1181 Z-0.0827 J-0.0197 K0. F39.37
N4060 G1 Y5.0984
N4065 G17 G3 X2.0276 Y5.1181 I0. J0.0197
N4070 X1.9094 I-0.0591 J0. F78.74
N4075 X2.0276 I0.0591 J0.
N4080 X2.0079 Y5.1378 I-0.0197 J0.
N4085 G1 Y5.1181
N4090 G19 G2 Y5.0984 Z-0.063 J0. K0.0197
N4095 G1 Z0.1969
N4100 X1.2205 Y5.1378
N4105 Z-0.063 F13.123
N4110 G2 Y5.1181 Z-0.0827 J-0.0197 K0. F39.37
N4115 G1 Y5.0984
N4120 G17 G3 X1.2402 Y5.1181 I0. J0.0197
N4125 X1.122 I-0.0591 J0. F78.74
N4130 X1.2402 I0.0591 J0.
N4135 X1.2205 Y5.1378 I-0.0197 J0.
N4140 G1 Y5.1181
N4145 G19 G2 Y5.0984 Z-0.063 J0. K0.0197
N4150 G1 Z0.1969
N4155 Y4.3504
N4160 Z-0.063 F13.123
N4165 G2 Y4.3307 Z-0.0827 J-0.0197 K0. F39.37
N4170 G1 Y4.311
N4175 G17 G3 X1.2402 Y4.3307 I0. J0.0197
N4180 X1.122 I-0.0591 J0. F78.74
N4185 X1.2402 I0.0591 J0.
N4190 X1.2205 Y4.3504 I-0.0197 J0.
N4195 G1 Y4.3307
N4200 G19 G2 Y4.311 Z-0.063 J0. K0.0197
N4205 G1 Z0.1969
N4210 Y3.563
N4215 Z-0.063 F13.123
N4220 G2 Y3.5433 Z-0.0827 J-0.0197 K0. F39.37
N4225 G1 Y3.5236
N4230 G17 G3 X1.2402 Y3.5433 I0. J0.0197
N4235 X1.122 I-0.0591 J0. F78.74
N4240 X1.2402 I0.0591 J0.
N4245 X1.2205 Y3.563 I-0.0197 J0.
N4250 G1 Y3.5433
N4255 G19 G2 Y3.5236 Z-0.063 J0. K0.0197
N4260 G1 Z0.1969
N4265 X1.2149 Y2.7841
N4270 Z-0.063 F13.123
N4275 Y2.7838 Z-0.0664 F39.37
N4280 X1.2151 Y2.783 Z-0.0697
N4285 X1.2155 Y2.7816 Z-0.0728
N4290 X1.2159 Y2.7797 Z-0.0756
N4295 X1.2165 Y2.7773 Z-0.0781
N4300 X1.2171 Y2.7746 Z-0.08
N4305 X1.2179 Y2.7715 Z-0.0815
N4310 X1.2186 Y2.7683 Z-0.0824
N4315 X1.2194 Y2.765 Z-0.0827
N4320 X1.224 Y2.7458
N4325 G17 G3 X1.2386 Y2.7695 I-0.0045 J0.0192
N4330 X1.1236 Y2.7423 I-0.0575 J-0.0136 F78.74
N4335 X1.2386 Y2.7695 I0.0575 J0.0136
N4340 X1.2149 Y2.7841 I-0.0192 J-0.0045
N4345 G1 X1.2194 Y2.765
N4350 X1.2202 Y2.7617 Z-0.0824
N4355 X1.221 Y2.7584 Z-0.0815
N4360 X1.2217 Y2.7554 Z-0.08
N4365 X1.2223 Y2.7527 Z-0.0781
N4370 X1.2229 Y2.7503 Z-0.0756
N4375 X1.2233 Y2.7484 Z-0.0728
N4380 X1.2237 Y2.747 Z-0.0697
N4385 X1.2239 Y2.7461 Z-0.0664
N4390 X1.224 Y2.7458 Z-0.063
N4395 Z0.1969
N4400 X1.2205 Y1.9882
N4405 Z-0.063 F13.123
N4410 G19 G2 Y1.9685 Z-0.0827 J-0.0197 K0. F39.37
N4415 G1 Y1.9488
N4420 G17 G3 X1.2402 Y1.9685 I0. J0.0197
N4425 X1.122 I-0.0591 J0. F78.74
N4430 X1.2402 I0.0591 J0.
N4435 X1.2205 Y1.9882 I-0.0197 J0.
N4440 G1 Y1.9685
N4445 G19 G2 Y1.9488 Z-0.063 J0. K0.0197
N4450 G1 Z0.1969
N4455 Y1.2008
N4460 Z-0.063 F13.123
N4465 G2 Y1.1811 Z-0.0827 J-0.0197 K0. F39.37
N4470 G1 Y1.1614
N4475 G17 G3 X1.2402 Y1.1811 I0. J0.0197
N4480 X1.122 I-0.0591 J0. F78.74
N4485 X1.2402 I0.0591 J0.
N4490 X1.2205 Y1.2008 I-0.0197 J0.
N4495 G1 Y1.1811
N4500 G19 G2 Y1.1614 Z-0.063 J0. K0.0197
N4505 G1 Z0.1969
N4510 Y0.4134
N4515 Z-0.063 F13.123
N4520 G2 Y0.3937 Z-0.0827 J-0.0197 K0. F39.37
N4525 G1 Y0.374
N4530 G17 G3 X1.2402 Y0.3937 I0. J0.0197
N4535 X1.122 I-0.0591 J0. F78.74
N4540 X1.2402 I0.0591 J0.
N4545 X1.2205 Y0.4134 I-0.0197 J0.
N4550 G1 Y0.3937
N4555 G19 G2 Y0.374 Z-0.063 J0. K0.0197
N4560 G1 Z0.1969
N4565 X0.4331 Y0.4134
N4570 Z-0.063 F13.123
N4575 G2 Y0.3937 Z-0.0827 J-0.0197 K0. F39.37
N4580 G1 Y0.374
N4585 G17 G3 X0.4528 Y0.3937 I0. J0.0197
N4590 X0.3346 I-0.0591 J0. F78.74
N4595 X0.4528 I0.0591 J0.
N4600 X0.4331 Y0.4134 I-0.0197 J0.
N4605 G1 Y0.3937
N4610 G19 G2 Y0.374 Z-0.063 J0. K0.0197
N4615 G1 Z0.1969
N4620 Y1.2008
N4625 Z-0.063 F13.123
N4630 G2 Y1.1811 Z-0.0827 J-0.0197 K0. F39.37
N4635 G1 Y1.1614
N4640 G17 G3 X0.4528 Y1.1811 I0. J0.0197
N4645 X0.3346 I-0.0591 J0. F78.74
N4650 X0.4528 I0.0591 J0.
N4655 X0.4331 Y1.2008 I-0.0197 J0.
N4660 G1 Y1.1811
N4665 G19 G2 Y1.1614 Z-0.063 J0. K0.0197
N4670 G1 Z0.1969
N4675 Y1.9882
N4680 Z-0.063 F13.123
N4685 G2 Y1.9685 Z-0.0827 J-0.0197 K0. F39.37
N4690 G1 Y1.9488
N4695 G17 G3 X0.4528 Y1.9685 I0. J0.0197
N4700 X0.3346 I-0.0591 J0. F78.74
N4705 X0.4528 I0.0591 J0.
N4710 X0.4331 Y1.9882 I-0.0197 J0.
N4715 G1 Y1.9685
N4720 G19 G2 Y1.9488 Z-0.063 J0. K0.0197
N4725 G1 Z0.1969
N4730 Y2.7756
N4735 Z-0.063 F13.123
N4740 G2 Y2.7559 Z-0.0827 J-0.0197 K0. F39.37
N4745 G1 Y2.7362
N4750 G17 G3 X0.4528 Y2.7559 I0. J0.0197
N4755 X0.3346 I-0.0591 J0. F78.74
N4760 X0.4528 I0.0591 J0.
N4765 X0.4331 Y2.7756 I-0.0197 J0.
N4770 G1 Y2.7559
N4775 G19 G2 Y2.7362 Z-0.063 J0. K0.0197
N4780 G1 Z0.1969
N4785 Y3.563
N4790 Z-0.063 F13.123
N4795 G2 Y3.5433 Z-0.0827 J-0.0197 K0. F39.37
N4800 G1 Y3.5236
N4805 G17 G3 X0.4528 Y3.5433 I0. J0.0197
N4810 X0.3346 I-0.0591 J0. F78.74
N4815 X0.4528 I0.0591 J0.
N4820 X0.4331 Y3.563 I-0.0197 J0.
N4825 G1 Y3.5433
N4830 G19 G2 Y3.5236 Z-0.063 J0. K0.0197
N4835 G1 Z0.1969
N4840 Y4.3504
N4845 Z-0.063 F13.123
N4850 G2 Y4.3307 Z-0.0827 J-0.0197 K0. F39.37
N4855 G1 Y4.311
N4860 G17 G3 X0.4528 Y4.3307 I0. J0.0197
N4865 X0.3346 I-0.0591 J0. F78.74
N4870 X0.4528 I0.0591 J0.
N4875 X0.4331 Y4.3504 I-0.0197 J0.
N4880 G1 Y4.3307
N4885 G19 G2 Y4.311 Z-0.063 J0. K0.0197
N4890 G1 Z0.1969
N4895 X0.1575 Y5.1378
N4900 Z-0.063 F13.123
N4905 G2 Y5.1181 Z-0.0827 J-0.0197 K0. F39.37
N4910 G1 Y5.0984
N4915 G17 G3 X0.1772 Y5.1181 I0. J0.0197
N4920 X-0.1772 I-0.1772 J0. F78.74
N4925 X0.1772 I0.1772 J0.
N4930 X0.1575 Y5.1378 I-0.0197 J0.
N4935 G1 Y5.1181
N4940 G19 G2 Y5.0984 Z-0.063 J0. K0.0197
N4945 G1 Z0.1969
N4950 X0.4331 Y5.1378
N4955 Z-0.063 F13.123
N4960 G2 Y5.1181 Z-0.0827 J-0.0197 K0. F39.37
N4965 G1 Y5.0984
N4970 G17 G3 X0.4528 Y5.1181 I0. J0.0197
N4975 X0.3346 I-0.0591 J0. F78.74
N4980 X0.4528 I0.0591 J0.
N4985 X0.4331 Y5.1378 I-0.0197 J0.
N4990 G1 Y5.1181
N4995 G19 G2 Y5.0984 Z-0.063 J0. K0.0197
N5000 G1 Z0.1969
N5005 X-0.3599 Y5.1463
N5010 Z-0.063 F13.123
N5015 Y5.1461 Z-0.0664 F39.37
N5020 X-0.3597 Y5.1452 Z-0.0697
N5025 X-0.3593 Y5.1438 Z-0.0728
N5030 X-0.3589 Y5.1419 Z-0.0756
N5035 X-0.3583 Y5.1395 Z-0.0781
N5040 X-0.3577 Y5.1368 Z-0.08
N5045 X-0.3569 Y5.1337 Z-0.0815
N5050 X-0.3562 Y5.1305 Z-0.0824
N5055 X-0.3554 Y5.1272 Z-0.0827
N5060 X-0.3509 Y5.108
N5065 G17 G3 X-0.3362 Y5.1317 I-0.0045 J0.0192
N5070 X-0.4512 Y5.1045 I-0.0575 J-0.0136 F78.74
N5075 X-0.3362 Y5.1317 I0.0575 J0.0136
N5080 X-0.3599 Y5.1463 I-0.0192 J-0.0045
N5085 G1 X-0.3554 Y5.1272
N5090 X-0.3546 Y5.1239 Z-0.0824
N5095 X-0.3538 Y5.1206 Z-0.0815
N5100 X-0.3531 Y5.1176 Z-0.08
N5105 X-0.3525 Y5.1149 Z-0.0781
N5110 X-0.3519 Y5.1125 Z-0.0756
N5115 X-0.3515 Y5.1106 Z-0.0728
N5120 X-0.3511 Y5.1092 Z-0.0697
N5125 X-0.3509 Y5.1083 Z-0.0664
N5130 Y5.108 Z-0.063
N5135 Z0.1969
N5140 X-0.3543 Y4.3504
N5145 Z-0.063 F13.123
N5150 G19 G2 Y4.3307 Z-0.0827 J-0.0197 K0. F39.37
N5155 G1 Y4.311
N5160 G17 G3 X-0.3346 Y4.3307 I0. J0.0197
N5165 X-0.4528 I-0.0591 J0. F78.74
N5170 X-0.3346 I0.0591 J0.
N5175 X-0.3543 Y4.3504 I-0.0197 J0.
N5180 G1 Y4.3307
N5185 G19 G2 Y4.311 Z-0.063 J0. K0.0197
N5190 G1 Z0.1969
N5195 Y3.563
N5200 Z-0.063 F13.123
N5205 G2 Y3.5433 Z-0.0827 J-0.0197 K0. F39.37
N5210 G1 Y3.5236
N5215 G17 G3 X-0.3346 Y3.5433 I0. J0.0197
N5220 X-0.4528 I-0.0591 J0. F78.74
N5225 X-0.3346 I0.0591 J0.
N5230 X-0.3543 Y3.563 I-0.0197 J0.
N5235 G1 Y3.5433
N5240 G19 G2 Y3.5236 Z-0.063 J0. K0.0197
N5245 G1 Z0.1969
N5250 Y2.7756
N5255 Z-0.063 F13.123
N5260 G2 Y2.7559 Z-0.0827 J-0.0197 K0. F39.37
N5265 G1 Y2.7362
N5270 G17 G3 X-0.3346 Y2.7559 I0. J0.0197
N5275 X-0.4528 I-0.0591 J0. F78.74
N5280 X-0.3346 I0.0591 J0.
N5285 X-0.3543 Y2.7756 I-0.0197 J0.
N5290 G1 Y2.7559
N5295 G19 G2 Y2.7362 Z-0.063 J0. K0.0197
N5300 G1 Z0.1969
N5305 Y1.9882
N5310 Z-0.063 F13.123
N5315 G2 Y1.9685 Z-0.0827 J-0.0197 K0. F39.37
N5320 G1 Y1.9488
N5325 G17 G3 X-0.3346 Y1.9685 I0. J0.0197
N5330 X-0.4528 I-0.0591 J0. F78.74
N5335 X-0.3346 I0.0591 J0.
N5340 X-0.3543 Y1.9882 I-0.0197 J0.
N5345 G1 Y1.9685
N5350 G19 G2 Y1.9488 Z-0.063 J0. K0.0197
N5355 G1 Z0.1969
N5360 X-0.3599 Y1.2093
N5365 Z-0.063 F13.123
N5370 Y1.209 Z-0.0664 F39.37
N5375 X-0.3597 Y1.2082 Z-0.0697
N5380 X-0.3593 Y1.2068 Z-0.0728
N5385 X-0.3589 Y1.2049 Z-0.0756
N5390 X-0.3583 Y1.2025 Z-0.0781
N5395 X-0.3577 Y1.1998 Z-0.08
N5400 X-0.3569 Y1.1967 Z-0.0815
N5405 X-0.3562 Y1.1935 Z-0.0824
N5410 X-0.3554 Y1.1902 Z-0.0827
N5415 X-0.3509 Y1.171
N5420 G17 G3 X-0.3362 Y1.1947 I-0.0045 J0.0192
N5425 X-0.4512 Y1.1675 I-0.0575 J-0.0136 F78.74
N5430 X-0.3362 Y1.1947 I0.0575 J0.0136
N5435 X-0.3599 Y1.2093 I-0.0192 J-0.0045
N5440 G1 X-0.3554 Y1.1902
N5445 X-0.3546 Y1.1869 Z-0.0824
N5450 X-0.3538 Y1.1836 Z-0.0815
N5455 X-0.3531 Y1.1806 Z-0.08
N5460 X-0.3525 Y1.1779 Z-0.0781
N5465 X-0.3519 Y1.1755 Z-0.0756
N5470 X-0.3515 Y1.1736 Z-0.0728
N5475 X-0.3511 Y1.1722 Z-0.0697
N5480 X-0.3509 Y1.1713 Z-0.0664
N5485 Y1.171 Z-0.063
N5490 Z0.1969
N5495 X-0.3543 Y0.4134
N5500 Z-0.063 F13.123
N5505 G19 G2 Y0.3937 Z-0.0827 J-0.0197 K0. F39.37
N5510 G1 Y0.374
N5515 G17 G3 X-0.3346 Y0.3937 I0. J0.0197
N5520 X-0.4528 I-0.0591 J0. F78.74
N5525 X-0.3346 I0.0591 J0.
N5530 X-0.3543 Y0.4134 I-0.0197 J0.
N5535 G1 Y0.3937
N5540 G19 G2 Y0.374 Z-0.063 J0. K0.0197
N5545 G1 Z0.1969
N5550 X-0.3599 Y-0.3655
N5555 Z-0.063 F13.123
N5560 Y-0.3658 Z-0.0664 F39.37
N5565 X-0.3597 Y-0.3666 Z-0.0697
N5570 X-0.3593 Y-0.368 Z-0.0728
N5575 X-0.3589 Y-0.3699 Z-0.0756
N5580 X-0.3583 Y-0.3723 Z-0.0781
N5585 X-0.3577 Y-0.375 Z-0.08
N5590 X-0.3569 Y-0.3781 Z-0.0815
N5595 X-0.3562 Y-0.3813 Z-0.0824
N5600 X-0.3554 Y-0.3846 Z-0.0827
N5605 X-0.3509 Y-0.4038
N5610 G17 G3 X-0.3362 Y-0.3801 I-0.0045 J0.0192
N5615 X-0.4512 Y-0.4073 I-0.0575 J-0.0136 F78.74
N5620 X-0.3362 Y-0.3801 I0.0575 J0.0136
N5625 X-0.3599 Y-0.3655 I-0.0192 J-0.0045
N5630 G1 X-0.3554 Y-0.3846
N5635 X-0.3546 Y-0.3879 Z-0.0824
N5640 X-0.3538 Y-0.3912 Z-0.0815
N5645 X-0.3531 Y-0.3942 Z-0.08
N5650 X-0.3525 Y-0.3969 Z-0.0781
N5655 X-0.3519 Y-0.3993 Z-0.0756
N5660 X-0.3515 Y-0.4012 Z-0.0728
N5665 X-0.3511 Y-0.4026 Z-0.0697
N5670 X-0.3509 Y-0.4035 Z-0.0664
N5675 Y-0.4038 Z-0.063
N5680 Z0.1969
N5685 X-0.3543 Y-1.1614
N5690 Z-0.063 F13.123
N5695 G19 G2 Y-1.1811 Z-0.0827 J-0.0197 K0. F39.37
N5700 G1 Y-1.2008
N5705 G17 G3 X-0.3346 Y-1.1811 I0. J0.0197
N5710 X-0.4528 I-0.0591 J0. F78.74
N5715 X-0.3346 I0.0591 J0.
N5720 X-0.3543 Y-1.1614 I-0.0197 J0.
N5725 G1 Y-1.1811
N5730 G19 G2 Y-1.2008 Z-0.063 J0. K0.0197
N5735 G1 Z0.1969
N5740 X0.4331 Y-1.1614
N5745 Z-0.063 F13.123
N5750 G2 Y-1.1811 Z-0.0827 J-0.0197 K0. F39.37
N5755 G1 Y-1.2008
N5760 G17 G3 X0.4528 Y-1.1811 I0. J0.0197
N5765 X0.3346 I-0.0591 J0. F78.74
N5770 X0.4528 I0.0591 J0.
N5775 X0.4331 Y-1.1614 I-0.0197 J0.
N5780 G1 Y-1.1811
N5785 G19 G2 Y-1.2008 Z-0.063 J0. K0.0197
N5790 G1 Z0.1969
N5795 X1.2205 Y-1.1614
N5800 Z-0.063 F13.123
N5805 G2 Y-1.1811 Z-0.0827 J-0.0197 K0. F39.37
N5810 G1 Y-1.2008
N5815 G17 G3 X1.2402 Y-1.1811 I0. J0.0197
N5820 X1.122 I-0.0591 J0. F78.74
N5825 X1.2402 I0.0591 J0.
N5830 X1.2205 Y-1.1614 I-0.0197 J0.
N5835 G1 Y-1.1811
N5840 G19 G2 Y-1.2008 Z-0.063 J0. K0.0197
N5845 G1 Z0.1969
N5850 X2.0023 Y-1.1529
N5855 Z-0.063 F13.123
N5860 Y-1.1532 Z-0.0664 F39.37
N5865 X2.0025 Y-1.154 Z-0.0697
N5870 X2.0029 Y-1.1554 Z-0.0728
N5875 X2.0033 Y-1.1573 Z-0.0756
N5880 X2.0039 Y-1.1597 Z-0.0781
N5885 X2.0045 Y-1.1624 Z-0.08
N5890 X2.0053 Y-1.1655 Z-0.0815
N5895 X2.006 Y-1.1687 Z-0.0824
N5900 X2.0068 Y-1.172 Z-0.0827
N5905 X2.0114 Y-1.1912
N5910 G17 G3 X2.026 Y-1.1675 I-0.0045 J0.0192
N5915 X1.911 Y-1.1947 I-0.0575 J-0.0136 F78.74
N5920 X2.026 Y-1.1675 I0.0575 J0.0136
N5925 X2.0023 Y-1.1529 I-0.0192 J-0.0045
N5930 G1 X2.0068 Y-1.172
N5935 X2.0076 Y-1.1753 Z-0.0824
N5940 X2.0084 Y-1.1786 Z-0.0815
N5945 X2.0091 Y-1.1816 Z-0.08
N5950 X2.0097 Y-1.1843 Z-0.0781
N5955 X2.0103 Y-1.1867 Z-0.0756
N5960 X2.0107 Y-1.1886 Z-0.0728
N5965 X2.0111 Y-1.19 Z-0.0697
N5970 X2.0113 Y-1.1909 Z-0.0664
N5975 X2.0114 Y-1.1912 Z-0.063
N5980 Z0.1969
N5985 X2.7953 Y-1.1614
N5990 Z-0.063 F13.123
N5995 G19 G2 Y-1.1811 Z-0.0827 J-0.0197 K0. F39.37
N6000 G1 Y-1.2008
N6005 G17 G3 X2.815 Y-1.1811 I0. J0.0197
N6010 X2.6969 I-0.0591 J0. F78.74
N6015 X2.815 I0.0591 J0.
N6020 X2.7953 Y-1.1614 I-0.0197 J0.
N6025 G1 Y-1.1811
N6030 G19 G2 Y-1.2008 Z-0.063 J0. K0.0197
N6035 G1 Z0.1969
N6040 X3.5827 Y-1.1614
N6045 Z-0.063 F13.123
N6050 G2 Y-1.1811 Z-0.0827 J-0.0197 K0. F39.37
N6055 G1 Y-1.2008
N6060 G17 G3 X3.6024 Y-1.1811 I0. J0.0197
N6065 X3.4843 I-0.0591 J0. F78.74
N6070 X3.6024 I0.0591 J0.
N6075 X3.5827 Y-1.1614 I-0.0197 J0.
N6080 G1 Y-1.1811
N6085 G19 G2 Y-1.2008 Z-0.063 J0. K0.0197
N6090 G1 Z0.1969
N6095 X4.3701 Y-1.1614
N6100 Z-0.063 F13.123
N6105 G2 Y-1.1811 Z-0.0827 J-0.0197 K0. F39.37
N6110 G1 Y-1.2008
N6115 G17 G3 X4.3898 Y-1.1811 I0. J0.0197
N6120 X4.2717 I-0.0591 J0. F78.74
N6125 X4.3898 I0.0591 J0.
N6130 X4.3701 Y-1.1614 I-0.0197 J0.
N6135 G1 Y-1.1811
N6140 G19 G2 Y-1.2008 Z-0.063 J0. K0.0197
N6145 G1 Z0.1969
N6150 Y-1.9488
N6155 Z-0.063 F13.123
N6160 G2 Y-1.9685 Z-0.0827 J-0.0197 K0. F39.37
N6165 G1 Y-1.9882
N6170 G17 G3 X4.3898 Y-1.9685 I0. J0.0197
N6175 X4.2717 I-0.0591 J0. F78.74
N6180 X4.3898 I0.0591 J0.
N6185 X4.3701 Y-1.9488 I-0.0197 J0.
N6190 G1 Y-1.9685
N6195 G19 G2 Y-1.9882 Z-0.063 J0. K0.0197
N6200 G1 Z0.1969
N6205 X4.3645 Y-2.7277
N6210 Z-0.063 F13.123
N6215 Y-2.728 Z-0.0664 F39.37
N6220 X4.3648 Y-2.7288 Z-0.0697
N6225 X4.3651 Y-2.7302 Z-0.0728
N6230 X4.3655 Y-2.7322 Z-0.0756
N6235 X4.3661 Y-2.7345 Z-0.0781
N6240 X4.3667 Y-2.7372 Z-0.08
N6245 X4.3675 Y-2.7403 Z-0.0815
N6250 X4.3682 Y-2.7435 Z-0.0824
N6255 X4.369 Y-2.7468 Z-0.0827
N6260 X4.3736 Y-2.766
N6265 G17 G3 X4.3882 Y-2.7423 I-0.0045 J0.0192
N6270 X4.2732 Y-2.7695 I-0.0575 J-0.0136 F78.74
N6275 X4.3882 Y-2.7423 I0.0575 J0.0136
N6280 X4.3645 Y-2.7277 I-0.0192 J-0.0045
N6285 G1 X4.369 Y-2.7468
N6290 X4.3698 Y-2.7502 Z-0.0824
N6295 X4.3706 Y-2.7534 Z-0.0815
N6300 X4.3713 Y-2.7564 Z-0.08
N6305 X4.3719 Y-2.7591 Z-0.0781
N6310 X4.3725 Y-2.7615 Z-0.0756
N6315 X4.3729 Y-2.7634 Z-0.0728
N6320 X4.3733 Y-2.7648 Z-0.0697
N6325 X4.3735 Y-2.7657 Z-0.0664
N6330 X4.3736 Y-2.766 Z-0.063
N6335 Z0.1969
N6340 X4.3701 Y-3.5236
N6345 Z-0.063 F13.123
N6350 G19 G2 Y-3.5433 Z-0.0827 J-0.0197 K0. F39.37
N6355 G1 Y-3.563
N6360 G17 G3 X4.3898 Y-3.5433 I0. J0.0197
N6365 X4.2717 I-0.0591 J0. F78.74
N6370 X4.3898 I0.0591 J0.
N6375 X4.3701 Y-3.5236 I-0.0197 J0.
N6380 G1 Y-3.5433
N6385 G19 G2 Y-3.563 Z-0.063 J0. K0.0197
N6390 G1 Z0.1969
N6395 Y-4.311
N6400 Z-0.063 F13.123
N6405 G2 Y-4.3307 Z-0.0827 J-0.0197 K0. F39.37
N6410 G1 Y-4.3504
N6415 G17 G3 X4.3898 Y-4.3307 I0. J0.0197
N6420 X4.2717 I-0.0591 J0. F78.74
N6425 X4.3898 I0.0591 J0.
N6430 X4.3701 Y-4.311 I-0.0197 J0.
N6435 G1 Y-4.3307
N6440 G19 G2 Y-4.3504 Z-0.063 J0. K0.0197
N6445 G1 Z0.1969
N6450 Y-5.0984
N6455 Z-0.063 F13.123
N6460 G2 Y-5.1181 Z-0.0827 J-0.0197 K0. F39.37
N6465 G1 Y-5.1378
N6470 G17 G3 X4.3898 Y-5.1181 I0. J0.0197
N6475 X4.2717 I-0.0591 J0. F78.74
N6480 X4.3898 I0.0591 J0.
N6485 X4.3701 Y-5.0984 I-0.0197 J0.
N6490 G1 Y-5.1181
N6495 G19 G2 Y-5.1378 Z-0.063 J0. K0.0197
N6500 G1 Z0.1969
N6505 X3.5827 Y-5.0984
N6510 Z-0.063 F13.123
N6515 G2 Y-5.1181 Z-0.0827 J-0.0197 K0. F39.37
N6520 G1 Y-5.1378
N6525 G17 G3 X3.6024 Y-5.1181 I0. J0.0197
N6530 X3.4843 I-0.0591 J0. F78.74
N6535 X3.6024 I0.0591 J0.
N6540 X3.5827 Y-5.0984 I-0.0197 J0.
N6545 G1 Y-5.1181
N6550 G19 G2 Y-5.1378 Z-0.063 J0. K0.0197
N6555 G1 Z0.1969
N6560 Y-4.311
N6565 Z-0.063 F13.123
N6570 G2 Y-4.3307 Z-0.0827 J-0.0197 K0. F39.37
N6575 G1 Y-4.3504
N6580 G17 G3 X3.6024 Y-4.3307 I0. J0.0197
N6585 X3.4843 I-0.0591 J0. F78.74
N6590 X3.6024 I0.0591 J0.
N6595 X3.5827 Y-4.311 I-0.0197 J0.
N6600 G1 Y-4.3307
N6605 G19 G2 Y-4.3504 Z-0.063 J0. K0.0197
N6610 G1 Z0.1969
N6615 X3.5771 Y-3.5151
N6620 Z-0.063 F13.123
N6625 Y-3.5154 Z-0.0664 F39.37
N6630 X3.5773 Y-3.5162 Z-0.0697
N6635 X3.5777 Y-3.5176 Z-0.0728
N6640 X3.5781 Y-3.5196 Z-0.0756
N6645 X3.5787 Y-3.5219 Z-0.0781
N6650 X3.5793 Y-3.5247 Z-0.08
N6655 X3.5801 Y-3.5277 Z-0.0815
N6660 X3.5808 Y-3.5309 Z-0.0824
N6665 X3.5816 Y-3.5342 Z-0.0827
N6670 X3.5862 Y-3.5534
N6675 G17 G3 X3.6008 Y-3.5297 I-0.0045 J0.0192
N6680 X3.4858 Y-3.5569 I-0.0575 J-0.0136 F78.74
N6685 X3.6008 Y-3.5297 I0.0575 J0.0136
N6690 X3.5771 Y-3.5151 I-0.0192 J-0.0045
N6695 G1 X3.5816 Y-3.5342
N6700 X3.5824 Y-3.5376 Z-0.0824
N6705 X3.5832 Y-3.5408 Z-0.0815
N6710 X3.5839 Y-3.5438 Z-0.08
N6715 X3.5845 Y-3.5465 Z-0.0781
N6720 X3.5851 Y-3.5489 Z-0.0756
N6725 X3.5855 Y-3.5508 Z-0.0728
N6730 X3.5859 Y-3.5522 Z-0.0697
N6735 X3.5861 Y-3.5531 Z-0.0664
N6740 X3.5862 Y-3.5534 Z-0.063
N6745 Z0.1969
N6750 X3.5827 Y-2.7362
N6755 Z-0.063 F13.123
N6760 G19 G2 Y-2.7559 Z-0.0827 J-0.0197 K0. F39.37
N6765 G1 Y-2.7756
N6770 G17 G3 X3.6024 Y-2.7559 I0. J0.0197
N6775 X3.4843 I-0.0591 J0. F78.74
N6780 X3.6024 I0.0591 J0.
N6785 X3.5827 Y-2.7362 I-0.0197 J0.
N6790 G1 Y-2.7559
N6795 G19 G2 Y-2.7756 Z-0.063 J0. K0.0197
N6800 G1 Z0.1969
N6805 Y-1.9488
N6810 Z-0.063 F13.123
N6815 G2 Y-1.9685 Z-0.0827 J-0.0197 K0. F39.37
N6820 G1 Y-1.9882
N6825 G17 G3 X3.6024 Y-1.9685 I0. J0.0197
N6830 X3.4843 I-0.0591 J0. F78.74
N6835 X3.6024 I0.0591 J0.
N6840 X3.5827 Y-1.9488 I-0.0197 J0.
N6845 G1 Y-1.9685
N6850 G19 G2 Y-1.9882 Z-0.063 J0. K0.0197
N6855 G1 Z0.1969
N6860 X2.7953 Y-1.9488
N6865 Z-0.063 F13.123
N6870 G2 Y-1.9685 Z-0.0827 J-0.0197 K0. F39.37
N6875 G1 Y-1.9882
N6880 G17 G3 X2.815 Y-1.9685 I0. J0.0197
N6885 X2.6969 I-0.0591 J0. F78.74
N6890 X2.815 I0.0591 J0.
N6895 X2.7953 Y-1.9488 I-0.0197 J0.
N6900 G1 Y-1.9685
N6905 G19 G2 Y-1.9882 Z-0.063 J0. K0.0197
N6910 G1 Z0.1969
N6915 Y-2.7362
N6920 Z-0.063 F13.123
N6925 G2 Y-2.7559 Z-0.0827 J-0.0197 K0. F39.37
N6930 G1 Y-2.7756
N6935 G17 G3 X2.815 Y-2.7559 I0. J0.0197
N6940 X2.6969 I-0.0591 J0. F78.74
N6945 X2.815 I0.0591 J0.
N6950 X2.7953 Y-2.7362 I-0.0197 J0.
N6955 G1 Y-2.7559
N6960 G19 G2 Y-2.7756 Z-0.063 J0. K0.0197
N6965 G1 Z0.1969
N6970 X2.7897 Y-3.5151
N6975 Z-0.063 F13.123
N6980 Y-3.5154 Z-0.0664 F39.37
N6985 X2.7899 Y-3.5162 Z-0.0697
N6990 X2.7903 Y-3.5176 Z-0.0728
N6995 X2.7907 Y-3.5196 Z-0.0756
N7000 X2.7913 Y-3.5219 Z-0.0781
N7005 X2.7919 Y-3.5247 Z-0.08
N7010 X2.7927 Y-3.5277 Z-0.0815
N7015 X2.7934 Y-3.5309 Z-0.0824
N7020 X2.7942 Y-3.5342 Z-0.0827
N7025 X2.7988 Y-3.5534
N7030 G17 G3 X2.8134 Y-3.5297 I-0.0045 J0.0192
N7035 X2.6984 Y-3.5569 I-0.0575 J-0.0136 F78.74
N7040 X2.8134 Y-3.5297 I0.0575 J0.0136
N7045 X2.7897 Y-3.5151 I-0.0192 J-0.0045
N7050 G1 X2.7942 Y-3.5342
N7055 X2.795 Y-3.5376 Z-0.0824
N7060 X2.7958 Y-3.5408 Z-0.0815
N7065 X2.7965 Y-3.5438 Z-0.08
N7070 X2.7971 Y-3.5465 Z-0.0781
N7075 X2.7977 Y-3.5489 Z-0.0756
N7080 X2.7981 Y-3.5508 Z-0.0728
N7085 X2.7985 Y-3.5522 Z-0.0697
N7090 X2.7987 Y-3.5531 Z-0.0664
N7095 X2.7988 Y-3.5534 Z-0.063
N7100 Z0.1969
N7105 X2.7953 Y-4.311
N7110 Z-0.063 F13.123
N7115 G19 G2 Y-4.3307 Z-0.0827 J-0.0197 K0. F39.37
N7120 G1 Y-4.3504
N7125 G17 G3 X2.815 Y-4.3307 I0. J0.0197
N7130 X2.6969 I-0.0591 J0. F78.74
N7135 X2.815 I0.0591 J0.
N7140 X2.7953 Y-4.311 I-0.0197 J0.
N7145 G1 Y-4.3307
N7150 G19 G2 Y-4.3504 Z-0.063 J0. K0.0197
N7155 G1 Z0.1969
N7160 X2.7897 Y-5.0899
N7165 Z-0.063 F13.123
N7170 Y-5.0902 Z-0.0664 F39.37
N7175 X2.7899 Y-5.091 Z-0.0697
N7180 X2.7903 Y-5.0924 Z-0.0728
N7185 X2.7907 Y-5.0944 Z-0.0756
N7190 X2.7913 Y-5.0967 Z-0.0781
N7195 X2.7919 Y-5.0995 Z-0.08
N7200 X2.7927 Y-5.1025 Z-0.0815
N7205 X2.7934 Y-5.1057 Z-0.0824
N7210 X2.7942 Y-5.109 Z-0.0827
N7215 X2.7988 Y-5.1282
N7220 G17 G3 X2.8134 Y-5.1045 I-0.0045 J0.0192
N7225 X2.6984 Y-5.1317 I-0.0575 J-0.0136 F78.74
N7230 X2.8134 Y-5.1045 I0.0575 J0.0136
N7235 X2.7897 Y-5.0899 I-0.0192 J-0.0045
N7240 G1 X2.7942 Y-5.109
N7245 X2.795 Y-5.1124 Z-0.0824
N7250 X2.7958 Y-5.1156 Z-0.0815
N7255 X2.7965 Y-5.1186 Z-0.08
N7260 X2.7971 Y-5.1213 Z-0.0781
N7265 X2.7977 Y-5.1237 Z-0.0756
N7270 X2.7981 Y-5.1256 Z-0.0728
N7275 X2.7985 Y-5.127 Z-0.0697
N7280 X2.7987 Y-5.1279 Z-0.0664
N7285 X2.7988 Y-5.1282 Z-0.063
N7290 Z0.1969
N7295 X2.0079 Y-5.0984
N7300 Z-0.063 F13.123
N7305 G19 G2 Y-5.1181 Z-0.0827 J-0.0197 K0. F39.37
N7310 G1 Y-5.1378
N7315 G17 G3 X2.0276 Y-5.1181 I0. J0.0197
N7320 X1.9094 I-0.0591 J0. F78.74
N7325 X2.0276 I0.0591 J0.
N7330 X2.0079 Y-5.0984 I-0.0197 J0.
N7335 G1 Y-5.1181
N7340 G19 G2 Y-5.1378 Z-0.063 J0. K0.0197
N7345 G1 Z0.1969
N7350 Y-4.311
N7355 Z-0.063 F13.123
N7360 G2 Y-4.3307 Z-0.0827 J-0.0197 K0. F39.37
N7365 G1 Y-4.3504
N7370 G17 G3 X2.0276 Y-4.3307 I0. J0.0197
N7375 X1.9094 I-0.0591 J0. F78.74
N7380 X2.0276 I0.0591 J0.
N7385 X2.0079 Y-4.311 I-0.0197 J0.
N7390 G1 Y-4.3307
N7395 G19 G2 Y-4.3504 Z-0.063 J0. K0.0197
N7400 G1 Z0.1969
N7405 Y-3.5236
N7410 Z-0.063 F13.123
N7415 G2 Y-3.5433 Z-0.0827 J-0.0197 K0. F39.37
N7420 G1 Y-3.563
N7425 G17 G3 X2.0276 Y-3.5433 I0. J0.0197
N7430 X1.9094 I-0.0591 J0. F78.74
N7435 X2.0276 I0.0591 J0.
N7440 X2.0079 Y-3.5236 I-0.0197 J0.
N7445 G1 Y-3.5433
N7450 G19 G2 Y-3.563 Z-0.063 J0. K0.0197
N7455 G1 Z0.1969
N7460 Y-2.7362
N7465 Z-0.063 F13.123
N7470 G2 Y-2.7559 Z-0.0827 J-0.0197 K0. F39.37
N7475 G1 Y-2.7756
N7480 G17 G3 X2.0276 Y-2.7559 I0. J0.0197
N7485 X1.9094 I-0.0591 J0. F78.74
N7490 X2.0276 I0.0591 J0.
N7495 X2.0079 Y-2.7362 I-0.0197 J0.
N7500 G1 Y-2.7559
N7505 G19 G2 Y-2.7756 Z-0.063 J0. K0.0197
N7510 G1 Z0.1969
N7515 X2.0023 Y-1.9403
N7520 Z-0.063 F13.123
N7525 Y-1.9406 Z-0.0664 F39.37
N7530 X2.0025 Y-1.9414 Z-0.0697
N7535 X2.0029 Y-1.9428 Z-0.0728
N7540 X2.0033 Y-1.9448 Z-0.0756
N7545 X2.0039 Y-1.9471 Z-0.0781
N7550 X2.0045 Y-1.9498 Z-0.08
N7555 X2.0053 Y-1.9529 Z-0.0815
N7560 X2.006 Y-1.9561 Z-0.0824
N7565 X2.0068 Y-1.9594 Z-0.0827
N7570 X2.0114 Y-1.9786
N7575 G17 G3 X2.026 Y-1.9549 I-0.0045 J0.0192
N7580 X1.911 Y-1.9821 I-0.0575 J-0.0136 F78.74
N7585 X2.026 Y-1.9549 I0.0575 J0.0136
N7590 X2.0023 Y-1.9403 I-0.0192 J-0.0045
N7595 G1 X2.0068 Y-1.9594
N7600 X2.0076 Y-1.9628 Z-0.0824
N7605 X2.0084 Y-1.966 Z-0.0815
N7610 X2.0091 Y-1.969 Z-0.08
N7615 X2.0097 Y-1.9717 Z-0.0781
N7620 X2.0103 Y-1.9741 Z-0.0756
N7625 X2.0107 Y-1.976 Z-0.0728
N7630 X2.0111 Y-1.9774 Z-0.0697
N7635 X2.0113 Y-1.9783 Z-0.0664
N7640 X2.0114 Y-1.9786 Z-0.063
N7645 Z0.1969
N7650 X1.2205 Y-1.9488
N7655 Z-0.063 F13.123
N7660 G19 G2 Y-1.9685 Z-0.0827 J-0.0197 K0. F39.37
N7665 G1 Y-1.9882
N7670 G17 G3 X1.2402 Y-1.9685 I0. J0.0197
N7675 X1.122 I-0.0591 J0. F78.74
N7680 X1.2402 I0.0591 J0.
N7685 X1.2205 Y-1.9488 I-0.0197 J0.
N7690 G1 Y-1.9685
N7695 G19 G2 Y-1.9882 Z-0.063 J0. K0.0197
N7700 G1 Z0.1969
N7705 X1.2149 Y-2.7277
N7710 Z-0.063 F13.123
N7715 Y-2.728 Z-0.0664 F39.37
N7720 X1.2151 Y-2.7288 Z-0.0697
N7725 X1.2155 Y-2.7302 Z-0.0728
N7730 X1.2159 Y-2.7322 Z-0.0756
N7735 X1.2165 Y-2.7345 Z-0.0781
N7740 X1.2171 Y-2.7372 Z-0.08
N7745 X1.2179 Y-2.7403 Z-0.0815
N7750 X1.2186 Y-2.7435 Z-0.0824
N7755 X1.2194 Y-2.7468 Z-0.0827
N7760 X1.224 Y-2.766
N7765 G17 G3 X1.2386 Y-2.7423 I-0.0045 J0.0192
N7770 X1.1236 Y-2.7695 I-0.0575 J-0.0136 F78.74
N7775 X1.2386 Y-2.7423 I0.0575 J0.0136
N7780 X1.2149 Y-2.7277 I-0.0192 J-0.0045
N7785 G1 X1.2194 Y-2.7468
N7790 X1.2202 Y-2.7502 Z-0.0824
N7795 X1.221 Y-2.7534 Z-0.0815
N7800 X1.2217 Y-2.7564 Z-0.08
N7805 X1.2223 Y-2.7591 Z-0.0781
N7810 X1.2229 Y-2.7615 Z-0.0756
N7815 X1.2233 Y-2.7634 Z-0.0728
N7820 X1.2237 Y-2.7648 Z-0.0697
N7825 X1.2239 Y-2.7657 Z-0.0664
N7830 X1.224 Y-2.766 Z-0.063
N7835 Z0.1969
N7840 X1.2205 Y-3.5236
N7845 Z-0.063 F13.123
N7850 G19 G2 Y-3.5433 Z-0.0827 J-0.0197 K0. F39.37
N7855 G1 Y-3.563
N7860 G17 G3 X1.2402 Y-3.5433 I0. J0.0197
N7865 X1.122 I-0.0591 J0. F78.74
N7870 X1.2402 I0.0591 J0.
N7875 X1.2205 Y-3.5236 I-0.0197 J0.
N7880 G1 Y-3.5433
N7885 G19 G2 Y-3.563 Z-0.063 J0. K0.0197
N7890 G1 Z0.1969
N7895 Y-4.311
N7900 Z-0.063 F13.123
N7905 G2 Y-4.3307 Z-0.0827 J-0.0197 K0. F39.37
N7910 G1 Y-4.3504
N7915 G17 G3 X1.2402 Y-4.3307 I0. J0.0197
N7920 X1.122 I-0.0591 J0. F78.74
N7925 X1.2402 I0.0591 J0.
N7930 X1.2205 Y-4.311 I-0.0197 J0.
N7935 G1 Y-4.3307
N7940 G19 G2 Y-4.3504 Z-0.063 J0. K0.0197
N7945 G1 Z0.1969
N7950 Y-5.0984
N7955 Z-0.063 F13.123
N7960 G2 Y-5.1181 Z-0.0827 J-0.0197 K0. F39.37
N7965 G1 Y-5.1378
N7970 G17 G3 X1.2402 Y-5.1181 I0. J0.0197
N7975 X1.122 I-0.0591 J0. F78.74
N7980 X1.2402 I0.0591 J0.
N7985 X1.2205 Y-5.0984 I-0.0197 J0.
N7990 G1 Y-5.1181
N7995 G19 G2 Y-5.1378 Z-0.063 J0. K0.0197
N8000 G1 Z0.1969
N8005 X0.4275 Y-5.0899
N8010 Z-0.063 F13.123
N8015 Y-5.0902 Z-0.0664 F39.37
N8020 X0.4277 Y-5.091 Z-0.0697
N8025 X0.4281 Y-5.0924 Z-0.0728
N8030 X0.4285 Y-5.0944 Z-0.0756
N8035 X0.4291 Y-5.0967 Z-0.0781
N8040 X0.4297 Y-5.0995 Z-0.08
N8045 X0.4305 Y-5.1025 Z-0.0815
N8050 X0.4312 Y-5.1057 Z-0.0824
N8055 X0.432 Y-5.109 Z-0.0827
N8060 X0.4365 Y-5.1282
N8065 G17 G3 X0.4512 Y-5.1045 I-0.0045 J0.0192
N8070 X0.3362 Y-5.1317 I-0.0575 J-0.0136 F78.74
N8075 X0.4512 Y-5.1045 I0.0575 J0.0136
N8080 X0.4275 Y-5.0899 I-0.0192 J-0.0045
N8085 G1 X0.432 Y-5.109
N8090 X0.4328 Y-5.1124 Z-0.0824
N8095 X0.4336 Y-5.1156 Z-0.0815
N8100 X0.4343 Y-5.1186 Z-0.08
N8105 X0.4349 Y-5.1213 Z-0.0781
N8110 X0.4355 Y-5.1237 Z-0.0756
N8115 X0.4359 Y-5.1256 Z-0.0728
N8120 X0.4363 Y-5.127 Z-0.0697
N8125 X0.4365 Y-5.1279 Z-0.0664
N8130 Y-5.1282 Z-0.063
N8135 Z0.1969
N8140 X0.1575 Y-5.0984
N8145 Z-0.063 F13.123
N8150 G19 G2 Y-5.1181 Z-0.0827 J-0.0197 K0. F39.37
N8155 G1 Y-5.1378
N8160 G17 G3 X0.1772 Y-5.1181 I0. J0.0197
N8165 X-0.1772 I-0.1772 J0. F78.74
N8170 X0.1772 I0.1772 J0.
N8175 X0.1575 Y-5.0984 I-0.0197 J0.
N8180 G1 Y-5.1181
N8185 G19 G2 Y-5.1378 Z-0.063 J0. K0.0197
N8190 G1 Z0.1969
N8195 X-0.3543 Y-5.0984
N8200 Z-0.063 F13.123
N8205 G2 Y-5.1181 Z-0.0827 J-0.0197 K0. F39.37
N8210 G1 Y-5.1378
N8215 G17 G3 X-0.3346 Y-5.1181 I0. J0.0197
N8220 X-0.4528 I-0.0591 J0. F78.74
N8225 X-0.3346 I0.0591 J0.
N8230 X-0.3543 Y-5.0984 I-0.0197 J0.
N8235 G1 Y-5.1181
N8240 G19 G2 Y-5.1378 Z-0.063 J0. K0.0197
N8245 G1 Z0.1969
N8250 Y-4.311
N8255 Z-0.063 F13.123
N8260 G2 Y-4.3307 Z-0.0827 J-0.0197 K0. F39.37
N8265 G1 Y-4.3504
N8270 G17 G3 X-0.3346 Y-4.3307 I0. J0.0197
N8275 X-0.4528 I-0.0591 J0. F78.74
N8280 X-0.3346 I0.0591 J0.
N8285 X-0.3543 Y-4.311 I-0.0197 J0.
N8290 G1 Y-4.3307
N8295 G19 G2 Y-4.3504 Z-0.063 J0. K0.0197
N8300 G1 Z0.1969
N8305 X0.4331 Y-4.311
N8310 Z-0.063 F13.123
N8315 G2 Y-4.3307 Z-0.0827 J-0.0197 K0. F39.37
N8320 G1 Y-4.3504
N8325 G17 G3 X0.4528 Y-4.3307 I0. J0.0197
N8330 X0.3346 I-0.0591 J0. F78.74
N8335 X0.4528 I0.0591 J0.
N8340 X0.4331 Y-4.311 I-0.0197 J0.
N8345 G1 Y-4.3307
N8350 G19 G2 Y-4.3504 Z-0.063 J0. K0.0197
N8355 G1 Z0.1969
N8360 X0.4275 Y-3.5151
N8365 Z-0.063 F13.123
N8370 Y-3.5154 Z-0.0664 F39.37
N8375 X0.4277 Y-3.5162 Z-0.0697
N8380 X0.4281 Y-3.5176 Z-0.0728
N8385 X0.4285 Y-3.5196 Z-0.0756
N8390 X0.4291 Y-3.5219 Z-0.0781
N8395 X0.4297 Y-3.5247 Z-0.08
N8400 X0.4305 Y-3.5277 Z-0.0815
N8405 X0.4312 Y-3.5309 Z-0.0824
N8410 X0.432 Y-3.5342 Z-0.0827
N8415 X0.4365 Y-3.5534
N8420 G17 G3 X0.4512 Y-3.5297 I-0.0045 J0.0192
N8425 X0.3362 Y-3.5569 I-0.0575 J-0.0136 F78.74
N8430 X0.4512 Y-3.5297 I0.0575 J0.0136
N8435 X0.4275 Y-3.5151 I-0.0192 J-0.0045
N8440 G1 X0.432 Y-3.5342
N8445 X0.4328 Y-3.5376 Z-0.0824
N8450 X0.4336 Y-3.5408 Z-0.0815
N8455 X0.4343 Y-3.5438 Z-0.08
N8460 X0.4349 Y-3.5465 Z-0.0781
N8465 X0.4355 Y-3.5489 Z-0.0756
N8470 X0.4359 Y-3.5508 Z-0.0728
N8475 X0.4363 Y-3.5522 Z-0.0697
N8480 X0.4365 Y-3.5531 Z-0.0664
N8485 Y-3.5534 Z-0.063
N8490 Z0.1969
N8495 X0.4275 Y-2.7277
N8500 Z-0.063 F13.123
N8505 Y-2.728 Z-0.0664 F39.37
N8510 X0.4277 Y-2.7288 Z-0.0697
N8515 X0.4281 Y-2.7302 Z-0.0728
N8520 X0.4285 Y-2.7322 Z-0.0756
N8525 X0.4291 Y-2.7345 Z-0.0781
N8530 X0.4297 Y-2.7372 Z-0.08
N8535 X0.4305 Y-2.7403 Z-0.0815
N8540 X0.4312 Y-2.7435 Z-0.0824
N8545 X0.432 Y-2.7468 Z-0.0827
N8550 X0.4365 Y-2.766
N8555 G3 X0.4512 Y-2.7423 I-0.0045 J0.0192
N8560 X0.3362 Y-2.7695 I-0.0575 J-0.0136 F78.74
N8565 X0.4512 Y-2.7423 I0.0575 J0.0136
N8570 X0.4275 Y-2.7277 I-0.0192 J-0.0045
N8575 G1 X0.432 Y-2.7468
N8580 X0.4328 Y-2.7502 Z-0.0824
N8585 X0.4336 Y-2.7534 Z-0.0815
N8590 X0.4343 Y-2.7564 Z-0.08
N8595 X0.4349 Y-2.7591 Z-0.0781
N8600 X0.4355 Y-2.7615 Z-0.0756
N8605 X0.4359 Y-2.7634 Z-0.0728
N8610 X0.4363 Y-2.7648 Z-0.0697
N8615 X0.4365 Y-2.7657 Z-0.0664
N8620 Y-2.766 Z-0.063
N8625 Z0.1969
N8630 X0.4331 Y-1.9488
N8635 Z-0.063 F13.123
N8640 G19 G2 Y-1.9685 Z-0.0827 J-0.0197 K0. F39.37
N8645 G1 Y-1.9882
N8650 G17 G3 X0.4528 Y-1.9685 I0. J0.0197
N8655 X0.3346 I-0.0591 J0. F78.74
N8660 X0.4528 I0.0591 J0.
N8665 X0.4331 Y-1.9488 I-0.0197 J0.
N8670 G1 Y-1.9685
N8675 G19 G2 Y-1.9882 Z-0.063 J0. K0.0197
N8680 G1 Z0.1969
N8685 X-0.3543 Y-1.9488
N8690 Z-0.063 F13.123
N8695 G2 Y-1.9685 Z-0.0827 J-0.0197 K0. F39.37
N8700 G1 Y-1.9882
N8705 G17 G3 X-0.3346 Y-1.9685 I0. J0.0197
N8710 X-0.4528 I-0.0591 J0. F78.74
N8715 X-0.3346 I0.0591 J0.
N8720 X-0.3543 Y-1.9488 I-0.0197 J0.
N8725 G1 Y-1.9685
N8730 G19 G2 Y-1.9882 Z-0.063 J0. K0.0197
N8735 G1 Z0.1969
N8740 X-0.3599 Y-2.7277
N8745 Z-0.063 F13.123
N8750 Y-2.728 Z-0.0664 F39.37
N8755 X-0.3597 Y-2.7288 Z-0.0697
N8760 X-0.3593 Y-2.7302 Z-0.0728
N8765 X-0.3589 Y-2.7322 Z-0.0756
N8770 X-0.3583 Y-2.7345 Z-0.0781
N8775 X-0.3577 Y-2.7372 Z-0.08
N8780 X-0.3569 Y-2.7403 Z-0.0815
N8785 X-0.3562 Y-2.7435 Z-0.0824
N8790 X-0.3554 Y-2.7468 Z-0.0827
N8795 X-0.3509 Y-2.766
N8800 G17 G3 X-0.3362 Y-2.7423 I-0.0045 J0.0192
N8805 X-0.4512 Y-2.7695 I-0.0575 J-0.0136 F78.74
N8810 X-0.3362 Y-2.7423 I0.0575 J0.0136
N8815 X-0.3599 Y-2.7277 I-0.0192 J-0.0045
N8820 G1 X-0.3554 Y-2.7468
N8825 X-0.3546 Y-2.7502 Z-0.0824
N8830 X-0.3538 Y-2.7534 Z-0.0815
N8835 X-0.3531 Y-2.7564 Z-0.08
N8840 X-0.3525 Y-2.7591 Z-0.0781
N8845 X-0.3519 Y-2.7615 Z-0.0756
N8850 X-0.3515 Y-2.7634 Z-0.0728
N8855 X-0.3511 Y-2.7648 Z-0.0697
N8860 X-0.3509 Y-2.7657 Z-0.0664
N8865 Y-2.766 Z-0.063
N8870 Z0.1969
N8875 X-0.3543 Y-3.5236
N8880 Z-0.063 F13.123
N8885 G19 G2 Y-3.5433 Z-0.0827 J-0.0197 K0. F39.37
N8890 G1 Y-3.563
N8895 G17 G3 X-0.3346 Y-3.5433 I0. J0.0197
N8900 X-0.4528 I-0.0591 J0. F78.74
N8905 X-0.3346 I0.0591 J0.
N8910 X-0.3543 Y-3.5236 I-0.0197 J0.
N8915 G1 Y-3.5433
N8920 G19 G2 Y-3.563 Z-0.063 J0. K0.0197
N8925 G1 Z0.1969
N8930 X-1.1473 Y-3.5151
N8935 Z-0.063 F13.123
N8940 Y-3.5154 Z-0.0664 F39.37
N8945 X-1.1471 Y-3.5162 Z-0.0697
N8950 X-1.1467 Y-3.5176 Z-0.0728
N8955 X-1.1463 Y-3.5196 Z-0.0756
N8960 X-1.1457 Y-3.5219 Z-0.0781
N8965 X-1.1451 Y-3.5247 Z-0.08
N8970 X-1.1443 Y-3.5277 Z-0.0815
N8975 X-1.1436 Y-3.5309 Z-0.0824
N8980 X-1.1428 Y-3.5342 Z-0.0827
N8985 X-1.1383 Y-3.5534
N8990 G17 G3 X-1.1236 Y-3.5297 I-0.0045 J0.0192
N8995 X-1.2386 Y-3.5569 I-0.0575 J-0.0136 F78.74
N9000 X-1.1236 Y-3.5297 I0.0575 J0.0136
N9005 X-1.1473 Y-3.5151 I-0.0192 J-0.0045
N9010 G1 X-1.1428 Y-3.5342
N9015 X-1.142 Y-3.5376 Z-0.0824
N9020 X-1.1412 Y-3.5408 Z-0.0815
N9025 X-1.1405 Y-3.5438 Z-0.08
N9030 X-1.1399 Y-3.5465 Z-0.0781
N9035 X-1.1393 Y-3.5489 Z-0.0756
N9040 X-1.1389 Y-3.5508 Z-0.0728
N9045 X-1.1385 Y-3.5522 Z-0.0697
N9050 X-1.1383 Y-3.5531 Z-0.0664
N9055 Y-3.5534 Z-0.063
N9060 Z0.1969
N9065 X-1.1417 Y-4.311
N9070 Z-0.063 F13.123
N9075 G19 G2 Y-4.3307 Z-0.0827 J-0.0197 K0. F39.37
N9080 G1 Y-4.3504
N9085 G17 G3 X-1.122 Y-4.3307 I0. J0.0197
N9090 X-1.2402 I-0.0591 J0. F78.74
N9095 X-1.122 I0.0591 J0.
N9100 X-1.1417 Y-4.311 I-0.0197 J0.
N9105 G1 Y-4.3307
N9110 G19 G2 Y-4.3504 Z-0.063 J0. K0.0197
N9115 G1 Z0.1969
N9120 Y-5.0984
N9125 Z-0.063 F13.123
N9130 G2 Y-5.1181 Z-0.0827 J-0.0197 K0. F39.37
N9135 G1 Y-5.1378
N9140 G17 G3 X-1.122 Y-5.1181 I0. J0.0197
N9145 X-1.2402 I-0.0591 J0. F78.74
N9150 X-1.122 I0.0591 J0.
N9155 X-1.1417 Y-5.0984 I-0.0197 J0.
N9160 G1 Y-5.1181
N9165 G19 G2 Y-5.1378 Z-0.063 J0. K0.0197
N9170 G1 Z0.1969
N9175 X-1.9291 Y-5.0984
N9180 Z-0.063 F13.123
N9185 G2 Y-5.1181 Z-0.0827 J-0.0197 K0. F39.37
N9190 G1 Y-5.1378
N9195 G17 G3 X-1.9094 Y-5.1181 I0. J0.0197
N9200 X-2.0276 I-0.0591 J0. F78.74
N9205 X-1.9094 I0.0591 J0.
N9210 X-1.9291 Y-5.0984 I-0.0197 J0.
N9215 G1 Y-5.1181
N9220 G19 G2 Y-5.1378 Z-0.063 J0. K0.0197
N9225 G1 Z0.1969
N9230 X-1.9347 Y-4.3025
N9235 Z-0.063 F13.123
N9240 Y-4.3028 Z-0.0664 F39.37
N9245 X-1.9345 Y-4.3036 Z-0.0697
N9250 X-1.9341 Y-4.305 Z-0.0728
N9255 X-1.9337 Y-4.307 Z-0.0756
N9260 X-1.9331 Y-4.3093 Z-0.0781
N9265 X-1.9325 Y-4.3121 Z-0.08
N9270 X-1.9317 Y-4.3151 Z-0.0815
N9275 X-1.931 Y-4.3183 Z-0.0824
N9280 X-1.9302 Y-4.3216 Z-0.0827
N9285 X-1.9257 Y-4.3408
N9290 G17 G3 X-1.911 Y-4.3171 I-0.0045 J0.0192
N9295 X-2.026 Y-4.3443 I-0.0575 J-0.0136 F78.74
N9300 X-1.911 Y-4.3171 I0.0575 J0.0136
N9305 X-1.9347 Y-4.3025 I-0.0192 J-0.0045
N9310 G1 X-1.9302 Y-4.3216
N9315 X-1.9294 Y-4.325 Z-0.0824
N9320 X-1.9286 Y-4.3282 Z-0.0815
N9325 X-1.9279 Y-4.3312 Z-0.08
N9330 X-1.9273 Y-4.3339 Z-0.0781
N9335 X-1.9267 Y-4.3363 Z-0.0756
N9340 X-1.9263 Y-4.3382 Z-0.0728
N9345 X-1.9259 Y-4.3396 Z-0.0697
N9350 X-1.9257 Y-4.3405 Z-0.0664
N9355 Y-4.3408 Z-0.063
N9360 Z0.1969
N9365 X-1.9291 Y-3.5236
N9370 Z-0.063 F13.123
N9375 G19 G2 Y-3.5433 Z-0.0827 J-0.0197 K0. F39.37
N9380 G1 Y-3.563
N9385 G17 G3 X-1.9094 Y-3.5433 I0. J0.0197
N9390 X-2.0276 I-0.0591 J0. F78.74
N9395 X-1.9094 I0.0591 J0.
N9400 X-1.9291 Y-3.5236 I-0.0197 J0.
N9405 G1 Y-3.5433
N9410 G19 G2 Y-3.563 Z-0.063 J0. K0.0197
N9415 G1 Z0.1969
N9420 Y-2.7362
N9425 Z-0.063 F13.123
N9430 G2 Y-2.7559 Z-0.0827 J-0.0197 K0. F39.37
N9435 G1 Y-2.7756
N9440 G17 G3 X-1.9094 Y-2.7559 I0. J0.0197
N9445 X-2.0276 I-0.0591 J0. F78.74
N9450 X-1.9094 I0.0591 J0.
N9455 X-1.9291 Y-2.7362 I-0.0197 J0.
N9460 G1 Y-2.7559
N9465 G19 G2 Y-2.7756 Z-0.063 J0. K0.0197
N9470 G1 Z0.1969
N9475 X-1.1417 Y-2.7362
N9480 Z-0.063 F13.123
N9485 G2 Y-2.7559 Z-0.0827 J-0.0197 K0. F39.37
N9490 G1 Y-2.7756
N9495 G17 G3 X-1.122 Y-2.7559 I0. J0.0197
N9500 X-1.2402 I-0.0591 J0. F78.74
N9505 X-1.122 I0.0591 J0.
N9510 X-1.1417 Y-2.7362 I-0.0197 J0.
N9515 G1 Y-2.7559
N9520 G19 G2 Y-2.7756 Z-0.063 J0. K0.0197
N9525 G1 Z0.1969
N9530 Y-1.9488
N9535 Z-0.063 F13.123
N9540 G2 Y-1.9685 Z-0.0827 J-0.0197 K0. F39.37
N9545 G1 Y-1.9882
N9550 G17 G3 X-1.122 Y-1.9685 I0. J0.0197
N9555 X-1.2402 I-0.0591 J0. F78.74
N9560 X-1.122 I0.0591 J0.
N9565 X-1.1417 Y-1.9488 I-0.0197 J0.
N9570 G1 Y-1.9685
N9575 G19 G2 Y-1.9882 Z-0.063 J0. K0.0197
N9580 G1 Z0.1969
N9585 Y-1.1614
N9590 Z-0.063 F13.123
N9595 G2 Y-1.1811 Z-0.0827 J-0.0197 K0. F39.37
N9600 G1 Y-1.2008
N9605 G17 G3 X-1.122 Y-1.1811 I0. J0.0197
N9610 X-1.2402 I-0.0591 J0. F78.74
N9615 X-1.122 I0.0591 J0.
N9620 X-1.1417 Y-1.1614 I-0.0197 J0.
N9625 G1 Y-1.1811
N9630 G19 G2 Y-1.2008 Z-0.063 J0. K0.0197
N9635 G1 Z0.1969
N9640 Y-0.374
N9645 Z-0.063 F13.123
N9650 G2 Y-0.3937 Z-0.0827 J-0.0197 K0. F39.37
N9655 G1 Y-0.4134
N9660 G17 G3 X-1.122 Y-0.3937 I0. J0.0197
N9665 X-1.2402 I-0.0591 J0. F78.74
N9670 X-1.122 I0.0591 J0.
N9675 X-1.1417 Y-0.374 I-0.0197 J0.
N9680 G1 Y-0.3937
N9685 G19 G2 Y-0.4134 Z-0.063 J0. K0.0197
N9690 G1 Z0.1969
N9695 Y0.4134
N9700 Z-0.063 F13.123
N9705 G2 Y0.3937 Z-0.0827 J-0.0197 K0. F39.37
N9710 G1 Y0.374
N9715 G17 G3 X-1.122 Y0.3937 I0. J0.0197
N9720 X-1.2402 I-0.0591 J0. F78.74
N9725 X-1.122 I0.0591 J0.
N9730 X-1.1417 Y0.4134 I-0.0197 J0.
N9735 G1 Y0.3937
N9740 G19 G2 Y0.374 Z-0.063 J0. K0.0197
N9745 G1 Z0.1969
N9750 Y1.2008
N9755 Z-0.063 F13.123
N9760 G2 Y1.1811 Z-0.0827 J-0.0197 K0. F39.37
N9765 G1 Y1.1614
N9770 G17 G3 X-1.122 Y1.1811 I0. J0.0197
N9775 X-1.2402 I-0.0591 J0. F78.74
N9780 X-1.122 I0.0591 J0.
N9785 X-1.1417 Y1.2008 I-0.0197 J0.
N9790 G1 Y1.1811
N9795 G19 G2 Y1.1614 Z-0.063 J0. K0.0197
N9800 G1 Z0.1969
N9805 Y1.9882
N9810 Z-0.063 F13.123
N9815 G2 Y1.9685 Z-0.0827 J-0.0197 K0. F39.37
N9820 G1 Y1.9488
N9825 G17 G3 X-1.122 Y1.9685 I0. J0.0197
N9830 X-1.2402 I-0.0591 J0. F78.74
N9835 X-1.122 I0.0591 J0.
N9840 X-1.1417 Y1.9882 I-0.0197 J0.
N9845 G1 Y1.9685
N9850 G19 G2 Y1.9488 Z-0.063 J0. K0.0197
N9855 G1 Z0.1969
N9860 Y2.7756
N9865 Z-0.063 F13.123
N9870 G2 Y2.7559 Z-0.0827 J-0.0197 K0. F39.37
N9875 G1 Y2.7362
N9880 G17 G3 X-1.122 Y2.7559 I0. J0.0197
N9885 X-1.2402 I-0.0591 J0. F78.74
N9890 X-1.122 I0.0591 J0.
N9895 X-1.1417 Y2.7756 I-0.0197 J0.
N9900 G1 Y2.7559
N9905 G19 G2 Y2.7362 Z-0.063 J0. K0.0197
N9910 G1 Z0.1969
N9915 X-1.1473 Y3.5715
N9920 Z-0.063 F13.123
N9925 Y3.5712 Z-0.0664 F39.37
N9930 X-1.1471 Y3.5704 Z-0.0697
N9935 X-1.1467 Y3.569 Z-0.0728
N9940 X-1.1463 Y3.5671 Z-0.0756
N9945 X-1.1457 Y3.5647 Z-0.0781
N9950 X-1.1451 Y3.562 Z-0.08
N9955 X-1.1443 Y3.5589 Z-0.0815
N9960 X-1.1436 Y3.5557 Z-0.0824
N9965 X-1.1428 Y3.5524 Z-0.0827
N9970 X-1.1383 Y3.5332
N9975 G17 G3 X-1.1236 Y3.5569 I-0.0045 J0.0192
N9980 X-1.2386 Y3.5297 I-0.0575 J-0.0136 F78.74
N9985 X-1.1236 Y3.5569 I0.0575 J0.0136
N9990 X-1.1473 Y3.5715 I-0.0192 J-0.0045
N9995 G1 X-1.1428 Y3.5524
N10000 X-1.142 Y3.5491 Z-0.0824
N10005 X-1.1412 Y3.5458 Z-0.0815
N10010 X-1.1405 Y3.5428 Z-0.08
N10015 X-1.1399 Y3.5401 Z-0.0781
N10020 X-1.1393 Y3.5377 Z-0.0756
N10025 X-1.1389 Y3.5358 Z-0.0728
N10030 X-1.1385 Y3.5344 Z-0.0697
N10035 X-1.1383 Y3.5335 Z-0.0664
N10040 Y3.5332 Z-0.063
N10045 Z0.1969
N10050 X-1.1417 Y4.3504
N10055 Z-0.063 F13.123
N10060 G19 G2 Y4.3307 Z-0.0827 J-0.0197 K0. F39.37
N10065 G1 Y4.311
N10070 G17 G3 X-1.122 Y4.3307 I0. J0.0197
N10075 X-1.2402 I-0.0591 J0. F78.74
N10080 X-1.122 I0.0591 J0.
N10085 X-1.1417 Y4.3504 I-0.0197 J0.
N10090 G1 Y4.3307
N10095 G19 G2 Y4.311 Z-0.063 J0. K0.0197
N10100 G1 Z0.1969
N10105 Y5.1378
N10110 Z-0.063 F13.123
N10115 G2 Y5.1181 Z-0.0827 J-0.0197 K0. F39.37
N10120 G1 Y5.0984
N10125 G17 G3 X-1.122 Y5.1181 I0. J0.0197
N10130 X-1.2402 I-0.0591 J0. F78.74
N10135 X-1.122 I0.0591 J0.
N10140 X-1.1417 Y5.1378 I-0.0197 J0.
N10145 G1 Y5.1181
N10150 G19 G2 Y5.0984 Z-0.063 J0. K0.0197
N10155 G1 Z0.1969
N10160 X-1.9291 Y5.1378
N10165 Z-0.063 F13.123
N10170 G2 Y5.1181 Z-0.0827 J-0.0197 K0. F39.37
N10175 G1 Y5.0984
N10180 G17 G3 X-1.9094 Y5.1181 I0. J0.0197
N10185 X-2.0276 I-0.0591 J0. F78.74
N10190 X-1.9094 I0.0591 J0.
N10195 X-1.9291 Y5.1378 I-0.0197 J0.
N10200 G1 Y5.1181
N10205 G19 G2 Y5.0984 Z-0.063 J0. K0.0197
N10210 G1 Z0.1969
N10215 X-1.9347 Y4.3589
N10220 Z-0.063 F13.123
N10225 Y4.3587 Z-0.0664 F39.37
N10230 X-1.9345 Y4.3578 Z-0.0697
N10235 X-1.9341 Y4.3564 Z-0.0728
N10240 X-1.9337 Y4.3545 Z-0.0756
N10245 X-1.9331 Y4.3521 Z-0.0781
N10250 X-1.9325 Y4.3494 Z-0.08
N10255 X-1.9317 Y4.3463 Z-0.0815
N10260 X-1.931 Y4.3431 Z-0.0824
N10265 X-1.9302 Y4.3398 Z-0.0827
N10270 X-1.9257 Y4.3206
N10275 G17 G3 X-1.911 Y4.3443 I-0.0045 J0.0192
N10280 X-2.026 Y4.3171 I-0.0575 J-0.0136 F78.74
N10285 X-1.911 Y4.3443 I0.0575 J0.0136
N10290 X-1.9347 Y4.3589 I-0.0192 J-0.0045
N10295 G1 X-1.9302 Y4.3398
N10300 X-1.9294 Y4.3365 Z-0.0824
N10305 X-1.9286 Y4.3332 Z-0.0815
N10310 X-1.9279 Y4.3302 Z-0.08
N10315 X-1.9273 Y4.3275 Z-0.0781
N10320 X-1.9267 Y4.3251 Z-0.0756
N10325 X-1.9263 Y4.3232 Z-0.0728
N10330 X-1.9259 Y4.3218 Z-0.0697
N10335 X-1.9257 Y4.3209 Z-0.0664
N10340 Y4.3206 Z-0.063
N10345 Z0.1969
N10350 X-1.9291 Y3.563
N10355 Z-0.063 F13.123
N10360 G19 G2 Y3.5433 Z-0.0827 J-0.0197 K0. F39.37
N10365 G1 Y3.5236
N10370 G17 G3 X-1.9094 Y3.5433 I0. J0.0197
N10375 X-2.0276 I-0.0591 J0. F78.74
N10380 X-1.9094 I0.0591 J0.
N10385 X-1.9291 Y3.563 I-0.0197 J0.
N10390 G1 Y3.5433
N10395 G19 G2 Y3.5236 Z-0.063 J0. K0.0197
N10400 G1 Z0.1969
N10405 Y2.7756
N10410 Z-0.063 F13.123
N10415 G2 Y2.7559 Z-0.0827 J-0.0197 K0. F39.37
N10420 G1 Y2.7362
N10425 G17 G3 X-1.9094 Y2.7559 I0. J0.0197
N10430 X-2.0276 I-0.0591 J0. F78.74
N10435 X-1.9094 I0.0591 J0.
N10440 X-1.9291 Y2.7756 I-0.0197 J0.
N10445 G1 Y2.7559
N10450 G19 G2 Y2.7362 Z-0.063 J0. K0.0197
N10455 G1 Z0.1969
N10460 Y1.9882
N10465 Z-0.063 F13.123
N10470 G2 Y1.9685 Z-0.0827 J-0.0197 K0. F39.37
N10475 G1 Y1.9488
N10480 G17 G3 X-1.9094 Y1.9685 I0. J0.0197
N10485 X-2.0276 I-0.0591 J0. F78.74
N10490 X-1.9094 I0.0591 J0.
N10495 X-1.9291 Y1.9882 I-0.0197 J0.
N10500 G1 Y1.9685
N10505 G19 G2 Y1.9488 Z-0.063 J0. K0.0197
N10510 G1 Z0.1969
N10515 X-1.9347 Y1.2093
N10520 Z-0.063 F13.123
N10525 Y1.209 Z-0.0664 F39.37
N10530 X-1.9345 Y1.2082 Z-0.0697
N10535 X-1.9341 Y1.2068 Z-0.0728
N10540 X-1.9337 Y1.2049 Z-0.0756
N10545 X-1.9331 Y1.2025 Z-0.0781
N10550 X-1.9325 Y1.1998 Z-0.08
N10555 X-1.9317 Y1.1967 Z-0.0815
N10560 X-1.931 Y1.1935 Z-0.0824
N10565 X-1.9302 Y1.1902 Z-0.0827
N10570 X-1.9257 Y1.171
N10575 G17 G3 X-1.911 Y1.1947 I-0.0045 J0.0192
N10580 X-2.026 Y1.1675 I-0.0575 J-0.0136 F78.74
N10585 X-1.911 Y1.1947 I0.0575 J0.0136
N10590 X-1.9347 Y1.2093 I-0.0192 J-0.0045
N10595 G1 X-1.9302 Y1.1902
N10600 X-1.9294 Y1.1869 Z-0.0824
N10605 X-1.9286 Y1.1836 Z-0.0815
N10610 X-1.9279 Y1.1806 Z-0.08
N10615 X-1.9273 Y1.1779 Z-0.0781
N10620 X-1.9267 Y1.1755 Z-0.0756
N10625 X-1.9263 Y1.1736 Z-0.0728
N10630 X-1.9259 Y1.1722 Z-0.0697
N10635 X-1.9257 Y1.1713 Z-0.0664
N10640 Y1.171 Z-0.063
N10645 Z0.1969
N10650 X-1.9347 Y0.4219
N10655 Z-0.063 F13.123
N10660 Y0.4216 Z-0.0664 F39.37
N10665 X-1.9345 Y0.4208 Z-0.0697
N10670 X-1.9341 Y0.4194 Z-0.0728
N10675 X-1.9337 Y0.4175 Z-0.0756
N10680 X-1.9331 Y0.4151 Z-0.0781
N10685 X-1.9325 Y0.4124 Z-0.08
N10690 X-1.9317 Y0.4093 Z-0.0815
N10695 X-1.931 Y0.4061 Z-0.0824
N10700 X-1.9302 Y0.4028 Z-0.0827
N10705 X-1.9257 Y0.3836
N10710 G3 X-1.911 Y0.4073 I-0.0045 J0.0192
N10715 X-2.026 Y0.3801 I-0.0575 J-0.0136 F78.74
N10720 X-1.911 Y0.4073 I0.0575 J0.0136
N10725 X-1.9347 Y0.4219 I-0.0192 J-0.0045
N10730 G1 X-1.9302 Y0.4028
N10735 X-1.9294 Y0.3995 Z-0.0824
N10740 X-1.9286 Y0.3962 Z-0.0815
N10745 X-1.9279 Y0.3932 Z-0.08
N10750 X-1.9273 Y0.3905 Z-0.0781
N10755 X-1.9267 Y0.3881 Z-0.0756
N10760 X-1.9263 Y0.3862 Z-0.0728
N10765 X-1.9259 Y0.3848 Z-0.0697
N10770 X-1.9257 Y0.3839 Z-0.0664
N10775 Y0.3836 Z-0.063
N10780 Z0.1969
N10785 X-1.9291 Y-0.374
N10790 Z-0.063 F13.123
N10795 G19 G2 Y-0.3937 Z-0.0827 J-0.0197 K0. F39.37
N10800 G1 Y-0.4134
N10805 G17 G3 X-1.9094 Y-0.3937 I0. J0.0197
N10810 X-2.0276 I-0.0591 J0. F78.74
N10815 X-1.9094 I0.0591 J0.
N10820 X-1.9291 Y-0.374 I-0.0197 J0.
N10825 G1 Y-0.3937
N10830 G19 G2 Y-0.4134 Z-0.063 J0. K0.0197
N10835 G1 Z0.1969
N10840 Y-1.1614
N10845 Z-0.063 F13.123
N10850 G2 Y-1.1811 Z-0.0827 J-0.0197 K0. F39.37
N10855 G1 Y-1.2008
N10860 G17 G3 X-1.9094 Y-1.1811 I0. J0.0197
N10865 X-2.0276 I-0.0591 J0. F78.74
N10870 X-1.9094 I0.0591 J0.
N10875 X-1.9291 Y-1.1614 I-0.0197 J0.
N10880 G1 Y-1.1811
N10885 G19 G2 Y-1.2008 Z-0.063 J0. K0.0197
N10890 G1 Z0.1969
N10895 X-1.9347 Y-1.9403
N10900 Z-0.063 F13.123
N10905 Y-1.9406 Z-0.0664 F39.37
N10910 X-1.9345 Y-1.9414 Z-0.0697
N10915 X-1.9341 Y-1.9428 Z-0.0728
N10920 X-1.9337 Y-1.9448 Z-0.0756
N10925 X-1.9331 Y-1.9471 Z-0.0781
N10930 X-1.9325 Y-1.9498 Z-0.08
N10935 X-1.9317 Y-1.9529 Z-0.0815
N10940 X-1.931 Y-1.9561 Z-0.0824
N10945 X-1.9302 Y-1.9594 Z-0.0827
N10950 X-1.9257 Y-1.9786
N10955 G17 G3 X-1.911 Y-1.9549 I-0.0045 J0.0192
N10960 X-2.026 Y-1.9821 I-0.0575 J-0.0136 F78.74
N10965 X-1.911 Y-1.9549 I0.0575 J0.0136
N10970 X-1.9347 Y-1.9403 I-0.0192 J-0.0045
N10975 G1 X-1.9302 Y-1.9594
N10980 X-1.9294 Y-1.9628 Z-0.0824
N10985 X-1.9286 Y-1.966 Z-0.0815
N10990 X-1.9279 Y-1.969 Z-0.08
N10995 X-1.9273 Y-1.9717 Z-0.0781
N11000 X-1.9267 Y-1.9741 Z-0.0756
N11005 X-1.9263 Y-1.976 Z-0.0728
N11010 X-1.9259 Y-1.9774 Z-0.0697
N11015 X-1.9257 Y-1.9783 Z-0.0664
N11020 Y-1.9786 Z-0.063
N11025 Z0.1969
N11030 X-2.7165 Y-1.9488
N11035 Z-0.063 F13.123
N11040 G19 G2 Y-1.9685 Z-0.0827 J-0.0197 K0. F39.37
N11045 G1 Y-1.9882
N11050 G17 G3 X-2.6969 Y-1.9685 I0. J0.0197
N11055 X-2.815 I-0.0591 J0. F78.74
N11060 X-2.6969 I0.0591 J0.
N11065 X-2.7165 Y-1.9488 I-0.0197 J0.
N11070 G1 Y-1.9685
N11075 G19 G2 Y-1.9882 Z-0.063 J0. K0.0197
N11080 G1 Z0.1969
N11085 X-2.7221 Y-2.7277
N11090 Z-0.063 F13.123
N11095 Y-2.728 Z-0.0664 F39.37
N11100 X-2.7219 Y-2.7288 Z-0.0697
N11105 X-2.7215 Y-2.7302 Z-0.0728
N11110 X-2.7211 Y-2.7322 Z-0.0756
N11115 X-2.7205 Y-2.7345 Z-0.0781
N11120 X-2.7199 Y-2.7372 Z-0.08
N11125 X-2.7191 Y-2.7403 Z-0.0815
N11130 X-2.7184 Y-2.7435 Z-0.0824
N11135 X-2.7176 Y-2.7468 Z-0.0827
N11140 X-2.7131 Y-2.766
N11145 G17 G3 X-2.6984 Y-2.7423 I-0.0045 J0.0192
N11150 X-2.8134 Y-2.7695 I-0.0575 J-0.0136 F78.74
N11155 X-2.6984 Y-2.7423 I0.0575 J0.0136
N11160 X-2.7221 Y-2.7277 I-0.0192 J-0.0045
N11165 G1 X-2.7176 Y-2.7468
N11170 X-2.7168 Y-2.7502 Z-0.0824
N11175 X-2.716 Y-2.7534 Z-0.0815
N11180 X-2.7153 Y-2.7564 Z-0.08
N11185 X-2.7147 Y-2.7591 Z-0.0781
N11190 X-2.7141 Y-2.7615 Z-0.0756
N11195 X-2.7137 Y-2.7634 Z-0.0728
N11200 X-2.7133 Y-2.7648 Z-0.0697
N11205 X-2.7131 Y-2.7657 Z-0.0664
N11210 Y-2.766 Z-0.063
N11215 Z0.1969
N11220 X-2.7221 Y-3.5151
N11225 Z-0.063 F13.123
N11230 Y-3.5154 Z-0.0664 F39.37
N11235 X-2.7219 Y-3.5162 Z-0.0697
N11240 X-2.7215 Y-3.5176 Z-0.0728
N11245 X-2.7211 Y-3.5196 Z-0.0756
N11250 X-2.7205 Y-3.5219 Z-0.0781
N11255 X-2.7199 Y-3.5247 Z-0.08
N11260 X-2.7191 Y-3.5277 Z-0.0815
N11265 X-2.7184 Y-3.5309 Z-0.0824
N11270 X-2.7176 Y-3.5342 Z-0.0827
N11275 X-2.7131 Y-3.5534
N11280 G3 X-2.6984 Y-3.5297 I-0.0045 J0.0192
N11285 X-2.8134 Y-3.5569 I-0.0575 J-0.0136 F78.74
N11290 X-2.6984 Y-3.5297 I0.0575 J0.0136
N11295 X-2.7221 Y-3.5151 I-0.0192 J-0.0045
N11300 G1 X-2.7176 Y-3.5342
N11305 X-2.7168 Y-3.5376 Z-0.0824
N11310 X-2.716 Y-3.5408 Z-0.0815
N11315 X-2.7153 Y-3.5438 Z-0.08
N11320 X-2.7147 Y-3.5465 Z-0.0781
N11325 X-2.7141 Y-3.5489 Z-0.0756
N11330 X-2.7137 Y-3.5508 Z-0.0728
N11335 X-2.7133 Y-3.5522 Z-0.0697
N11340 X-2.7131 Y-3.5531 Z-0.0664
N11345 Y-3.5534 Z-0.063
N11350 Z0.1969
N11355 X-2.7165 Y-4.311
N11360 Z-0.063 F13.123
N11365 G19 G2 Y-4.3307 Z-0.0827 J-0.0197 K0. F39.37
N11370 G1 Y-4.3504
N11375 G17 G3 X-2.6969 Y-4.3307 I0. J0.0197
N11380 X-2.815 I-0.0591 J0. F78.74
N11385 X-2.6969 I0.0591 J0.
N11390 X-2.7165 Y-4.311 I-0.0197 J0.
N11395 G1 Y-4.3307
N11400 G19 G2 Y-4.3504 Z-0.063 J0. K0.0197
N11405 G1 Z0.1969
N11410 Y-5.0984
N11415 Z-0.063 F13.123
N11420 G2 Y-5.1181 Z-0.0827 J-0.0197 K0. F39.37
N11425 G1 Y-5.1378
N11430 G17 G3 X-2.6969 Y-5.1181 I0. J0.0197
N11435 X-2.815 I-0.0591 J0. F78.74
N11440 X-2.6969 I0.0591 J0.
N11445 X-2.7165 Y-5.0984 I-0.0197 J0.
N11450 G1 Y-5.1181
N11455 G19 G2 Y-5.1378 Z-0.063 J0. K0.0197
N11460 G1 Z0.1969
N11465 X-3.5039 Y-5.0984
N11470 Z-0.063 F13.123
N11475 G2 Y-5.1181 Z-0.0827 J-0.0197 K0. F39.37
N11480 G1 Y-5.1378
N11485 G17 G3 X-3.4843 Y-5.1181 I0. J0.0197
N11490 X-3.6024 I-0.0591 J0. F78.74
N11495 X-3.4843 I0.0591 J0.
N11500 X-3.5039 Y-5.0984 I-0.0197 J0.
N11505 G1 Y-5.1181
N11510 G19 G2 Y-5.1378 Z-0.063 J0. K0.0197
N11515 G1 Z0.1969
N11520 Y-4.311
N11525 Z-0.063 F13.123
N11530 G2 Y-4.3307 Z-0.0827 J-0.0197 K0. F39.37
N11535 G1 Y-4.3504
N11540 G17 G3 X-3.4843 Y-4.3307 I0. J0.0197
N11545 X-3.6024 I-0.0591 J0. F78.74
N11550 X-3.4843 I0.0591 J0.
N11555 X-3.5039 Y-4.311 I-0.0197 J0.
N11560 G1 Y-4.3307
N11565 G19 G2 Y-4.3504 Z-0.063 J0. K0.0197
N11570 G1 Z0.1969
N11575 Y-3.5236
N11580 Z-0.063 F13.123
N11585 G2 Y-3.5433 Z-0.0827 J-0.0197 K0. F39.37
N11590 G1 Y-3.563
N11595 G17 G3 X-3.4843 Y-3.5433 I0. J0.0197
N11600 X-3.6024 I-0.0591 J0. F78.74
N11605 X-3.4843 I0.0591 J0.
N11610 X-3.5039 Y-3.5236 I-0.0197 J0.
N11615 G1 Y-3.5433
N11620 G19 G2 Y-3.563 Z-0.063 J0. K0.0197
N11625 G1 Z0.1969
N11630 Y-2.7362
N11635 Z-0.063 F13.123
N11640 G2 Y-2.7559 Z-0.0827 J-0.0197 K0. F39.37
N11645 G1 Y-2.7756
N11650 G17 G3 X-3.4843 Y-2.7559 I0. J0.0197
N11655 X-3.6024 I-0.0591 J0. F78.74
N11660 X-3.4843 I0.0591 J0.
N11665 X-3.5039 Y-2.7362 I-0.0197 J0.
N11670 G1 Y-2.7559
N11675 G19 G2 Y-2.7756 Z-0.063 J0. K0.0197
N11680 G1 Z0.1969
N11685 Y-1.9488
N11690 Z-0.063 F13.123
N11695 G2 Y-1.9685 Z-0.0827 J-0.0197 K0. F39.37
N11700 G1 Y-1.9882
N11705 G17 G3 X-3.4843 Y-1.9685 I0. J0.0197
N11710 X-3.6024 I-0.0591 J0. F78.74
N11715 X-3.4843 I0.0591 J0.
N11720 X-3.5039 Y-1.9488 I-0.0197 J0.
N11725 G1 Y-1.9685
N11730 G19 G2 Y-1.9882 Z-0.063 J0. K0.0197
N11735 G1 Z0.1969
N11740 Y-1.1614
N11745 Z-0.063 F13.123
N11750 G2 Y-1.1811 Z-0.0827 J-0.0197 K0. F39.37
N11755 G1 Y-1.2008
N11760 G17 G3 X-3.4843 Y-1.1811 I0. J0.0197
N11765 X-3.6024 I-0.0591 J0. F78.74
N11770 X-3.4843 I0.0591 J0.
N11775 X-3.5039 Y-1.1614 I-0.0197 J0.
N11780 G1 Y-1.1811
N11785 G19 G2 Y-1.2008 Z-0.063 J0. K0.0197
N11790 G1 Z0.1969
N11795 X-2.7165 Y-1.1614
N11800 Z-0.063 F13.123
N11805 G2 Y-1.1811 Z-0.0827 J-0.0197 K0. F39.37
N11810 G1 Y-1.2008
N11815 G17 G3 X-2.6969 Y-1.1811 I0. J0.0197
N11820 X-2.815 I-0.0591 J0. F78.74
N11825 X-2.6969 I0.0591 J0.
N11830 X-2.7165 Y-1.1614 I-0.0197 J0.
N11835 G1 Y-1.1811
N11840 G19 G2 Y-1.2008 Z-0.063 J0. K0.0197
N11845 G1 Z0.1969
N11850 Y-0.374
N11855 Z-0.063 F13.123
N11860 G2 Y-0.3937 Z-0.0827 J-0.0197 K0. F39.37
N11865 G1 Y-0.4134
N11870 G17 G3 X-2.6969 Y-0.3937 I0. J0.0197
N11875 X-2.815 I-0.0591 J0. F78.74
N11880 X-2.6969 I0.0591 J0.
N11885 X-2.7165 Y-0.374 I-0.0197 J0.
N11890 G1 Y-0.3937
N11895 G19 G2 Y-0.4134 Z-0.063 J0. K0.0197
N11900 G1 Z0.1969
N11905 Y0.4134
N11910 Z-0.063 F13.123
N11915 G2 Y0.3937 Z-0.0827 J-0.0197 K0. F39.37
N11920 G1 Y0.374
N11925 G17 G3 X-2.6969 Y0.3937 I0. J0.0197
N11930 X-2.815 I-0.0591 J0. F78.74
N11935 X-2.6969 I0.0591 J0.
N11940 X-2.7165 Y0.4134 I-0.0197 J0.
N11945 G1 Y0.3937
N11950 G19 G2 Y0.374 Z-0.063 J0. K0.0197
N11955 G1 Z0.1969
N11960 Y1.2008
N11965 Z-0.063 F13.123
N11970 G2 Y1.1811 Z-0.0827 J-0.0197 K0. F39.37
N11975 G1 Y1.1614
N11980 G17 G3 X-2.6969 Y1.1811 I0. J0.0197
N11985 X-2.815 I-0.0591 J0. F78.74
N11990 X-2.6969 I0.0591 J0.
N11995 X-2.7165 Y1.2008 I-0.0197 J0.
N12000 G1 Y1.1811
N12005 G19 G2 Y1.1614 Z-0.063 J0. K0.0197
N12010 G1 Z0.1969
N12015 Y1.9882
N12020 Z-0.063 F13.123
N12025 G2 Y1.9685 Z-0.0827 J-0.0197 K0. F39.37
N12030 G1 Y1.9488
N12035 G17 G3 X-2.6969 Y1.9685 I0. J0.0197
N12040 X-2.815 I-0.0591 J0. F78.74
N12045 X-2.6969 I0.0591 J0.
N12050 X-2.7165 Y1.9882 I-0.0197 J0.
N12055 G1 Y1.9685
N12060 G19 G2 Y1.9488 Z-0.063 J0. K0.0197
N12065 G1 Z0.1969
N12070 Y2.7756
N12075 Z-0.063 F13.123
N12080 G2 Y2.7559 Z-0.0827 J-0.0197 K0. F39.37
N12085 G1 Y2.7362
N12090 G17 G3 X-2.6969 Y2.7559 I0. J0.0197
N12095 X-2.815 I-0.0591 J0. F78.74
N12100 X-2.6969 I0.0591 J0.
N12105 X-2.7165 Y2.7756 I-0.0197 J0.
N12110 G1 Y2.7559
N12115 G19 G2 Y2.7362 Z-0.063 J0. K0.0197
N12120 G1 Z0.1969
N12125 Y3.563
N12130 Z-0.063 F13.123
N12135 G2 Y3.5433 Z-0.0827 J-0.0197 K0. F39.37
N12140 G1 Y3.5236
N12145 G17 G3 X-2.6969 Y3.5433 I0. J0.0197
N12150 X-2.815 I-0.0591 J0. F78.74
N12155 X-2.6969 I0.0591 J0.
N12160 X-2.7165 Y3.563 I-0.0197 J0.
N12165 G1 Y3.5433
N12170 G19 G2 Y3.5236 Z-0.063 J0. K0.0197
N12175 G1 Z0.1969
N12180 Y4.3504
N12185 Z-0.063 F13.123
N12190 G2 Y4.3307 Z-0.0827 J-0.0197 K0. F39.37
N12195 G1 Y4.311
N12200 G17 G3 X-2.6969 Y4.3307 I0. J0.0197
N12205 X-2.815 I-0.0591 J0. F78.74
N12210 X-2.6969 I0.0591 J0.
N12215 X-2.7165 Y4.3504 I-0.0197 J0.
N12220 G1 Y4.3307
N12225 G19 G2 Y4.311 Z-0.063 J0. K0.0197
N12230 G1 Z0.1969
N12235 Y5.1378
N12240 Z-0.063 F13.123
N12245 G2 Y5.1181 Z-0.0827 J-0.0197 K0. F39.37
N12250 G1 Y5.0984
N12255 G17 G3 X-2.6969 Y5.1181 I0. J0.0197
N12260 X-2.815 I-0.0591 J0. F78.74
N12265 X-2.6969 I0.0591 J0.
N12270 X-2.7165 Y5.1378 I-0.0197 J0.
N12275 G1 Y5.1181
N12280 G19 G2 Y5.0984 Z-0.063 J0. K0.0197
N12285 G1 Z0.1969
N12290 X-3.5039 Y5.1378
N12295 Z-0.063 F13.123
N12300 G2 Y5.1181 Z-0.0827 J-0.0197 K0. F39.37
N12305 G1 Y5.0984
N12310 G17 G3 X-3.4843 Y5.1181 I0. J0.0197
N12315 X-3.6024 I-0.0591 J0. F78.74
N12320 X-3.4843 I0.0591 J0.
N12325 X-3.5039 Y5.1378 I-0.0197 J0.
N12330 G1 Y5.1181
N12335 G19 G2 Y5.0984 Z-0.063 J0. K0.0197
N12340 G1 Z0.1969
N12345 Y4.3504
N12350 Z-0.063 F13.123
N12355 G2 Y4.3307 Z-0.0827 J-0.0197 K0. F39.37
N12360 G1 Y4.311
N12365 G17 G3 X-3.4843 Y4.3307 I0. J0.0197
N12370 X-3.6024 I-0.0591 J0. F78.74
N12375 X-3.4843 I0.0591 J0.
N12380 X-3.5039 Y4.3504 I-0.0197 J0.
N12385 G1 Y4.3307
N12390 G19 G2 Y4.311 Z-0.063 J0. K0.0197
N12395 G1 Z0.1969
N12400 Y3.563
N12405 Z-0.063 F13.123
N12410 G2 Y3.5433 Z-0.0827 J-0.0197 K0. F39.37
N12415 G1 Y3.5236
N12420 G17 G3 X-3.4843 Y3.5433 I0. J0.0197
N12425 X-3.6024 I-0.0591 J0. F78.74
N12430 X-3.4843 I0.0591 J0.
N12435 X-3.5039 Y3.563 I-0.0197 J0.
N12440 G1 Y3.5433
N12445 G19 G2 Y3.5236 Z-0.063 J0. K0.0197
N12450 G1 Z0.1969
N12455 X-3.5095 Y2.7841
N12460 Z-0.063 F13.123
N12465 Y2.7838 Z-0.0664 F39.37
N12470 X-3.5093 Y2.783 Z-0.0697
N12475 X-3.5089 Y2.7816 Z-0.0728
N12480 X-3.5085 Y2.7797 Z-0.0756
N12485 X-3.5079 Y2.7773 Z-0.0781
N12490 X-3.5073 Y2.7746 Z-0.08
N12495 X-3.5066 Y2.7715 Z-0.0815
N12500 X-3.5058 Y2.7683 Z-0.0824
N12505 X-3.505 Y2.765 Z-0.0827
N12510 X-3.5005 Y2.7458
N12515 G17 G3 X-3.4858 Y2.7695 I-0.0045 J0.0192
N12520 X-3.6008 Y2.7423 I-0.0575 J-0.0136 F78.74
N12525 X-3.4858 Y2.7695 I0.0575 J0.0136
N12530 X-3.5095 Y2.7841 I-0.0192 J-0.0045
N12535 G1 X-3.505 Y2.765
N12540 X-3.5042 Y2.7617 Z-0.0824
N12545 X-3.5034 Y2.7584 Z-0.0815
N12550 X-3.5027 Y2.7554 Z-0.08
N12555 X-3.5021 Y2.7527 Z-0.0781
N12560 X-3.5015 Y2.7503 Z-0.0756
N12565 X-3.5011 Y2.7484 Z-0.0728
N12570 X-3.5007 Y2.747 Z-0.0697
N12575 X-3.5005 Y2.7461 Z-0.0664
N12580 Y2.7458 Z-0.063
N12585 Z0.1969
N12590 X-3.5039 Y1.9882
N12595 Z-0.063 F13.123
N12600 G19 G2 Y1.9685 Z-0.0827 J-0.0197 K0. F39.37
N12605 G1 Y1.9488
N12610 G17 G3 X-3.4843 Y1.9685 I0. J0.0197
N12615 X-3.6024 I-0.0591 J0. F78.74
N12620 X-3.4843 I0.0591 J0.
N12625 X-3.5039 Y1.9882 I-0.0197 J0.
N12630 G1 Y1.9685
N12635 G19 G2 Y1.9488 Z-0.063 J0. K0.0197
N12640 G1 Z0.1969
N12645 Y1.2008
N12650 Z-0.063 F13.123
N12655 G2 Y1.1811 Z-0.0827 J-0.0197 K0. F39.37
N12660 G1 Y1.1614
N12665 G17 G3 X-3.4843 Y1.1811 I0. J0.0197
N12670 X-3.6024 I-0.0591 J0. F78.74
N12675 X-3.4843 I0.0591 J0.
N12680 X-3.5039 Y1.2008 I-0.0197 J0.
N12685 G1 Y1.1811
N12690 G19 G2 Y1.1614 Z-0.063 J0. K0.0197
N12695 G1 Z0.1969
N12700 Y0.4134
N12705 Z-0.063 F13.123
N12710 G2 Y0.3937 Z-0.0827 J-0.0197 K0. F39.37
N12715 G1 Y0.374
N12720 G17 G3 X-3.4843 Y0.3937 I0. J0.0197
N12725 X-3.6024 I-0.0591 J0. F78.74
N12730 X-3.4843 I0.0591 J0.
N12735 X-3.5039 Y0.4134 I-0.0197 J0.
N12740 G1 Y0.3937
N12745 G19 G2 Y0.374 Z-0.063 J0. K0.0197
N12750 G1 Z0.1969
N12755 Y-0.374
N12760 Z-0.063 F13.123
N12765 G2 Y-0.3937 Z-0.0827 J-0.0197 K0. F39.37
N12770 G1 Y-0.4134
N12775 G17 G3 X-3.4843 Y-0.3937 I0. J0.0197
N12780 X-3.6024 I-0.0591 J0. F78.74
N12785 X-3.4843 I0.0591 J0.
N12790 X-3.5039 Y-0.374 I-0.0197 J0.
N12795 G1 Y-0.3937
N12800 G19 G2 Y-0.4134 Z-0.063 J0. K0.0197
N12805 G1 Z0.1969
N12810 X-4.2913 Y-0.374
N12815 Z-0.063 F13.123
N12820 G2 Y-0.3937 Z-0.0827 J-0.0197 K0. F39.37
N12825 G1 Y-0.4134
N12830 G17 G3 X-4.2717 Y-0.3937 I0. J0.0197
N12835 X-4.3898 I-0.0591 J0. F78.74
N12840 X-4.2717 I0.0591 J0.
N12845 X-4.2913 Y-0.374 I-0.0197 J0.
N12850 G1 Y-0.3937
N12855 G19 G2 Y-0.4134 Z-0.063 J0. K0.0197
N12860 G1 Z0.1969
N12865 Y-1.1614
N12870 Z-0.063 F13.123
N12875 G2 Y-1.1811 Z-0.0827 J-0.0197 K0. F39.37
N12880 G1 Y-1.2008
N12885 G17 G3 X-4.2717 Y-1.1811 I0. J0.0197
N12890 X-4.3898 I-0.0591 J0. F78.74
N12895 X-4.2717 I0.0591 J0.
N12900 X-4.2913 Y-1.1614 I-0.0197 J0.
N12905 G1 Y-1.1811
N12910 G19 G2 Y-1.2008 Z-0.063 J0. K0.0197
N12915 G1 Z0.1969
N12920 Y-1.9488
N12925 Z-0.063 F13.123
N12930 G2 Y-1.9685 Z-0.0827 J-0.0197 K0. F39.37
N12935 G1 Y-1.9882
N12940 G17 G3 X-4.2717 Y-1.9685 I0. J0.0197
N12945 X-4.3898 I-0.0591 J0. F78.74
N12950 X-4.2717 I0.0591 J0.
N12955 X-4.2913 Y-1.9488 I-0.0197 J0.
N12960 G1 Y-1.9685
N12965 G19 G2 Y-1.9882 Z-0.063 J0. K0.0197
N12970 G1 Z0.1969
N12975 Y-2.7362
N12980 Z-0.063 F13.123
N12985 G2 Y-2.7559 Z-0.0827 J-0.0197 K0. F39.37
N12990 G1 Y-2.7756
N12995 G17 G3 X-4.2717 Y-2.7559 I0. J0.0197
N13000 X-4.3898 I-0.0591 J0. F78.74
N13005 X-4.2717 I0.0591 J0.
N13010 X-4.2913 Y-2.7362 I-0.0197 J0.
N13015 G1 Y-2.7559
N13020 G19 G2 Y-2.7756 Z-0.063 J0. K0.0197
N13025 G1 Z0.1969
N13030 Y-3.5236
N13035 Z-0.063 F13.123
N13040 G2 Y-3.5433 Z-0.0827 J-0.0197 K0. F39.37
N13045 G1 Y-3.563
N13050 G17 G3 X-4.2717 Y-3.5433 I0. J0.0197
N13055 X-4.3898 I-0.0591 J0. F78.74
N13060 X-4.2717 I0.0591 J0.
N13065 X-4.2913 Y-3.5236 I-0.0197 J0.
N13070 G1 Y-3.5433
N13075 G19 G2 Y-3.563 Z-0.063 J0. K0.0197
N13080 G1 Z0.1969
N13085 X-4.2969 Y-4.3025
N13090 Z-0.063 F13.123
N13095 Y-4.3028 Z-0.0664 F39.37
N13100 X-4.2967 Y-4.3036 Z-0.0697
N13105 X-4.2963 Y-4.305 Z-0.0728
N13110 X-4.2959 Y-4.307 Z-0.0756
N13115 X-4.2953 Y-4.3093 Z-0.0781
N13120 X-4.2947 Y-4.3121 Z-0.08
N13125 X-4.294 Y-4.3151 Z-0.0815
N13130 X-4.2932 Y-4.3183 Z-0.0824
N13135 X-4.2924 Y-4.3216 Z-0.0827
N13140 X-4.2879 Y-4.3408
N13145 G17 G3 X-4.2732 Y-4.3171 I-0.0045 J0.0192
N13150 X-4.3882 Y-4.3443 I-0.0575 J-0.0136 F78.74
N13155 X-4.2732 Y-4.3171 I0.0575 J0.0136
N13160 X-4.2969 Y-4.3025 I-0.0192 J-0.0045
N13165 G1 X-4.2924 Y-4.3216
N13170 X-4.2916 Y-4.325 Z-0.0824
N13175 X-4.2908 Y-4.3282 Z-0.0815
N13180 X-4.2901 Y-4.3312 Z-0.08
N13185 X-4.2895 Y-4.3339 Z-0.0781
N13190 X-4.2889 Y-4.3363 Z-0.0756
N13195 X-4.2885 Y-4.3382 Z-0.0728
N13200 X-4.2881 Y-4.3396 Z-0.0697
N13205 X-4.2879 Y-4.3405 Z-0.0664
N13210 Y-4.3408 Z-0.063
N13215 Z0.1969
N13220 X-4.2913 Y-5.0984
N13225 Z-0.063 F13.123
N13230 G19 G2 Y-5.1181 Z-0.0827 J-0.0197 K0. F39.37
N13235 G1 Y-5.1378
N13240 G17 G3 X-4.2717 Y-5.1181 I0. J0.0197
N13245 X-4.3898 I-0.0591 J0. F78.74
N13250 X-4.2717 I0.0591 J0.
N13255 X-4.2913 Y-5.0984 I-0.0197 J0.
N13260 G1 Y-5.1181
N13265 G19 G2 Y-5.1378 Z-0.063 J0. K0.0197
N13270 G1 Z0.1969
N13275 X-4.9606 Y-5.0984
N13280 Z-0.063 F13.123
N13285 G2 Y-5.1181 Z-0.0827 J-0.0197 K0. F39.37
N13290 G1 Y-5.1378
N13295 G17 G3 X-4.9409 Y-5.1181 I0. J0.0197
N13300 X-5.2953 I-0.1772 J0. F78.74
N13305 X-4.9409 I0.1772 J0.
N13310 X-4.9606 Y-5.0984 I-0.0197 J0.
N13315 G1 Y-5.1181
N13320 G19 G2 Y-5.1378 Z-0.063 J0. K0.0197
N13325 G1 Z0.1969
N13330 X-5.0787 Y-4.311
N13335 Z-0.063 F13.123
N13340 G2 Y-4.3307 Z-0.0827 J-0.0197 K0. F39.37
N13345 G1 Y-4.3504
N13350 G17 G3 X-5.0591 Y-4.3307 I0. J0.0197
N13355 X-5.1772 I-0.0591 J0. F78.74
N13360 X-5.0591 I0.0591 J0.
N13365 X-5.0787 Y-4.311 I-0.0197 J0.
N13370 G1 Y-4.3307
N13375 G19 G2 Y-4.3504 Z-0.063 J0. K0.0197
N13380 G1 Z0.1969
N13385 X-5.0843 Y-3.5151
N13390 Z-0.063 F13.123
N13395 Y-3.5154 Z-0.0664 F39.37
N13400 X-5.0841 Y-3.5162 Z-0.0697
N13405 X-5.0837 Y-3.5176 Z-0.0728
N13410 X-5.0833 Y-3.5196 Z-0.0756
N13415 X-5.0827 Y-3.5219 Z-0.0781
N13420 X-5.0821 Y-3.5247 Z-0.08
N13425 X-5.0814 Y-3.5277 Z-0.0815
N13430 X-5.0806 Y-3.5309 Z-0.0824
N13435 X-5.0798 Y-3.5342 Z-0.0827
N13440 X-5.0753 Y-3.5534
N13445 G17 G3 X-5.0606 Y-3.5297 I-0.0045 J0.0192
N13450 X-5.1756 Y-3.5569 I-0.0575 J-0.0136 F78.74
N13455 X-5.0606 Y-3.5297 I0.0575 J0.0136
N13460 X-5.0843 Y-3.5151 I-0.0192 J-0.0045
N13465 G1 X-5.0798 Y-3.5342
N13470 X-5.079 Y-3.5376 Z-0.0824
N13475 X-5.0782 Y-3.5408 Z-0.0815
N13480 X-5.0775 Y-3.5438 Z-0.08
N13485 X-5.0769 Y-3.5465 Z-0.0781
N13490 X-5.0763 Y-3.5489 Z-0.0756
N13495 X-5.0759 Y-3.5508 Z-0.0728
N13500 X-5.0755 Y-3.5522 Z-0.0697
N13505 X-5.0753 Y-3.5531 Z-0.0664
N13510 Y-3.5534 Z-0.063
N13515 Z0.1969
N13520 X-5.0843 Y-2.7277
N13525 Z-0.063 F13.123
N13530 Y-2.728 Z-0.0664 F39.37
N13535 X-5.0841 Y-2.7288 Z-0.0697
N13540 X-5.0837 Y-2.7302 Z-0.0728
N13545 X-5.0833 Y-2.7322 Z-0.0756
N13550 X-5.0827 Y-2.7345 Z-0.0781
N13555 X-5.0821 Y-2.7372 Z-0.08
N13560 X-5.0814 Y-2.7403 Z-0.0815
N13565 X-5.0806 Y-2.7435 Z-0.0824
N13570 X-5.0798 Y-2.7468 Z-0.0827
N13575 X-5.0753 Y-2.766
N13580 G3 X-5.0606 Y-2.7423 I-0.0045 J0.0192
N13585 X-5.1756 Y-2.7695 I-0.0575 J-0.0136 F78.74
N13590 X-5.0606 Y-2.7423 I0.0575 J0.0136
N13595 X-5.0843 Y-2.7277 I-0.0192 J-0.0045
N13600 G1 X-5.0798 Y-2.7468
N13605 X-5.079 Y-2.7502 Z-0.0824
N13610 X-5.0782 Y-2.7534 Z-0.0815
N13615 X-5.0775 Y-2.7564 Z-0.08
N13620 X-5.0769 Y-2.7591 Z-0.0781
N13625 X-5.0763 Y-2.7615 Z-0.0756
N13630 X-5.0759 Y-2.7634 Z-0.0728
N13635 X-5.0755 Y-2.7648 Z-0.0697
N13640 X-5.0753 Y-2.7657 Z-0.0664
N13645 Y-2.766 Z-0.063
N13650 Z0.1969
N13655 X-5.0787 Y-1.9488
N13660 Z-0.063 F13.123
N13665 G19 G2 Y-1.9685 Z-0.0827 J-0.0197 K0. F39.37
N13670 G1 Y-1.9882
N13675 G17 G3 X-5.0591 Y-1.9685 I0. J0.0197
N13680 X-5.1772 I-0.0591 J0. F78.74
N13685 X-5.0591 I0.0591 J0.
N13690 X-5.0787 Y-1.9488 I-0.0197 J0.
N13695 G1 Y-1.9685
N13700 G19 G2 Y-1.9882 Z-0.063 J0. K0.0197
N13705 G1 Z0.1969
N13710 Y-1.1614
N13715 Z-0.063 F13.123
N13720 G2 Y-1.1811 Z-0.0827 J-0.0197 K0. F39.37
N13725 G1 Y-1.2008
N13730 G17 G3 X-5.0591 Y-1.1811 I0. J0.0197
N13735 X-5.1772 I-0.0591 J0. F78.74
N13740 X-5.0591 I0.0591 J0.
N13745 X-5.0787 Y-1.1614 I-0.0197 J0.
N13750 G1 Y-1.1811
N13755 G19 G2 Y-1.2008 Z-0.063 J0. K0.0197
N13760 G1 Z0.1969
N13765 X-5.0843 Y-0.3655
N13770 Z-0.063 F13.123
N13775 Y-0.3658 Z-0.0664 F39.37
N13780 X-5.0841 Y-0.3666 Z-0.0697
N13785 X-5.0837 Y-0.368 Z-0.0728
N13790 X-5.0833 Y-0.3699 Z-0.0756
N13795 X-5.0827 Y-0.3723 Z-0.0781
N13800 X-5.0821 Y-0.375 Z-0.08
N13805 X-5.0814 Y-0.3781 Z-0.0815
N13810 X-5.0806 Y-0.3813 Z-0.0824
N13815 X-5.0798 Y-0.3846 Z-0.0827
N13820 X-5.0753 Y-0.4038
N13825 G17 G3 X-5.0606 Y-0.3801 I-0.0045 J0.0192
N13830 X-5.1756 Y-0.4073 I-0.0575 J-0.0136 F78.74
N13835 X-5.0606 Y-0.3801 I0.0575 J0.0136
N13840 X-5.0843 Y-0.3655 I-0.0192 J-0.0045
N13845 G1 X-5.0798 Y-0.3846
N13850 X-5.079 Y-0.3879 Z-0.0824
N13855 X-5.0782 Y-0.3912 Z-0.0815
N13860 X-5.0775 Y-0.3942 Z-0.08
N13865 X-5.0769 Y-0.3969 Z-0.0781
N13870 X-5.0763 Y-0.3993 Z-0.0756
N13875 X-5.0759 Y-0.4012 Z-0.0728
N13880 X-5.0755 Y-0.4026 Z-0.0697
N13885 X-5.0753 Y-0.4035 Z-0.0664
N13890 Y-0.4038 Z-0.063
N13895 Z0.1969
N13900 X-4.9606 Y0.0197
N13905 Z-0.063 F13.123
N13910 G19 G2 Y0. Z-0.0827 J-0.0197 K0. F39.37
N13915 G1 Y-0.0197
N13920 G17 G3 X-4.9409 Y0. I0. J0.0197
N13925 X-5.2953 I-0.1772 J0. F78.74
N13930 X-4.9409 I0.1772 J0.
N13935 X-4.9606 Y0.0197 I-0.0197 J0.
N13940 G1 Y0.
N13945 G19 G2 Y-0.0197 Z-0.063 J0. K0.0197
N13950 G1 Z0.1969
N13955 X-5.0787 Y0.4134
N13960 Z-0.063 F13.123
N13965 G2 Y0.3937 Z-0.0827 J-0.0197 K0. F39.37
N13970 G1 Y0.374
N13975 G17 G3 X-5.0591 Y0.3937 I0. J0.0197
N13980 X-5.1772 I-0.0591 J0. F78.74
N13985 X-5.0591 I0.0591 J0.
N13990 X-5.0787 Y0.4134 I-0.0197 J0.
N13995 G1 Y0.3937
N14000 G19 G2 Y0.374 Z-0.063 J0. K0.0197
N14005 G1 Z0.1969
N14010 X-4.2913 Y0.4134
N14015 Z-0.063 F13.123
N14020 G2 Y0.3937 Z-0.0827 J-0.0197 K0. F39.37
N14025 G1 Y0.374
N14030 G17 G3 X-4.2717 Y0.3937 I0. J0.0197
N14035 X-4.3898 I-0.0591 J0. F78.74
N14040 X-4.2717 I0.0591 J0.
N14045 X-4.2913 Y0.4134 I-0.0197 J0.
N14050 G1 Y0.3937
N14055 G19 G2 Y0.374 Z-0.063 J0. K0.0197
N14060 G1 Z0.1969
N14065 Y1.2008
N14070 Z-0.063 F13.123
N14075 G2 Y1.1811 Z-0.0827 J-0.0197 K0. F39.37
N14080 G1 Y1.1614
N14085 G17 G3 X-4.2717 Y1.1811 I0. J0.0197
N14090 X-4.3898 I-0.0591 J0. F78.74
N14095 X-4.2717 I0.0591 J0.
N14100 X-4.2913 Y1.2008 I-0.0197 J0.
N14105 G1 Y1.1811
N14110 G19 G2 Y1.1614 Z-0.063 J0. K0.0197
N14115 G1 Z0.1969
N14120 X-4.2969 Y1.9967
N14125 Z-0.063 F13.123
N14130 Y1.9964 Z-0.0664 F39.37
N14135 X-4.2967 Y1.9956 Z-0.0697
N14140 X-4.2963 Y1.9942 Z-0.0728
N14145 X-4.2959 Y1.9923 Z-0.0756
N14150 X-4.2953 Y1.9899 Z-0.0781
N14155 X-4.2947 Y1.9872 Z-0.08
N14160 X-4.294 Y1.9841 Z-0.0815
N14165 X-4.2932 Y1.9809 Z-0.0824
N14170 X-4.2924 Y1.9776 Z-0.0827
N14175 X-4.2879 Y1.9584
N14180 G17 G3 X-4.2732 Y1.9821 I-0.0045 J0.0192
N14185 X-4.3882 Y1.9549 I-0.0575 J-0.0136 F78.74
N14190 X-4.2732 Y1.9821 I0.0575 J0.0136
N14195 X-4.2969 Y1.9967 I-0.0192 J-0.0045
N14200 G1 X-4.2924 Y1.9776
N14205 X-4.2916 Y1.9743 Z-0.0824
N14210 X-4.2908 Y1.971 Z-0.0815
N14215 X-4.2901 Y1.968 Z-0.08
N14220 X-4.2895 Y1.9653 Z-0.0781
N14225 X-4.2889 Y1.9629 Z-0.0756
N14230 X-4.2885 Y1.961 Z-0.0728
N14235 X-4.2881 Y1.9596 Z-0.0697
N14240 X-4.2879 Y1.9587 Z-0.0664
N14245 Y1.9584 Z-0.063
N14250 Z0.1969
N14255 X-4.2913 Y2.7756
N14260 Z-0.063 F13.123
N14265 G19 G2 Y2.7559 Z-0.0827 J-0.0197 K0. F39.37
N14270 G1 Y2.7362
N14275 G17 G3 X-4.2717 Y2.7559 I0. J0.0197
N14280 X-4.3898 I-0.0591 J0. F78.74
N14285 X-4.2717 I0.0591 J0.
N14290 X-4.2913 Y2.7756 I-0.0197 J0.
N14295 G1 Y2.7559
N14300 G19 G2 Y2.7362 Z-0.063 J0. K0.0197
N14305 G1 Z0.1969
N14310 Y3.563
N14315 Z-0.063 F13.123
N14320 G2 Y3.5433 Z-0.0827 J-0.0197 K0. F39.37
N14325 G1 Y3.5236
N14330 G17 G3 X-4.2717 Y3.5433 I0. J0.0197
N14335 X-4.3898 I-0.0591 J0. F78.74
N14340 X-4.2717 I0.0591 J0.
N14345 X-4.2913 Y3.563 I-0.0197 J0.
N14350 G1 Y3.5433
N14355 G19 G2 Y3.5236 Z-0.063 J0. K0.0197
N14360 G1 Z0.1969
N14365 Y4.3504
N14370 Z-0.063 F13.123
N14375 G2 Y4.3307 Z-0.0827 J-0.0197 K0. F39.37
N14380 G1 Y4.311
N14385 G17 G3 X-4.2717 Y4.3307 I0. J0.0197
N14390 X-4.3898 I-0.0591 J0. F78.74
N14395 X-4.2717 I0.0591 J0.
N14400 X-4.2913 Y4.3504 I-0.0197 J0.
N14405 G1 Y4.3307
N14410 G19 G2 Y4.311 Z-0.063 J0. K0.0197
N14415 G1 Z0.1969
N14420 Y5.1378
N14425 Z-0.063 F13.123
N14430 G2 Y5.1181 Z-0.0827 J-0.0197 K0. F39.37
N14435 G1 Y5.0984
N14440 G17 G3 X-4.2717 Y5.1181 I0. J0.0197
N14445 X-4.3898 I-0.0591 J0. F78.74
N14450 X-4.2717 I0.0591 J0.
N14455 X-4.2913 Y5.1378 I-0.0197 J0.
N14460 G1 Y5.1181
N14465 G19 G2 Y5.0984 Z-0.063 J0. K0.0197
N14470 G1 Z0.1969
N14475 X-4.9606 Y5.1378
N14480 Z-0.063 F13.123
N14485 G2 Y5.1181 Z-0.0827 J-0.0197 K0. F39.37
N14490 G1 Y5.0984
N14495 G17 G3 X-4.9409 Y5.1181 I0. J0.0197
N14500 X-5.2953 I-0.1772 J0. F78.74
N14505 X-4.9409 I0.1772 J0.
N14510 X-4.9606 Y5.1378 I-0.0197 J0.
N14515 G1 Y5.1181
N14520 G19 G2 Y5.0984 Z-0.063 J0. K0.0197
N14525 G1 Z0.1969
N14530 X-5.0843 Y4.3589
N14535 Z-0.063 F13.123
N14540 Y4.3587 Z-0.0664 F39.37
N14545 X-5.0841 Y4.3578 Z-0.0697
N14550 X-5.0837 Y4.3564 Z-0.0728
N14555 X-5.0833 Y4.3545 Z-0.0756
N14560 X-5.0827 Y4.3521 Z-0.0781
N14565 X-5.0821 Y4.3494 Z-0.08
N14570 X-5.0814 Y4.3463 Z-0.0815
N14575 X-5.0806 Y4.3431 Z-0.0824
N14580 X-5.0798 Y4.3398 Z-0.0827
N14585 X-5.0753 Y4.3206
N14590 G17 G3 X-5.0606 Y4.3443 I-0.0045 J0.0192
N14595 X-5.1756 Y4.3171 I-0.0575 J-0.0136 F78.74
N14600 X-5.0606 Y4.3443 I0.0575 J0.0136
N14605 X-5.0843 Y4.3589 I-0.0192 J-0.0045
N14610 G1 X-5.0798 Y4.3398
N14615 X-5.079 Y4.3365 Z-0.0824
N14620 X-5.0782 Y4.3332 Z-0.0815
N14625 X-5.0775 Y4.3302 Z-0.08
N14630 X-5.0769 Y4.3275 Z-0.0781
N14635 X-5.0763 Y4.3251 Z-0.0756
N14640 X-5.0759 Y4.3232 Z-0.0728
N14645 X-5.0755 Y4.3218 Z-0.0697
N14650 X-5.0753 Y4.3209 Z-0.0664
N14655 Y4.3206 Z-0.063
N14660 Z0.1969
N14665 X-5.0787 Y3.563
N14670 Z-0.063 F13.123
N14675 G19 G2 Y3.5433 Z-0.0827 J-0.0197 K0. F39.37
N14680 G1 Y3.5236
N14685 G17 G3 X-5.0591 Y3.5433 I0. J0.0197
N14690 X-5.1772 I-0.0591 J0. F78.74
N14695 X-5.0591 I0.0591 J0.
N14700 X-5.0787 Y3.563 I-0.0197 J0.
N14705 G1 Y3.5433
N14710 G19 G2 Y3.5236 Z-0.063 J0. K0.0197
N14715 G1 Z0.1969
N14720 Y2.7756
N14725 Z-0.063 F13.123
N14730 G2 Y2.7559 Z-0.0827 J-0.0197 K0. F39.37
N14735 G1 Y2.7362
N14740 G17 G3 X-5.0591 Y2.7559 I0. J0.0197
N14745 X-5.1772 I-0.0591 J0. F78.74
N14750 X-5.0591 I0.0591 J0.
N14755 X-5.0787 Y2.7756 I-0.0197 J0.
N14760 G1 Y2.7559
N14765 G19 G2 Y2.7362 Z-0.063 J0. K0.0197
N14770 G1 Z0.1969
N14775 Y1.9882
N14780 Z-0.063 F13.123
N14785 G2 Y1.9685 Z-0.0827 J-0.0197 K0. F39.37
N14790 G1 Y1.9488
N14795 G17 G3 X-5.0591 Y1.9685 I0. J0.0197
N14800 X-5.1772 I-0.0591 J0. F78.74
N14805 X-5.0591 I0.0591 J0.
N14810 X-5.0787 Y1.9882 I-0.0197 J0.
N14815 G1 Y1.9685
N14820 G19 G2 Y1.9488 Z-0.063 J0. K0.0197
N14825 G1 Z0.1969
N14830 Y1.2008
N14835 Z-0.063 F13.123
N14840 G2 Y1.1811 Z-0.0827 J-0.0197 K0. F39.37
N14845 G1 Y1.1614
N14850 G17 G3 X-5.0591 Y1.1811 I0. J0.0197
N14855 X-5.1772 I-0.0591 J0. F78.74
N14860 X-5.0591 I0.0591 J0.
N14865 X-5.0787 Y1.2008 I-0.0197 J0.
N14870 G1 Y1.1811
N14875 G19 G2 Y1.1614 Z-0.063 J0. K0.0197
N14880 G1 Z0.5906
N14885 G17
N14890 M5
N14895 G53 G0 Z0.
N14900 M30
%
