%
(BASE PLATE)
(MACHINE)
(  VENDOR PRINTNC)
(  MODEL PRINTNC V4 METALCUTTER)
(  DESCRIPTION GENERIC 3-AXIS ROUTER)
(T16 D=25. CR=2. - ZMIN=-1. - FACE MILL)
N10 G90 G94 G17 G91.1
N15 G21
(WHEN USING FUSION FOR PERSONAL USE, THE FEEDRATE OF RAPID)
(MOVES IS REDUCED TO MATCH THE FEEDRATE OF CUTTING MOVES,)
(WHICH CAN INCREASE MACHINING TIME. UNRESTRICTED RAPID MOVES)
(ARE AVAILABLE WITH A FUSION SUBSCRIPTION.)
N20 G53 G0 Z0.
(FACING)
N25 T16 M6
N30 S15365 M3
N35 G17 G90 G94
N40 G54
N45 G64 P0.01 Q0.01
N50 M7
N55 G0 X166.25 Y-147.961
N60 G43 Z15. H16
N65 G1 Z5. F5339.02
N70 Z1.5 F333.33
N75 G18 G3 X163.75 Z-1. I-2.5 K0. F5339.02
N80 G1 X162.51
N85 X-162.51
N90 G17 G2 Y-133.569 I0. J7.196
N95 G1 X162.51
N100 G3 Y-119.177 I0. J7.196
N105 G1 X-162.51
N110 G2 Y-104.785 I0. J7.196
N115 G1 X162.51
N120 G3 Y-90.393 I0. J7.196
N125 G1 X-162.51
N130 G2 Y-76.001 I0. J7.196
N135 G1 X162.51
N140 G3 Y-61.609 I0. J7.196
N145 G1 X-162.51
N150 G2 Y-47.217 I0. J7.196
N155 G1 X162.51
N160 G3 Y-32.825 I0. J7.196
N165 G1 X-162.51
N170 G2 Y-18.433 I0. J7.196
N175 G1 X162.51
N180 G3 Y-4.042 I0. J7.196
N185 G1 X-162.51
N190 G2 Y10.35 I0. J7.196
N195 G1 X162.51
N200 G3 Y24.742 I0. J7.196
N205 G1 X-162.51
N210 G2 Y39.134 I0. J7.196
N215 G1 X162.51
N220 G3 Y53.526 I0. J7.196
N225 G1 X-162.51
N230 G2 Y67.918 I0. J7.196
N235 G1 X162.51
N240 G3 Y82.31 I0. J7.196
N245 G1 X-162.51
N250 G2 Y96.702 I0. J7.196
N255 G1 X162.51
N260 G3 Y111.094 I0. J7.196
N265 G1 X-162.51
N270 G2 Y125.486 I0. J7.196
N275 G1 X162.51
N280 G3 Y139.878 I0. J7.196
N285 G1 X-162.51
N290 G18 G3 X-165.01 Z1.5 I0. K2.5
N295 G1 Z15.
N300 G17
N305 M9
N310 M5
N315 G53 G0 Z0.
N320 M30
%
