%
(TAPPING)
(MACHINE)
(  VENDOR PRINTNC)
(  MODEL PRINTNC V4 METALCUTTER)
(  DESCRIPTION GENERIC 3-AXIS ROUTER)
(T11 D=0.1575 CR=0. TAPER=45DEG - ZMIN=-0.0492 - CHAMFER MILL)
N10 G90 G94 G17 G91.1
N15 G20
(WHEN USING FUSION FOR PERSONAL USE, THE FEEDRATE OF RAPID)
(MOVES IS REDUCED TO MATCH THE FEEDRATE OF CUTTING MOVES,)
(WHICH CAN INCREASE MACHINING TIME. UNRESTRICTED RAPID MOVES)
(ARE AVAILABLE WITH A FUSION SUBSCRIPTION.)
N20 G53 G0 Z0.
(2D CHAMFER1)
N25 T11 M6
N30 S20000 M3
N35 G17 G90 G94
N40 G54
N45 G64 P0.0004 Q0.0004
N50 G0 X0.0669 Y-0.2041
N55 G43 Z0.5906 H11
N60 G1 Z0.1969 F47.244
N65 Z-0.0374 F7.874
N70 G19 G2 Y-0.2159 Z-0.0492 J-0.0118 K0. F31.496
N75 G1 Y-0.2316
N80 G17 G3 X0.0787 Y-0.2198 I0. J0.0118
N85 X-0.0787 I-0.0787 J0. F47.244
N90 X0.0787 I0.0787 J0.
N95 X0.0669 Y-0.208 I-0.0118 J0. F31.496
N100 G1 Y-0.2238
N105 G19 G2 Y-0.2356 Z-0.0374 J0. K0.0118
N110 G1 Z0.1969 F47.244
N115 Y-0.624
N120 Z-0.0374 F7.874
N125 G2 Y-0.6358 Z-0.0492 J-0.0118 K0. F31.496
N130 G1 Y-0.6516
N135 G17 G3 X0.0787 Y-0.6398 I0. J0.0118
N140 X-0.0787 I-0.0787 J0. F47.244
N145 X0.0787 I0.0787 J0.
N150 X0.0669 Y-0.628 I-0.0118 J0. F31.496
N155 G1 Y-0.6437
N160 G19 G2 Y-0.6555 Z-0.0374 J0. K0.0118
N165 G1 Z0.1969 F47.244
N170 X0.6931 Y-0.6126
N175 Z-0.0374 F7.874
N180 X0.6932 Y-0.6129 Z-0.04 F31.496
N185 X0.6933 Y-0.6138 Z-0.0425
N190 X0.6935 Y-0.6152 Z-0.0448
N195 X0.6939 Y-0.617 Z-0.0466
N200 X0.6943 Y-0.6192 Z-0.048
N205 X0.6947 Y-0.6217 Z-0.0489
N210 X0.6951 Y-0.6243 Z-0.0492
N215 X0.6979 Y-0.6398
N220 G17 G3 X0.7075 Y-0.6261 I-0.0021 J0.0116
N225 X0.5524 Y-0.6534 I-0.0775 J-0.0137 F47.244
N230 X0.7075 Y-0.6261 I0.0775 J0.0137
N235 X0.6938 Y-0.6165 I-0.0116 J-0.0021 F31.496
N240 G1 X0.6965 Y-0.632
N245 X0.697 Y-0.6346 Z-0.0489
N250 X0.6974 Y-0.6371 Z-0.048
N255 X0.6978 Y-0.6393 Z-0.0466
N260 X0.6981 Y-0.6411 Z-0.0448
N265 X0.6984 Y-0.6425 Z-0.0425
N270 X0.6985 Y-0.6434 Z-0.04
N275 X0.6986 Y-0.6437 Z-0.0374
N280 Z0.1969 F47.244
N285 X0.6969 Y-0.2041
N290 Z-0.0374 F7.874
N295 G19 G2 Y-0.2159 Z-0.0492 J-0.0118 K0. F31.496
N300 G1 Y-0.2316
N305 G17 G3 X0.7087 Y-0.2198 I0. J0.0118
N310 X0.5512 I-0.0787 J0. F47.244
N315 X0.7087 I0.0787 J0.
N320 X0.6969 Y-0.208 I-0.0118 J0. F31.496
N325 G1 Y-0.2238
N330 G19 G2 Y-0.2356 Z-0.0374 J0. K0.0118
N335 G1 Z0.1969 F47.244
N340 X0.6931 Y0.2273
N345 Z-0.0374 F7.874
N350 X0.6932 Y0.227 Z-0.04 F31.496
N355 X0.6933 Y0.2261 Z-0.0425
N360 X0.6935 Y0.2247 Z-0.0448
N365 X0.6939 Y0.2229 Z-0.0466
N370 X0.6943 Y0.2207 Z-0.048
N375 X0.6947 Y0.2182 Z-0.0489
N380 X0.6951 Y0.2156 Z-0.0492
N385 X0.6979 Y0.2001
N390 G17 G3 X0.7075 Y0.2138 I-0.0021 J0.0116
N395 X0.5524 Y0.1865 I-0.0775 J-0.0137 F47.244
N400 X0.7075 Y0.2138 I0.0775 J0.0137
N405 X0.6938 Y0.2234 I-0.0116 J-0.0021 F31.496
N410 G1 X0.6965 Y0.2079
N415 X0.697 Y0.2053 Z-0.0489
N420 X0.6974 Y0.2028 Z-0.048
N425 X0.6978 Y0.2006 Z-0.0466
N430 X0.6981 Y0.1988 Z-0.0448
N435 X0.6984 Y0.1974 Z-0.0425
N440 X0.6985 Y0.1965 Z-0.04
N445 X0.6986 Y0.1962 Z-0.0374
N450 Z0.1969 F47.244
N455 X0.6969 Y0.6358
N460 Z-0.0374 F7.874
N465 G19 G2 Y0.624 Z-0.0492 J-0.0118 K0. F31.496
N470 G1 Y0.6083
N475 G17 G3 X0.7087 Y0.6201 I0. J0.0118
N480 X0.5512 I-0.0787 J0. F47.244
N485 X0.7087 I0.0787 J0.
N490 X0.6969 Y0.6319 I-0.0118 J0. F31.496
N495 G1 Y0.6161
N500 G19 G2 Y0.6043 Z-0.0374 J0. K0.0118
N505 G1 Z0.1969 F47.244
N510 X1.3268 Y0.6358
N515 Z-0.0374 F7.874
N520 G2 Y0.624 Z-0.0492 J-0.0118 K0. F31.496
N525 G1 Y0.6083
N530 G17 G3 X1.3386 Y0.6201 I0. J0.0118
N535 X1.1811 I-0.0787 J0. F47.244
N540 X1.3386 I0.0787 J0.
N545 X1.3268 Y0.6319 I-0.0118 J0. F31.496
N550 G1 Y0.6161
N555 G19 G2 Y0.6043 Z-0.0374 J0. K0.0118
N560 G1 Z0.1969 F47.244
N565 Y0.2159
N570 Z-0.0374 F7.874
N575 G2 Y0.2041 Z-0.0492 J-0.0118 K0. F31.496
N580 G1 Y0.1883
N585 G17 G3 X1.3386 Y0.2001 I0. J0.0118
N590 X1.1811 I-0.0787 J0. F47.244
N595 X1.3386 I0.0787 J0.
N600 X1.3268 Y0.2119 I-0.0118 J0. F31.496
N605 G1 Y0.1962
N610 G19 G2 Y0.1844 Z-0.0374 J0. K0.0118
N615 G1 Z0.1969 F47.244
N620 Y-0.2041
N625 Z-0.0374 F7.874
N630 G2 Y-0.2159 Z-0.0492 J-0.0118 K0. F31.496
N635 G1 Y-0.2316
N640 G17 G3 X1.3386 Y-0.2198 I0. J0.0118
N645 X1.1811 I-0.0787 J0. F47.244
N650 X1.3386 I0.0787 J0.
N655 X1.3268 Y-0.208 I-0.0118 J0. F31.496
N660 G1 Y-0.2238
N665 G19 G2 Y-0.2356 Z-0.0374 J0. K0.0118
N670 G1 Z0.1969 F47.244
N675 X1.323 Y-0.6126
N680 Z-0.0374 F7.874
N685 X1.3231 Y-0.6129 Z-0.04 F31.496
N690 X1.3232 Y-0.6138 Z-0.0425
N695 X1.3235 Y-0.6152 Z-0.0448
N700 X1.3238 Y-0.617 Z-0.0466
N705 X1.3242 Y-0.6192 Z-0.048
N710 X1.3246 Y-0.6217 Z-0.0489
N715 X1.3251 Y-0.6243 Z-0.0492
N720 X1.3278 Y-0.6398
N725 G17 G3 X1.3374 Y-0.6261 I-0.0021 J0.0116
N730 X1.1823 Y-0.6534 I-0.0775 J-0.0137 F47.244
N735 X1.3374 Y-0.6261 I0.0775 J0.0137
N740 X1.3237 Y-0.6165 I-0.0116 J-0.0021 F31.496
N745 G1 X1.3264 Y-0.632
N750 X1.3269 Y-0.6346 Z-0.0489
N755 X1.3273 Y-0.6371 Z-0.048
N760 X1.3277 Y-0.6393 Z-0.0466
N765 X1.328 Y-0.6411 Z-0.0448
N770 X1.3283 Y-0.6425 Z-0.0425
N775 X1.3284 Y-0.6434 Z-0.04
N780 X1.3285 Y-0.6437 Z-0.0374
N785 Z0.1969 F47.244
N790 X0.0632 Y0.2273
N795 Z-0.0374 F7.874
N800 Y0.227 Z-0.04 F31.496
N805 X0.0634 Y0.2261 Z-0.0425
N810 X0.0636 Y0.2247 Z-0.0448
N815 X0.0639 Y0.2229 Z-0.0466
N820 X0.0643 Y0.2207 Z-0.048
N825 X0.0648 Y0.2182 Z-0.0489
N830 X0.0652 Y0.2156 Z-0.0492
N835 X0.068 Y0.2001
N840 G3 X0.0775 Y0.2138 I-0.0021 J0.0116
N845 X-0.0775 Y0.1865 I-0.0775 J-0.0137 F47.244
N850 X0.0775 Y0.2138 I0.0775 J0.0137
N855 X0.0639 Y0.2234 I-0.0116 J-0.0021 F31.496
N860 G1 X0.0666 Y0.2079
N865 X0.0671 Y0.2053 Z-0.0489
N870 X0.0675 Y0.2028 Z-0.048
N875 X0.0679 Y0.2006 Z-0.0466
N880 X0.0682 Y0.1988 Z-0.0448
N885 X0.0684 Y0.1974 Z-0.0425
N890 X0.0686 Y0.1965 Z-0.04
N895 Y0.1962 Z-0.0374
N900 Z0.1969 F47.244
N905 X0.0669 Y0.6358
N910 Z-0.0374 F7.874
N915 G19 G2 Y0.624 Z-0.0492 J-0.0118 K0. F31.496
N920 G1 Y0.6083
N925 G17 G3 X0.0787 Y0.6201 I0. J0.0118
N930 X-0.0787 I-0.0787 J0. F47.244
N935 X0.0787 I0.0787 J0.
N940 X0.0669 Y0.6319 I-0.0118 J0. F31.496
N945 G1 Y0.6161
N950 G19 G2 Y0.6043 Z-0.0374 J0. K0.0118
N955 G1 Z0.1969 F47.244
N960 X-0.563 Y0.6358
N965 Z-0.0374 F7.874
N970 G2 Y0.624 Z-0.0492 J-0.0118 K0. F31.496
N975 G1 Y0.6083
N980 G17 G3 X-0.5512 Y0.6201 I0. J0.0118
N985 X-0.7087 I-0.0787 J0. F47.244
N990 X-0.5512 I0.0787 J0.
N995 X-0.563 Y0.6319 I-0.0118 J0. F31.496
N1000 G1 Y0.6161
N1005 G19 G2 Y0.6043 Z-0.0374 J0. K0.0118
N1010 G1 Z0.1969 F47.244
N1015 Y0.2159
N1020 Z-0.0374 F7.874
N1025 G2 Y0.2041 Z-0.0492 J-0.0118 K0. F31.496
N1030 G1 Y0.1883
N1035 G17 G3 X-0.5512 Y0.2001 I0. J0.0118
N1040 X-0.7087 I-0.0787 J0. F47.244
N1045 X-0.5512 I0.0787 J0.
N1050 X-0.563 Y0.2119 I-0.0118 J0. F31.496
N1055 G1 Y0.1962
N1060 G19 G2 Y0.1844 Z-0.0374 J0. K0.0118
N1065 G1 Z0.1969 F47.244
N1070 Y-0.2041
N1075 Z-0.0374 F7.874
N1080 G2 Y-0.2159 Z-0.0492 J-0.0118 K0. F31.496
N1085 G1 Y-0.2316
N1090 G17 G3 X-0.5512 Y-0.2198 I0. J0.0118
N1095 X-0.7087 I-0.0787 J0. F47.244
N1100 X-0.5512 I0.0787 J0.
N1105 X-0.563 Y-0.208 I-0.0118 J0. F31.496
N1110 G1 Y-0.2238
N1115 G19 G2 Y-0.2356 Z-0.0374 J0. K0.0118
N1120 G1 Z0.1969 F47.244
N1125 Y-0.624
N1130 Z-0.0374 F7.874
N1135 G2 Y-0.6358 Z-0.0492 J-0.0118 K0. F31.496
N1140 G1 Y-0.6516
N1145 G17 G3 X-0.5512 Y-0.6398 I0. J0.0118
N1150 X-0.7087 I-0.0787 J0. F47.244
N1155 X-0.5512 I0.0787 J0.
N1160 X-0.563 Y-0.628 I-0.0118 J0. F31.496
N1165 G1 Y-0.6437
N1170 G19 G2 Y-0.6555 Z-0.0374 J0. K0.0118
N1175 G1 Z0.1969 F47.244
N1180 X-1.1929 Y-0.624
N1185 Z-0.0374 F7.874
N1190 G2 Y-0.6358 Z-0.0492 J-0.0118 K0. F31.496
N1195 G1 Y-0.6516
N1200 G17 G3 X-1.1811 Y-0.6398 I0. J0.0118
N1205 X-1.3386 I-0.0787 J0. F47.244
N1210 X-1.1811 I0.0787 J0.
N1215 X-1.1929 Y-0.628 I-0.0118 J0. F31.496
N1220 G1 Y-0.6437
N1225 G19 G2 Y-0.6555 Z-0.0374 J0. K0.0118
N1230 G1 Z0.1969 F47.244
N1235 Y-0.2041
N1240 Z-0.0374 F7.874
N1245 G2 Y-0.2159 Z-0.0492 J-0.0118 K0. F31.496
N1250 G1 Y-0.2316
N1255 G17 G3 X-1.1811 Y-0.2198 I0. J0.0118
N1260 X-1.3386 I-0.0787 J0. F47.244
N1265 X-1.1811 I0.0787 J0.
N1270 X-1.1929 Y-0.208 I-0.0118 J0. F31.496
N1275 G1 Y-0.2238
N1280 G19 G2 Y-0.2356 Z-0.0374 J0. K0.0118
N1285 G1 Z0.1969 F47.244
N1290 Y0.2159
N1295 Z-0.0374 F7.874
N1300 G2 Y0.2041 Z-0.0492 J-0.0118 K0. F31.496
N1305 G1 Y0.1883
N1310 G17 G3 X-1.1811 Y0.2001 I0. J0.0118
N1315 X-1.3386 I-0.0787 J0. F47.244
N1320 X-1.1811 I0.0787 J0.
N1325 X-1.1929 Y0.2119 I-0.0118 J0. F31.496
N1330 G1 Y0.1962
N1335 G19 G2 Y0.1844 Z-0.0374 J0. K0.0118
N1340 G1 Z0.1969 F47.244
N1345 X-1.1967 Y0.6472
N1350 Z-0.0374 F7.874
N1355 X-1.1966 Y0.6469 Z-0.04 F31.496
N1360 X-1.1965 Y0.6461 Z-0.0425
N1365 X-1.1962 Y0.6447 Z-0.0448
N1370 X-1.1959 Y0.6428 Z-0.0466
N1375 X-1.1955 Y0.6406 Z-0.048
N1380 X-1.1951 Y0.6382 Z-0.0489
N1385 X-1.1946 Y0.6356 Z-0.0492
N1390 X-1.1919 Y0.6201
N1395 G17 G3 X-1.1823 Y0.6338 I-0.0021 J0.0116
N1400 X-1.3374 Y0.6064 I-0.0775 J-0.0137 F47.244
N1405 X-1.1823 Y0.6338 I0.0775 J0.0137
N1410 X-1.196 Y0.6433 I-0.0116 J-0.0021 F31.496
N1415 G1 X-1.1932 Y0.6278
N1420 X-1.1928 Y0.6252 Z-0.0489
N1425 X-1.1924 Y0.6228 Z-0.048
N1430 X-1.192 Y0.6206 Z-0.0466
N1435 X-1.1916 Y0.6187 Z-0.0448
N1440 X-1.1914 Y0.6173 Z-0.0425
N1445 X-1.1912 Y0.6165 Z-0.04
N1450 Y0.6162 Z-0.0374
N1455 Z0.5906 F47.244
N1460 M5
N1465 G53 G0 Z0.
N1470 M30
%
