%
(TAPPING)
(MACHINE)
(  VENDOR PRINTNC)
(  MODEL PRINTNC V4 METALCUTTER)
(  DESCRIPTION GENERIC 3-AXIS ROUTER)
(T14 D=0.189 CR=0. - ZMIN=-0.4774 - THREAD MILL)
N10 G90 G94 G17 G91.1
N15 G20
(WHEN USING FUSION FOR PERSONAL USE, THE FEEDRATE OF RAPID)
(MOVES IS REDUCED TO MATCH THE FEEDRATE OF CUTTING MOVES,)
(WHICH CAN INCREASE MACHINING TIME. UNRESTRICTED RAPID MOVES)
(ARE AVAILABLE WITH A FUSION SUBSCRIPTION.)
N20 G53 G0 Z0.
(THREAD 5)
N25 T14 M6
N30 S20000 M3
N35 G17 G90 G94
N40 G54
N45 G64 P0.002 Q0.002
N50 M7
N55 G0 X1.2598 Y-0.6398
N60 G43 Z0.5906 H14
N65 G1 Z-0.3986 F21.26
N70 Z-0.4774
N75 G41 X1.2667 Y-0.6467 D14
N80 X1.2685 Y-0.6464 Z-0.4765
N85 X1.2702 Y-0.6457 Z-0.4757
N90 X1.2716 Y-0.6446 Z-0.4749
N95 X1.2727 Y-0.6432 Z-0.4741
N100 X1.2734 Y-0.6415 Z-0.4733
N105 X1.2736 Y-0.6398 Z-0.4724
N110 G3 X1.2461 Z-0.4528 I-0.0138 J0.
N115 X1.2736 Z-0.4331 I0.0138 J0.
N120 X1.2461 Z-0.4134 I-0.0138 J0.
N125 X1.2736 Z-0.3937 I0.0138 J0.
N130 X1.2461 Z-0.374 I-0.0138 J0.
N135 X1.2736 Z-0.3543 I0.0138 J0.
N140 X1.2461 Z-0.3346 I-0.0138 J0.
N145 X1.2736 Z-0.315 I0.0138 J0.
N150 X1.2461 Z-0.2953 I-0.0138 J0.
N155 X1.2736 Z-0.2756 I0.0138 J0.
N160 X1.2461 Z-0.2559 I-0.0138 J0.
N165 X1.2736 Z-0.2362 I0.0138 J0.
N170 X1.2461 Z-0.2165 I-0.0138 J0.
N175 X1.2736 Z-0.1969 I0.0138 J0.
N180 X1.2461 Z-0.1772 I-0.0138 J0.
N185 X1.2736 Z-0.1575 I0.0138 J0.
N190 X1.2461 Z-0.1378 I-0.0138 J0.
N195 X1.2736 Z-0.1181 I0.0138 J0.
N200 X1.2461 Z-0.0984 I-0.0138 J0.
N205 X1.2736 Z-0.0787 I0.0138 J0.
N210 X1.2461 Z-0.0591 I-0.0138 J0.
N215 X1.2736 Z-0.0394 I0.0138 J0.
N220 X1.2461 Z-0.0197 I-0.0138 J0.
N225 X1.2736 Z0. I0.0138 J0.
N230 G1 X1.2734 Y-0.638 Z0.0008
N235 X1.2727 Y-0.6363 Z0.0016
N240 X1.2716 Y-0.6349 Z0.0025
N245 X1.2702 Y-0.6338 Z0.0033
N250 X1.2685 Y-0.6331 Z0.0041
N255 X1.2667 Y-0.6329 Z0.0049
N260 G40 X1.2598 Y-0.6398
N265 Z0.1969
N270 Z-0.3986
N275 Z-0.4774
N280 G41 X1.2707 Y-0.6506 D14
N285 G3 X1.2815 Y-0.6398 Z-0.4724 I0. J0.0108
N290 X1.2382 Z-0.4528 I-0.0217 J0.
N295 X1.2815 Z-0.4331 I0.0217 J0.
N300 X1.2382 Z-0.4134 I-0.0217 J0.
N305 X1.2815 Z-0.3937 I0.0217 J0.
N310 X1.2382 Z-0.374 I-0.0217 J0.
N315 X1.2815 Z-0.3543 I0.0217 J0.
N320 X1.2382 Z-0.3346 I-0.0217 J0.
N325 X1.2815 Z-0.315 I0.0217 J0.
N330 X1.2382 Z-0.2953 I-0.0217 J0.
N335 X1.2815 Z-0.2756 I0.0217 J0.
N340 X1.2382 Z-0.2559 I-0.0217 J0.
N345 X1.2815 Z-0.2362 I0.0217 J0.
N350 X1.2382 Z-0.2165 I-0.0217 J0.
N355 X1.2815 Z-0.1969 I0.0217 J0.
N360 X1.2382 Z-0.1772 I-0.0217 J0.
N365 X1.2815 Z-0.1575 I0.0217 J0.
N370 X1.2382 Z-0.1378 I-0.0217 J0.
N375 X1.2815 Z-0.1181 I0.0217 J0.
N380 X1.2382 Z-0.0984 I-0.0217 J0.
N385 X1.2815 Z-0.0787 I0.0217 J0.
N390 X1.2382 Z-0.0591 I-0.0217 J0.
N395 X1.2815 Z-0.0394 I0.0217 J0.
N400 X1.2382 Z-0.0197 I-0.0217 J0.
N405 X1.2815 Z0. I0.0217 J0.
N410 X1.2707 Y-0.6289 Z0.0049 I-0.0108 J0.
N415 G1 G40 X1.2598 Y-0.6398
N420 Z0.5906
N425 M9
N430 M5
N435 G53 G0 Z0.
N440 M30
%
