%
(TAPPING)
(MACHINE)
(  VENDOR PRINTNC)
(  MODEL PRINTNC V4 METALCUTTER)
(  DESCRIPTION GENERIC 3-AXIS ROUTER)
(T14 D=0.189 CR=0. - ZMIN=-0.4774 - THREAD MILL)
N10 G90 G94 G17 G91.1
N15 G20
(WHEN USING FUSION FOR PERSONAL USE, THE FEEDRATE OF RAPID)
(MOVES IS REDUCED TO MATCH THE FEEDRATE OF CUTTING MOVES,)
(WHICH CAN INCREASE MACHINING TIME. UNRESTRICTED RAPID MOVES)
(ARE AVAILABLE WITH A FUSION SUBSCRIPTION.)
N20 G53 G0 Z0.
(THREAD2)
N25 T14 M6
N30 S18000 M3
N35 G17 G90 G94
N40 G54
N45 G64 P0.002 Q0.002
N50 M7
N55 G0 X-1.2598 Y-0.6398
N60 G43 Z0.5906 H14
N65 G1 Z-0.3986 F21.26
N70 Z-0.4774
N75 X-1.253 Y-0.6467
N80 X-1.2512 Y-0.6464 Z-0.4765
N85 X-1.2495 Y-0.6457 Z-0.4757
N90 X-1.2481 Y-0.6446 Z-0.4749
N95 X-1.247 Y-0.6432 Z-0.4741
N100 X-1.2463 Y-0.6415 Z-0.4733
N105 X-1.2461 Y-0.6398 Z-0.4724
N110 G3 X-1.2736 Z-0.4528 I-0.0138 J0.
N115 X-1.2461 Z-0.4331 I0.0138 J0.
N120 X-1.2736 Z-0.4134 I-0.0138 J0.
N125 X-1.2461 Z-0.3937 I0.0138 J0.
N130 X-1.2736 Z-0.374 I-0.0138 J0.
N135 X-1.2461 Z-0.3543 I0.0138 J0.
N140 X-1.2736 Z-0.3346 I-0.0138 J0.
N145 X-1.2461 Z-0.315 I0.0138 J0.
N150 X-1.2736 Z-0.2953 I-0.0138 J0.
N155 X-1.2461 Z-0.2756 I0.0138 J0.
N160 X-1.2736 Z-0.2559 I-0.0138 J0.
N165 X-1.2461 Z-0.2362 I0.0138 J0.
N170 X-1.2736 Z-0.2165 I-0.0138 J0.
N175 X-1.2461 Z-0.1969 I0.0138 J0.
N180 X-1.2736 Z-0.1772 I-0.0138 J0.
N185 X-1.2461 Z-0.1575 I0.0138 J0.
N190 X-1.2736 Z-0.1378 I-0.0138 J0.
N195 X-1.2461 Z-0.1181 I0.0138 J0.
N200 X-1.2736 Z-0.0984 I-0.0138 J0.
N205 X-1.2461 Z-0.0787 I0.0138 J0.
N210 X-1.2736 Z-0.0591 I-0.0138 J0.
N215 X-1.2461 Z-0.0394 I0.0138 J0.
N220 X-1.2736 Z-0.0197 I-0.0138 J0.
N225 X-1.2461 Z0. I0.0138 J0.
N230 G1 X-1.2463 Y-0.638 Z0.0008
N235 X-1.247 Y-0.6363 Z0.0016
N240 X-1.2481 Y-0.6349 Z0.0025
N245 X-1.2495 Y-0.6338 Z0.0033
N250 X-1.2512 Y-0.6331 Z0.0041
N255 X-1.253 Y-0.6329 Z0.0049
N260 X-1.2598 Y-0.6398
N265 Z0.1969
N270 Z-0.3986
N275 Z-0.4774
N280 X-1.249 Y-0.6506
N285 G3 X-1.2382 Y-0.6398 Z-0.4724 I0. J0.0108
N290 X-1.2815 Z-0.4528 I-0.0217 J0.
N295 X-1.2382 Z-0.4331 I0.0217 J0.
N300 X-1.2815 Z-0.4134 I-0.0217 J0.
N305 X-1.2382 Z-0.3937 I0.0217 J0.
N310 X-1.2815 Z-0.374 I-0.0217 J0.
N315 X-1.2382 Z-0.3543 I0.0217 J0.
N320 X-1.2815 Z-0.3346 I-0.0217 J0.
N325 X-1.2382 Z-0.315 I0.0217 J0.
N330 X-1.2815 Z-0.2953 I-0.0217 J0.
N335 X-1.2382 Z-0.2756 I0.0217 J0.
N340 X-1.2815 Z-0.2559 I-0.0217 J0.
N345 X-1.2382 Z-0.2362 I0.0217 J0.
N350 X-1.2815 Z-0.2165 I-0.0217 J0.
N355 X-1.2382 Z-0.1969 I0.0217 J0.
N360 X-1.2815 Z-0.1772 I-0.0217 J0.
N365 X-1.2382 Z-0.1575 I0.0217 J0.
N370 X-1.2815 Z-0.1378 I-0.0217 J0.
N375 X-1.2382 Z-0.1181 I0.0217 J0.
N380 X-1.2815 Z-0.0984 I-0.0217 J0.
N385 X-1.2382 Z-0.0787 I0.0217 J0.
N390 X-1.2815 Z-0.0591 I-0.0217 J0.
N395 X-1.2382 Z-0.0394 I0.0217 J0.
N400 X-1.2815 Z-0.0197 I-0.0217 J0.
N405 X-1.2382 Z0. I0.0217 J0.
N410 X-1.249 Y-0.6289 Z0.0049 I-0.0108 J0.
N415 G1 X-1.2598 Y-0.6398
N420 Z0.1969
N425 Y-0.2198
N430 Z-0.3986
N435 Z-0.4774
N440 X-1.253 Y-0.2267
N445 X-1.2512 Y-0.2265 Z-0.4765
N450 X-1.2495 Y-0.2258 Z-0.4757
N455 X-1.2481 Y-0.2247 Z-0.4749
N460 X-1.247 Y-0.2233 Z-0.4741
N465 X-1.2463 Y-0.2216 Z-0.4733
N470 X-1.2461 Y-0.2198 Z-0.4724
N475 G3 X-1.2736 Z-0.4528 I-0.0138 J0.
N480 X-1.2461 Z-0.4331 I0.0138 J0.
N485 X-1.2736 Z-0.4134 I-0.0138 J0.
N490 X-1.2461 Z-0.3937 I0.0138 J0.
N495 X-1.2736 Z-0.374 I-0.0138 J0.
N500 X-1.2461 Z-0.3543 I0.0138 J0.
N505 X-1.2736 Z-0.3346 I-0.0138 J0.
N510 X-1.2461 Z-0.315 I0.0138 J0.
N515 X-1.2736 Z-0.2953 I-0.0138 J0.
N520 X-1.2461 Z-0.2756 I0.0138 J0.
N525 X-1.2736 Z-0.2559 I-0.0138 J0.
N530 X-1.2461 Z-0.2362 I0.0138 J0.
N535 X-1.2736 Z-0.2165 I-0.0138 J0.
N540 X-1.2461 Z-0.1969 I0.0138 J0.
N545 X-1.2736 Z-0.1772 I-0.0138 J0.
N550 X-1.2461 Z-0.1575 I0.0138 J0.
N555 X-1.2736 Z-0.1378 I-0.0138 J0.
N560 X-1.2461 Z-0.1181 I0.0138 J0.
N565 X-1.2736 Z-0.0984 I-0.0138 J0.
N570 X-1.2461 Z-0.0787 I0.0138 J0.
N575 X-1.2736 Z-0.0591 I-0.0138 J0.
N580 X-1.2461 Z-0.0394 I0.0138 J0.
N585 X-1.2736 Z-0.0197 I-0.0138 J0.
N590 X-1.2461 Z0. I0.0138 J0.
N595 G1 X-1.2463 Y-0.218 Z0.0008
N600 X-1.247 Y-0.2164 Z0.0016
N605 X-1.2481 Y-0.2149 Z0.0025
N610 X-1.2495 Y-0.2138 Z0.0033
N615 X-1.2512 Y-0.2132 Z0.0041
N620 X-1.253 Y-0.2129 Z0.0049
N625 X-1.2598 Y-0.2198
N630 Z0.1969
N635 Z-0.3986
N640 Z-0.4774
N645 X-1.249 Y-0.2306
N650 G3 X-1.2382 Y-0.2198 Z-0.4724 I0. J0.0108
N655 X-1.2815 Z-0.4528 I-0.0217 J0.
N660 X-1.2382 Z-0.4331 I0.0217 J0.
N665 X-1.2815 Z-0.4134 I-0.0217 J0.
N670 X-1.2382 Z-0.3937 I0.0217 J0.
N675 X-1.2815 Z-0.374 I-0.0217 J0.
N680 X-1.2382 Z-0.3543 I0.0217 J0.
N685 X-1.2815 Z-0.3346 I-0.0217 J0.
N690 X-1.2382 Z-0.315 I0.0217 J0.
N695 X-1.2815 Z-0.2953 I-0.0217 J0.
N700 X-1.2382 Z-0.2756 I0.0217 J0.
N705 X-1.2815 Z-0.2559 I-0.0217 J0.
N710 X-1.2382 Z-0.2362 I0.0217 J0.
N715 X-1.2815 Z-0.2165 I-0.0217 J0.
N720 X-1.2382 Z-0.1969 I0.0217 J0.
N725 X-1.2815 Z-0.1772 I-0.0217 J0.
N730 X-1.2382 Z-0.1575 I0.0217 J0.
N735 X-1.2815 Z-0.1378 I-0.0217 J0.
N740 X-1.2382 Z-0.1181 I0.0217 J0.
N745 X-1.2815 Z-0.0984 I-0.0217 J0.
N750 X-1.2382 Z-0.0787 I0.0217 J0.
N755 X-1.2815 Z-0.0591 I-0.0217 J0.
N760 X-1.2382 Z-0.0394 I0.0217 J0.
N765 X-1.2815 Z-0.0197 I-0.0217 J0.
N770 X-1.2382 Z0. I0.0217 J0.
N775 X-1.249 Y-0.209 Z0.0049 I-0.0108 J0.
N780 G1 X-1.2598 Y-0.2198
N785 Z0.1969
N790 Y0.2001
N795 Z-0.3986
N800 Z-0.4774
N805 X-1.253 Y0.1932
N810 X-1.2512 Y0.1935 Z-0.4765
N815 X-1.2495 Y0.1942 Z-0.4757
N820 X-1.2481 Y0.1953 Z-0.4749
N825 X-1.247 Y0.1967 Z-0.4741
N830 X-1.2463 Y0.1983 Z-0.4733
N835 X-1.2461 Y0.2001 Z-0.4724
N840 G3 X-1.2736 Z-0.4528 I-0.0138 J0.
N845 X-1.2461 Z-0.4331 I0.0138 J0.
N850 X-1.2736 Z-0.4134 I-0.0138 J0.
N855 X-1.2461 Z-0.3937 I0.0138 J0.
N860 X-1.2736 Z-0.374 I-0.0138 J0.
N865 X-1.2461 Z-0.3543 I0.0138 J0.
N870 X-1.2736 Z-0.3346 I-0.0138 J0.
N875 X-1.2461 Z-0.315 I0.0138 J0.
N880 X-1.2736 Z-0.2953 I-0.0138 J0.
N885 X-1.2461 Z-0.2756 I0.0138 J0.
N890 X-1.2736 Z-0.2559 I-0.0138 J0.
N895 X-1.2461 Z-0.2362 I0.0138 J0.
N900 X-1.2736 Z-0.2165 I-0.0138 J0.
N905 X-1.2461 Z-0.1969 I0.0138 J0.
N910 X-1.2736 Z-0.1772 I-0.0138 J0.
N915 X-1.2461 Z-0.1575 I0.0138 J0.
N920 X-1.2736 Z-0.1378 I-0.0138 J0.
N925 X-1.2461 Z-0.1181 I0.0138 J0.
N930 X-1.2736 Z-0.0984 I-0.0138 J0.
N935 X-1.2461 Z-0.0787 I0.0138 J0.
N940 X-1.2736 Z-0.0591 I-0.0138 J0.
N945 X-1.2461 Z-0.0394 I0.0138 J0.
N950 X-1.2736 Z-0.0197 I-0.0138 J0.
N955 X-1.2461 Z0. I0.0138 J0.
N960 G1 X-1.2463 Y0.2019 Z0.0008
N965 X-1.247 Y0.2036 Z0.0016
N970 X-1.2481 Y0.205 Z0.0025
N975 X-1.2495 Y0.2061 Z0.0033
N980 X-1.2512 Y0.2068 Z0.0041
N985 X-1.253 Y0.207 Z0.0049
N990 X-1.2598 Y0.2001
N995 Z0.1969
N1000 Z-0.3986
N1005 Z-0.4774
N1010 X-1.249 Y0.1893
N1015 G3 X-1.2382 Y0.2001 Z-0.4724 I0. J0.0108
N1020 X-1.2815 Z-0.4528 I-0.0217 J0.
N1025 X-1.2382 Z-0.4331 I0.0217 J0.
N1030 X-1.2815 Z-0.4134 I-0.0217 J0.
N1035 X-1.2382 Z-0.3937 I0.0217 J0.
N1040 X-1.2815 Z-0.374 I-0.0217 J0.
N1045 X-1.2382 Z-0.3543 I0.0217 J0.
N1050 X-1.2815 Z-0.3346 I-0.0217 J0.
N1055 X-1.2382 Z-0.315 I0.0217 J0.
N1060 X-1.2815 Z-0.2953 I-0.0217 J0.
N1065 X-1.2382 Z-0.2756 I0.0217 J0.
N1070 X-1.2815 Z-0.2559 I-0.0217 J0.
N1075 X-1.2382 Z-0.2362 I0.0217 J0.
N1080 X-1.2815 Z-0.2165 I-0.0217 J0.
N1085 X-1.2382 Z-0.1969 I0.0217 J0.
N1090 X-1.2815 Z-0.1772 I-0.0217 J0.
N1095 X-1.2382 Z-0.1575 I0.0217 J0.
N1100 X-1.2815 Z-0.1378 I-0.0217 J0.
N1105 X-1.2382 Z-0.1181 I0.0217 J0.
N1110 X-1.2815 Z-0.0984 I-0.0217 J0.
N1115 X-1.2382 Z-0.0787 I0.0217 J0.
N1120 X-1.2815 Z-0.0591 I-0.0217 J0.
N1125 X-1.2382 Z-0.0394 I0.0217 J0.
N1130 X-1.2815 Z-0.0197 I-0.0217 J0.
N1135 X-1.2382 Z0. I0.0217 J0.
N1140 X-1.249 Y0.211 Z0.0049 I-0.0108 J0.
N1145 G1 X-1.2598 Y0.2001
N1150 Z0.1969
N1155 Y0.6201
N1160 Z-0.3986
N1165 Z-0.4774
N1170 X-1.253 Y0.6132
N1175 X-1.2512 Y0.6134 Z-0.4765
N1180 X-1.2495 Y0.6141 Z-0.4757
N1185 X-1.2481 Y0.6152 Z-0.4749
N1190 X-1.247 Y0.6166 Z-0.4741
N1195 X-1.2463 Y0.6183 Z-0.4733
N1200 X-1.2461 Y0.6201 Z-0.4724
N1205 G3 X-1.2736 Z-0.4528 I-0.0138 J0.
N1210 X-1.2461 Z-0.4331 I0.0138 J0.
N1215 X-1.2736 Z-0.4134 I-0.0138 J0.
N1220 X-1.2461 Z-0.3937 I0.0138 J0.
N1225 X-1.2736 Z-0.374 I-0.0138 J0.
N1230 X-1.2461 Z-0.3543 I0.0138 J0.
N1235 X-1.2736 Z-0.3346 I-0.0138 J0.
N1240 X-1.2461 Z-0.315 I0.0138 J0.
N1245 X-1.2736 Z-0.2953 I-0.0138 J0.
N1250 X-1.2461 Z-0.2756 I0.0138 J0.
N1255 X-1.2736 Z-0.2559 I-0.0138 J0.
N1260 X-1.2461 Z-0.2362 I0.0138 J0.
N1265 X-1.2736 Z-0.2165 I-0.0138 J0.
N1270 X-1.2461 Z-0.1969 I0.0138 J0.
N1275 X-1.2736 Z-0.1772 I-0.0138 J0.
N1280 X-1.2461 Z-0.1575 I0.0138 J0.
N1285 X-1.2736 Z-0.1378 I-0.0138 J0.
N1290 X-1.2461 Z-0.1181 I0.0138 J0.
N1295 X-1.2736 Z-0.0984 I-0.0138 J0.
N1300 X-1.2461 Z-0.0787 I0.0138 J0.
N1305 X-1.2736 Z-0.0591 I-0.0138 J0.
N1310 X-1.2461 Z-0.0394 I0.0138 J0.
N1315 X-1.2736 Z-0.0197 I-0.0138 J0.
N1320 X-1.2461 Z0. I0.0138 J0.
N1325 G1 X-1.2463 Y0.6219 Z0.0008
N1330 X-1.247 Y0.6235 Z0.0016
N1335 X-1.2481 Y0.625 Z0.0025
N1340 X-1.2495 Y0.626 Z0.0033
N1345 X-1.2512 Y0.6267 Z0.0041
N1350 X-1.253 Y0.627 Z0.0049
N1355 X-1.2598 Y0.6201
N1360 Z0.1969
N1365 Z-0.3986
N1370 Z-0.4774
N1375 X-1.249 Y0.6093
N1380 G3 X-1.2382 Y0.6201 Z-0.4724 I0. J0.0108
N1385 X-1.2815 Z-0.4528 I-0.0217 J0.
N1390 X-1.2382 Z-0.4331 I0.0217 J0.
N1395 X-1.2815 Z-0.4134 I-0.0217 J0.
N1400 X-1.2382 Z-0.3937 I0.0217 J0.
N1405 X-1.2815 Z-0.374 I-0.0217 J0.
N1410 X-1.2382 Z-0.3543 I0.0217 J0.
N1415 X-1.2815 Z-0.3346 I-0.0217 J0.
N1420 X-1.2382 Z-0.315 I0.0217 J0.
N1425 X-1.2815 Z-0.2953 I-0.0217 J0.
N1430 X-1.2382 Z-0.2756 I0.0217 J0.
N1435 X-1.2815 Z-0.2559 I-0.0217 J0.
N1440 X-1.2382 Z-0.2362 I0.0217 J0.
N1445 X-1.2815 Z-0.2165 I-0.0217 J0.
N1450 X-1.2382 Z-0.1969 I0.0217 J0.
N1455 X-1.2815 Z-0.1772 I-0.0217 J0.
N1460 X-1.2382 Z-0.1575 I0.0217 J0.
N1465 X-1.2815 Z-0.1378 I-0.0217 J0.
N1470 X-1.2382 Z-0.1181 I0.0217 J0.
N1475 X-1.2815 Z-0.0984 I-0.0217 J0.
N1480 X-1.2382 Z-0.0787 I0.0217 J0.
N1485 X-1.2815 Z-0.0591 I-0.0217 J0.
N1490 X-1.2382 Z-0.0394 I0.0217 J0.
N1495 X-1.2815 Z-0.0197 I-0.0217 J0.
N1500 X-1.2382 Z0. I0.0217 J0.
N1505 X-1.249 Y0.6309 Z0.0049 I-0.0108 J0.
N1510 G1 X-1.2598 Y0.6201
N1515 Z0.1969
N1520 X-0.6299
N1525 Z-0.3986
N1530 Z-0.4774
N1535 X-0.623 Y0.6132
N1540 X-0.6212 Y0.6134 Z-0.4765
N1545 X-0.6196 Y0.6141 Z-0.4757
N1550 X-0.6182 Y0.6152 Z-0.4749
N1555 X-0.6171 Y0.6166 Z-0.4741
N1560 X-0.6164 Y0.6183 Z-0.4733
N1565 X-0.6161 Y0.6201 Z-0.4724
N1570 G3 X-0.6437 Z-0.4528 I-0.0138 J0.
N1575 X-0.6161 Z-0.4331 I0.0138 J0.
N1580 X-0.6437 Z-0.4134 I-0.0138 J0.
N1585 X-0.6161 Z-0.3937 I0.0138 J0.
N1590 X-0.6437 Z-0.374 I-0.0138 J0.
N1595 X-0.6161 Z-0.3543 I0.0138 J0.
N1600 X-0.6437 Z-0.3346 I-0.0138 J0.
N1605 X-0.6161 Z-0.315 I0.0138 J0.
N1610 X-0.6437 Z-0.2953 I-0.0138 J0.
N1615 X-0.6161 Z-0.2756 I0.0138 J0.
N1620 X-0.6437 Z-0.2559 I-0.0138 J0.
N1625 X-0.6161 Z-0.2362 I0.0138 J0.
N1630 X-0.6437 Z-0.2165 I-0.0138 J0.
N1635 X-0.6161 Z-0.1969 I0.0138 J0.
N1640 X-0.6437 Z-0.1772 I-0.0138 J0.
N1645 X-0.6161 Z-0.1575 I0.0138 J0.
N1650 X-0.6437 Z-0.1378 I-0.0138 J0.
N1655 X-0.6161 Z-0.1181 I0.0138 J0.
N1660 X-0.6437 Z-0.0984 I-0.0138 J0.
N1665 X-0.6161 Z-0.0787 I0.0138 J0.
N1670 X-0.6437 Z-0.0591 I-0.0138 J0.
N1675 X-0.6161 Z-0.0394 I0.0138 J0.
N1680 X-0.6437 Z-0.0197 I-0.0138 J0.
N1685 X-0.6161 Z0. I0.0138 J0.
N1690 G1 X-0.6164 Y0.6219 Z0.0008
N1695 X-0.6171 Y0.6235 Z0.0016
N1700 X-0.6182 Y0.625 Z0.0025
N1705 X-0.6196 Y0.626 Z0.0033
N1710 X-0.6212 Y0.6267 Z0.0041
N1715 X-0.623 Y0.627 Z0.0049
N1720 X-0.6299 Y0.6201
N1725 Z0.1969
N1730 Z-0.3986
N1735 Z-0.4774
N1740 X-0.6191 Y0.6093
N1745 G3 X-0.6083 Y0.6201 Z-0.4724 I0. J0.0108
N1750 X-0.6516 Z-0.4528 I-0.0217 J0.
N1755 X-0.6083 Z-0.4331 I0.0217 J0.
N1760 X-0.6516 Z-0.4134 I-0.0217 J0.
N1765 X-0.6083 Z-0.3937 I0.0217 J0.
N1770 X-0.6516 Z-0.374 I-0.0217 J0.
N1775 X-0.6083 Z-0.3543 I0.0217 J0.
N1780 X-0.6516 Z-0.3346 I-0.0217 J0.
N1785 X-0.6083 Z-0.315 I0.0217 J0.
N1790 X-0.6516 Z-0.2953 I-0.0217 J0.
N1795 X-0.6083 Z-0.2756 I0.0217 J0.
N1800 X-0.6516 Z-0.2559 I-0.0217 J0.
N1805 X-0.6083 Z-0.2362 I0.0217 J0.
N1810 X-0.6516 Z-0.2165 I-0.0217 J0.
N1815 X-0.6083 Z-0.1969 I0.0217 J0.
N1820 X-0.6516 Z-0.1772 I-0.0217 J0.
N1825 X-0.6083 Z-0.1575 I0.0217 J0.
N1830 X-0.6516 Z-0.1378 I-0.0217 J0.
N1835 X-0.6083 Z-0.1181 I0.0217 J0.
N1840 X-0.6516 Z-0.0984 I-0.0217 J0.
N1845 X-0.6083 Z-0.0787 I0.0217 J0.
N1850 X-0.6516 Z-0.0591 I-0.0217 J0.
N1855 X-0.6083 Z-0.0394 I0.0217 J0.
N1860 X-0.6516 Z-0.0197 I-0.0217 J0.
N1865 X-0.6083 Z0. I0.0217 J0.
N1870 X-0.6191 Y0.6309 Z0.0049 I-0.0108 J0.
N1875 G1 X-0.6299 Y0.6201
N1880 Z0.1969
N1885 Y0.2001
N1890 Z-0.3986
N1895 Z-0.4774
N1900 X-0.623 Y0.1932
N1905 X-0.6212 Y0.1935 Z-0.4765
N1910 X-0.6196 Y0.1942 Z-0.4757
N1915 X-0.6182 Y0.1953 Z-0.4749
N1920 X-0.6171 Y0.1967 Z-0.4741
N1925 X-0.6164 Y0.1983 Z-0.4733
N1930 X-0.6161 Y0.2001 Z-0.4724
N1935 G3 X-0.6437 Z-0.4528 I-0.0138 J0.
N1940 X-0.6161 Z-0.4331 I0.0138 J0.
N1945 X-0.6437 Z-0.4134 I-0.0138 J0.
N1950 X-0.6161 Z-0.3937 I0.0138 J0.
N1955 X-0.6437 Z-0.374 I-0.0138 J0.
N1960 X-0.6161 Z-0.3543 I0.0138 J0.
N1965 X-0.6437 Z-0.3346 I-0.0138 J0.
N1970 X-0.6161 Z-0.315 I0.0138 J0.
N1975 X-0.6437 Z-0.2953 I-0.0138 J0.
N1980 X-0.6161 Z-0.2756 I0.0138 J0.
N1985 X-0.6437 Z-0.2559 I-0.0138 J0.
N1990 X-0.6161 Z-0.2362 I0.0138 J0.
N1995 X-0.6437 Z-0.2165 I-0.0138 J0.
N2000 X-0.6161 Z-0.1969 I0.0138 J0.
N2005 X-0.6437 Z-0.1772 I-0.0138 J0.
N2010 X-0.6161 Z-0.1575 I0.0138 J0.
N2015 X-0.6437 Z-0.1378 I-0.0138 J0.
N2020 X-0.6161 Z-0.1181 I0.0138 J0.
N2025 X-0.6437 Z-0.0984 I-0.0138 J0.
N2030 X-0.6161 Z-0.0787 I0.0138 J0.
N2035 X-0.6437 Z-0.0591 I-0.0138 J0.
N2040 X-0.6161 Z-0.0394 I0.0138 J0.
N2045 X-0.6437 Z-0.0197 I-0.0138 J0.
N2050 X-0.6161 Z0. I0.0138 J0.
N2055 G1 X-0.6164 Y0.2019 Z0.0008
N2060 X-0.6171 Y0.2036 Z0.0016
N2065 X-0.6182 Y0.205 Z0.0025
N2070 X-0.6196 Y0.2061 Z0.0033
N2075 X-0.6212 Y0.2068 Z0.0041
N2080 X-0.623 Y0.207 Z0.0049
N2085 X-0.6299 Y0.2001
N2090 Z0.1969
N2095 Z-0.3986
N2100 Z-0.4774
N2105 X-0.6191 Y0.1893
N2110 G3 X-0.6083 Y0.2001 Z-0.4724 I0. J0.0108
N2115 X-0.6516 Z-0.4528 I-0.0217 J0.
N2120 X-0.6083 Z-0.4331 I0.0217 J0.
N2125 X-0.6516 Z-0.4134 I-0.0217 J0.
N2130 X-0.6083 Z-0.3937 I0.0217 J0.
N2135 X-0.6516 Z-0.374 I-0.0217 J0.
N2140 X-0.6083 Z-0.3543 I0.0217 J0.
N2145 X-0.6516 Z-0.3346 I-0.0217 J0.
N2150 X-0.6083 Z-0.315 I0.0217 J0.
N2155 X-0.6516 Z-0.2953 I-0.0217 J0.
N2160 X-0.6083 Z-0.2756 I0.0217 J0.
N2165 X-0.6516 Z-0.2559 I-0.0217 J0.
N2170 X-0.6083 Z-0.2362 I0.0217 J0.
N2175 X-0.6516 Z-0.2165 I-0.0217 J0.
N2180 X-0.6083 Z-0.1969 I0.0217 J0.
N2185 X-0.6516 Z-0.1772 I-0.0217 J0.
N2190 X-0.6083 Z-0.1575 I0.0217 J0.
N2195 X-0.6516 Z-0.1378 I-0.0217 J0.
N2200 X-0.6083 Z-0.1181 I0.0217 J0.
N2205 X-0.6516 Z-0.0984 I-0.0217 J0.
N2210 X-0.6083 Z-0.0787 I0.0217 J0.
N2215 X-0.6516 Z-0.0591 I-0.0217 J0.
N2220 X-0.6083 Z-0.0394 I0.0217 J0.
N2225 X-0.6516 Z-0.0197 I-0.0217 J0.
N2230 X-0.6083 Z0. I0.0217 J0.
N2235 X-0.6191 Y0.211 Z0.0049 I-0.0108 J0.
N2240 G1 X-0.6299 Y0.2001
N2245 Z0.1969
N2250 Y-0.2198
N2255 Z-0.3986
N2260 Z-0.4774
N2265 X-0.623 Y-0.2267
N2270 X-0.6212 Y-0.2265 Z-0.4765
N2275 X-0.6196 Y-0.2258 Z-0.4757
N2280 X-0.6182 Y-0.2247 Z-0.4749
N2285 X-0.6171 Y-0.2233 Z-0.4741
N2290 X-0.6164 Y-0.2216 Z-0.4733
N2295 X-0.6161 Y-0.2198 Z-0.4724
N2300 G3 X-0.6437 Z-0.4528 I-0.0138 J0.
N2305 X-0.6161 Z-0.4331 I0.0138 J0.
N2310 X-0.6437 Z-0.4134 I-0.0138 J0.
N2315 X-0.6161 Z-0.3937 I0.0138 J0.
N2320 X-0.6437 Z-0.374 I-0.0138 J0.
N2325 X-0.6161 Z-0.3543 I0.0138 J0.
N2330 X-0.6437 Z-0.3346 I-0.0138 J0.
N2335 X-0.6161 Z-0.315 I0.0138 J0.
N2340 X-0.6437 Z-0.2953 I-0.0138 J0.
N2345 X-0.6161 Z-0.2756 I0.0138 J0.
N2350 X-0.6437 Z-0.2559 I-0.0138 J0.
N2355 X-0.6161 Z-0.2362 I0.0138 J0.
N2360 X-0.6437 Z-0.2165 I-0.0138 J0.
N2365 X-0.6161 Z-0.1969 I0.0138 J0.
N2370 X-0.6437 Z-0.1772 I-0.0138 J0.
N2375 X-0.6161 Z-0.1575 I0.0138 J0.
N2380 X-0.6437 Z-0.1378 I-0.0138 J0.
N2385 X-0.6161 Z-0.1181 I0.0138 J0.
N2390 X-0.6437 Z-0.0984 I-0.0138 J0.
N2395 X-0.6161 Z-0.0787 I0.0138 J0.
N2400 X-0.6437 Z-0.0591 I-0.0138 J0.
N2405 X-0.6161 Z-0.0394 I0.0138 J0.
N2410 X-0.6437 Z-0.0197 I-0.0138 J0.
N2415 X-0.6161 Z0. I0.0138 J0.
N2420 G1 X-0.6164 Y-0.218 Z0.0008
N2425 X-0.6171 Y-0.2164 Z0.0016
N2430 X-0.6182 Y-0.2149 Z0.0025
N2435 X-0.6196 Y-0.2138 Z0.0033
N2440 X-0.6212 Y-0.2132 Z0.0041
N2445 X-0.623 Y-0.2129 Z0.0049
N2450 X-0.6299 Y-0.2198
N2455 Z0.1969
N2460 Z-0.3986
N2465 Z-0.4774
N2470 X-0.6191 Y-0.2306
N2475 G3 X-0.6083 Y-0.2198 Z-0.4724 I0. J0.0108
N2480 X-0.6516 Z-0.4528 I-0.0217 J0.
N2485 X-0.6083 Z-0.4331 I0.0217 J0.
N2490 X-0.6516 Z-0.4134 I-0.0217 J0.
N2495 X-0.6083 Z-0.3937 I0.0217 J0.
N2500 X-0.6516 Z-0.374 I-0.0217 J0.
N2505 X-0.6083 Z-0.3543 I0.0217 J0.
N2510 X-0.6516 Z-0.3346 I-0.0217 J0.
N2515 X-0.6083 Z-0.315 I0.0217 J0.
N2520 X-0.6516 Z-0.2953 I-0.0217 J0.
N2525 X-0.6083 Z-0.2756 I0.0217 J0.
N2530 X-0.6516 Z-0.2559 I-0.0217 J0.
N2535 X-0.6083 Z-0.2362 I0.0217 J0.
N2540 X-0.6516 Z-0.2165 I-0.0217 J0.
N2545 X-0.6083 Z-0.1969 I0.0217 J0.
N2550 X-0.6516 Z-0.1772 I-0.0217 J0.
N2555 X-0.6083 Z-0.1575 I0.0217 J0.
N2560 X-0.6516 Z-0.1378 I-0.0217 J0.
N2565 X-0.6083 Z-0.1181 I0.0217 J0.
N2570 X-0.6516 Z-0.0984 I-0.0217 J0.
N2575 X-0.6083 Z-0.0787 I0.0217 J0.
N2580 X-0.6516 Z-0.0591 I-0.0217 J0.
N2585 X-0.6083 Z-0.0394 I0.0217 J0.
N2590 X-0.6516 Z-0.0197 I-0.0217 J0.
N2595 X-0.6083 Z0. I0.0217 J0.
N2600 X-0.6191 Y-0.209 Z0.0049 I-0.0108 J0.
N2605 G1 X-0.6299 Y-0.2198
N2610 Z0.1969
N2615 Y-0.6398
N2620 Z-0.3986
N2625 Z-0.4774
N2630 X-0.623 Y-0.6467
N2635 X-0.6212 Y-0.6464 Z-0.4765
N2640 X-0.6196 Y-0.6457 Z-0.4757
N2645 X-0.6182 Y-0.6446 Z-0.4749
N2650 X-0.6171 Y-0.6432 Z-0.4741
N2655 X-0.6164 Y-0.6415 Z-0.4733
N2660 X-0.6161 Y-0.6398 Z-0.4724
N2665 G3 X-0.6437 Z-0.4528 I-0.0138 J0.
N2670 X-0.6161 Z-0.4331 I0.0138 J0.
N2675 X-0.6437 Z-0.4134 I-0.0138 J0.
N2680 X-0.6161 Z-0.3937 I0.0138 J0.
N2685 X-0.6437 Z-0.374 I-0.0138 J0.
N2690 X-0.6161 Z-0.3543 I0.0138 J0.
N2695 X-0.6437 Z-0.3346 I-0.0138 J0.
N2700 X-0.6161 Z-0.315 I0.0138 J0.
N2705 X-0.6437 Z-0.2953 I-0.0138 J0.
N2710 X-0.6161 Z-0.2756 I0.0138 J0.
N2715 X-0.6437 Z-0.2559 I-0.0138 J0.
N2720 X-0.6161 Z-0.2362 I0.0138 J0.
N2725 X-0.6437 Z-0.2165 I-0.0138 J0.
N2730 X-0.6161 Z-0.1969 I0.0138 J0.
N2735 X-0.6437 Z-0.1772 I-0.0138 J0.
N2740 X-0.6161 Z-0.1575 I0.0138 J0.
N2745 X-0.6437 Z-0.1378 I-0.0138 J0.
N2750 X-0.6161 Z-0.1181 I0.0138 J0.
N2755 X-0.6437 Z-0.0984 I-0.0138 J0.
N2760 X-0.6161 Z-0.0787 I0.0138 J0.
N2765 X-0.6437 Z-0.0591 I-0.0138 J0.
N2770 X-0.6161 Z-0.0394 I0.0138 J0.
N2775 X-0.6437 Z-0.0197 I-0.0138 J0.
N2780 X-0.6161 Z0. I0.0138 J0.
N2785 G1 X-0.6164 Y-0.638 Z0.0008
N2790 X-0.6171 Y-0.6363 Z0.0016
N2795 X-0.6182 Y-0.6349 Z0.0025
N2800 X-0.6196 Y-0.6338 Z0.0033
N2805 X-0.6212 Y-0.6331 Z0.0041
N2810 X-0.623 Y-0.6329 Z0.0049
N2815 X-0.6299 Y-0.6398
N2820 Z0.1969
N2825 Z-0.3986
N2830 Z-0.4774
N2835 X-0.6191 Y-0.6506
N2840 G3 X-0.6083 Y-0.6398 Z-0.4724 I0. J0.0108
N2845 X-0.6516 Z-0.4528 I-0.0217 J0.
N2850 X-0.6083 Z-0.4331 I0.0217 J0.
N2855 X-0.6516 Z-0.4134 I-0.0217 J0.
N2860 X-0.6083 Z-0.3937 I0.0217 J0.
N2865 X-0.6516 Z-0.374 I-0.0217 J0.
N2870 X-0.6083 Z-0.3543 I0.0217 J0.
N2875 X-0.6516 Z-0.3346 I-0.0217 J0.
N2880 X-0.6083 Z-0.315 I0.0217 J0.
N2885 X-0.6516 Z-0.2953 I-0.0217 J0.
N2890 X-0.6083 Z-0.2756 I0.0217 J0.
N2895 X-0.6516 Z-0.2559 I-0.0217 J0.
N2900 X-0.6083 Z-0.2362 I0.0217 J0.
N2905 X-0.6516 Z-0.2165 I-0.0217 J0.
N2910 X-0.6083 Z-0.1969 I0.0217 J0.
N2915 X-0.6516 Z-0.1772 I-0.0217 J0.
N2920 X-0.6083 Z-0.1575 I0.0217 J0.
N2925 X-0.6516 Z-0.1378 I-0.0217 J0.
N2930 X-0.6083 Z-0.1181 I0.0217 J0.
N2935 X-0.6516 Z-0.0984 I-0.0217 J0.
N2940 X-0.6083 Z-0.0787 I0.0217 J0.
N2945 X-0.6516 Z-0.0591 I-0.0217 J0.
N2950 X-0.6083 Z-0.0394 I0.0217 J0.
N2955 X-0.6516 Z-0.0197 I-0.0217 J0.
N2960 X-0.6083 Z0. I0.0217 J0.
N2965 X-0.6191 Y-0.6289 Z0.0049 I-0.0108 J0.
N2970 G1 X-0.6299 Y-0.6398
N2975 Z0.1969
N2980 X0.
N2985 Z-0.3986
N2990 Z-0.4774
N2995 X0.0069 Y-0.6467
N3000 X0.0087 Y-0.6464 Z-0.4765
N3005 X0.0103 Y-0.6457 Z-0.4757
N3010 X0.0118 Y-0.6446 Z-0.4749
N3015 X0.0129 Y-0.6432 Z-0.4741
N3020 X0.0135 Y-0.6415 Z-0.4733
N3025 X0.0138 Y-0.6398 Z-0.4724
N3030 G3 X-0.0138 Z-0.4528 I-0.0138 J0.
N3035 X0.0138 Z-0.4331 I0.0138 J0.
N3040 X-0.0138 Z-0.4134 I-0.0138 J0.
N3045 X0.0138 Z-0.3937 I0.0138 J0.
N3050 X-0.0138 Z-0.374 I-0.0138 J0.
N3055 X0.0138 Z-0.3543 I0.0138 J0.
N3060 X-0.0138 Z-0.3346 I-0.0138 J0.
N3065 X0.0138 Z-0.315 I0.0138 J0.
N3070 X-0.0138 Z-0.2953 I-0.0138 J0.
N3075 X0.0138 Z-0.2756 I0.0138 J0.
N3080 X-0.0138 Z-0.2559 I-0.0138 J0.
N3085 X0.0138 Z-0.2362 I0.0138 J0.
N3090 X-0.0138 Z-0.2165 I-0.0138 J0.
N3095 X0.0138 Z-0.1969 I0.0138 J0.
N3100 X-0.0138 Z-0.1772 I-0.0138 J0.
N3105 X0.0138 Z-0.1575 I0.0138 J0.
N3110 X-0.0138 Z-0.1378 I-0.0138 J0.
N3115 X0.0138 Z-0.1181 I0.0138 J0.
N3120 X-0.0138 Z-0.0984 I-0.0138 J0.
N3125 X0.0138 Z-0.0787 I0.0138 J0.
N3130 X-0.0138 Z-0.0591 I-0.0138 J0.
N3135 X0.0138 Z-0.0394 I0.0138 J0.
N3140 X-0.0138 Z-0.0197 I-0.0138 J0.
N3145 X0.0138 Z0. I0.0138 J0.
N3150 G1 X0.0135 Y-0.638 Z0.0008
N3155 X0.0129 Y-0.6363 Z0.0016
N3160 X0.0118 Y-0.6349 Z0.0025
N3165 X0.0103 Y-0.6338 Z0.0033
N3170 X0.0087 Y-0.6331 Z0.0041
N3175 X0.0069 Y-0.6329 Z0.0049
N3180 X0. Y-0.6398
N3185 Z0.1969
N3190 Z-0.3986
N3195 Z-0.4774
N3200 X0.0108 Y-0.6506
N3205 G3 X0.0217 Y-0.6398 Z-0.4724 I0. J0.0108
N3210 X-0.0217 Z-0.4528 I-0.0217 J0.
N3215 X0.0217 Z-0.4331 I0.0217 J0.
N3220 X-0.0217 Z-0.4134 I-0.0217 J0.
N3225 X0.0217 Z-0.3937 I0.0217 J0.
N3230 X-0.0217 Z-0.374 I-0.0217 J0.
N3235 X0.0217 Z-0.3543 I0.0217 J0.
N3240 X-0.0217 Z-0.3346 I-0.0217 J0.
N3245 X0.0217 Z-0.315 I0.0217 J0.
N3250 X-0.0217 Z-0.2953 I-0.0217 J0.
N3255 X0.0217 Z-0.2756 I0.0217 J0.
N3260 X-0.0217 Z-0.2559 I-0.0217 J0.
N3265 X0.0217 Z-0.2362 I0.0217 J0.
N3270 X-0.0217 Z-0.2165 I-0.0217 J0.
N3275 X0.0217 Z-0.1969 I0.0217 J0.
N3280 X-0.0217 Z-0.1772 I-0.0217 J0.
N3285 X0.0217 Z-0.1575 I0.0217 J0.
N3290 X-0.0217 Z-0.1378 I-0.0217 J0.
N3295 X0.0217 Z-0.1181 I0.0217 J0.
N3300 X-0.0217 Z-0.0984 I-0.0217 J0.
N3305 X0.0217 Z-0.0787 I0.0217 J0.
N3310 X-0.0217 Z-0.0591 I-0.0217 J0.
N3315 X0.0217 Z-0.0394 I0.0217 J0.
N3320 X-0.0217 Z-0.0197 I-0.0217 J0.
N3325 X0.0217 Z0. I0.0217 J0.
N3330 X0.0108 Y-0.6289 Z0.0049 I-0.0108 J0.
N3335 G1 X0. Y-0.6398
N3340 Z0.1969
N3345 Y-0.2198
N3350 Z-0.3986
N3355 Z-0.4774
N3360 X0.0069 Y-0.2267
N3365 X0.0087 Y-0.2265 Z-0.4765
N3370 X0.0103 Y-0.2258 Z-0.4757
N3375 X0.0118 Y-0.2247 Z-0.4749
N3380 X0.0129 Y-0.2233 Z-0.4741
N3385 X0.0135 Y-0.2216 Z-0.4733
N3390 X0.0138 Y-0.2198 Z-0.4724
N3395 G3 X-0.0138 Z-0.4528 I-0.0138 J0.
N3400 X0.0138 Z-0.4331 I0.0138 J0.
N3405 X-0.0138 Z-0.4134 I-0.0138 J0.
N3410 X0.0138 Z-0.3937 I0.0138 J0.
N3415 X-0.0138 Z-0.374 I-0.0138 J0.
N3420 X0.0138 Z-0.3543 I0.0138 J0.
N3425 X-0.0138 Z-0.3346 I-0.0138 J0.
N3430 X0.0138 Z-0.315 I0.0138 J0.
N3435 X-0.0138 Z-0.2953 I-0.0138 J0.
N3440 X0.0138 Z-0.2756 I0.0138 J0.
N3445 X-0.0138 Z-0.2559 I-0.0138 J0.
N3450 X0.0138 Z-0.2362 I0.0138 J0.
N3455 X-0.0138 Z-0.2165 I-0.0138 J0.
N3460 X0.0138 Z-0.1969 I0.0138 J0.
N3465 X-0.0138 Z-0.1772 I-0.0138 J0.
N3470 X0.0138 Z-0.1575 I0.0138 J0.
N3475 X-0.0138 Z-0.1378 I-0.0138 J0.
N3480 X0.0138 Z-0.1181 I0.0138 J0.
N3485 X-0.0138 Z-0.0984 I-0.0138 J0.
N3490 X0.0138 Z-0.0787 I0.0138 J0.
N3495 X-0.0138 Z-0.0591 I-0.0138 J0.
N3500 X0.0138 Z-0.0394 I0.0138 J0.
N3505 X-0.0138 Z-0.0197 I-0.0138 J0.
N3510 X0.0138 Z0. I0.0138 J0.
N3515 G1 X0.0135 Y-0.218 Z0.0008
N3520 X0.0129 Y-0.2164 Z0.0016
N3525 X0.0118 Y-0.2149 Z0.0025
N3530 X0.0103 Y-0.2138 Z0.0033
N3535 X0.0087 Y-0.2132 Z0.0041
N3540 X0.0069 Y-0.2129 Z0.0049
N3545 X0. Y-0.2198
N3550 Z0.1969
N3555 Z-0.3986
N3560 Z-0.4774
N3565 X0.0108 Y-0.2306
N3570 G3 X0.0217 Y-0.2198 Z-0.4724 I0. J0.0108
N3575 X-0.0217 Z-0.4528 I-0.0217 J0.
N3580 X0.0217 Z-0.4331 I0.0217 J0.
N3585 X-0.0217 Z-0.4134 I-0.0217 J0.
N3590 X0.0217 Z-0.3937 I0.0217 J0.
N3595 X-0.0217 Z-0.374 I-0.0217 J0.
N3600 X0.0217 Z-0.3543 I0.0217 J0.
N3605 X-0.0217 Z-0.3346 I-0.0217 J0.
N3610 X0.0217 Z-0.315 I0.0217 J0.
N3615 X-0.0217 Z-0.2953 I-0.0217 J0.
N3620 X0.0217 Z-0.2756 I0.0217 J0.
N3625 X-0.0217 Z-0.2559 I-0.0217 J0.
N3630 X0.0217 Z-0.2362 I0.0217 J0.
N3635 X-0.0217 Z-0.2165 I-0.0217 J0.
N3640 X0.0217 Z-0.1969 I0.0217 J0.
N3645 X-0.0217 Z-0.1772 I-0.0217 J0.
N3650 X0.0217 Z-0.1575 I0.0217 J0.
N3655 X-0.0217 Z-0.1378 I-0.0217 J0.
N3660 X0.0217 Z-0.1181 I0.0217 J0.
N3665 X-0.0217 Z-0.0984 I-0.0217 J0.
N3670 X0.0217 Z-0.0787 I0.0217 J0.
N3675 X-0.0217 Z-0.0591 I-0.0217 J0.
N3680 X0.0217 Z-0.0394 I0.0217 J0.
N3685 X-0.0217 Z-0.0197 I-0.0217 J0.
N3690 X0.0217 Z0. I0.0217 J0.
N3695 X0.0108 Y-0.209 Z0.0049 I-0.0108 J0.
N3700 G1 X0. Y-0.2198
N3705 Z0.1969
N3710 Y0.2001
N3715 Z-0.3986
N3720 Z-0.4774
N3725 X0.0069 Y0.1932
N3730 X0.0087 Y0.1935 Z-0.4765
N3735 X0.0103 Y0.1942 Z-0.4757
N3740 X0.0118 Y0.1953 Z-0.4749
N3745 X0.0129 Y0.1967 Z-0.4741
N3750 X0.0135 Y0.1983 Z-0.4733
N3755 X0.0138 Y0.2001 Z-0.4724
N3760 G3 X-0.0138 Z-0.4528 I-0.0138 J0.
N3765 X0.0138 Z-0.4331 I0.0138 J0.
N3770 X-0.0138 Z-0.4134 I-0.0138 J0.
N3775 X0.0138 Z-0.3937 I0.0138 J0.
N3780 X-0.0138 Z-0.374 I-0.0138 J0.
N3785 X0.0138 Z-0.3543 I0.0138 J0.
N3790 X-0.0138 Z-0.3346 I-0.0138 J0.
N3795 X0.0138 Z-0.315 I0.0138 J0.
N3800 X-0.0138 Z-0.2953 I-0.0138 J0.
N3805 X0.0138 Z-0.2756 I0.0138 J0.
N3810 X-0.0138 Z-0.2559 I-0.0138 J0.
N3815 X0.0138 Z-0.2362 I0.0138 J0.
N3820 X-0.0138 Z-0.2165 I-0.0138 J0.
N3825 X0.0138 Z-0.1969 I0.0138 J0.
N3830 X-0.0138 Z-0.1772 I-0.0138 J0.
N3835 X0.0138 Z-0.1575 I0.0138 J0.
N3840 X-0.0138 Z-0.1378 I-0.0138 J0.
N3845 X0.0138 Z-0.1181 I0.0138 J0.
N3850 X-0.0138 Z-0.0984 I-0.0138 J0.
N3855 X0.0138 Z-0.0787 I0.0138 J0.
N3860 X-0.0138 Z-0.0591 I-0.0138 J0.
N3865 X0.0138 Z-0.0394 I0.0138 J0.
N3870 X-0.0138 Z-0.0197 I-0.0138 J0.
N3875 X0.0138 Z0. I0.0138 J0.
N3880 G1 X0.0135 Y0.2019 Z0.0008
N3885 X0.0129 Y0.2036 Z0.0016
N3890 X0.0118 Y0.205 Z0.0025
N3895 X0.0103 Y0.2061 Z0.0033
N3900 X0.0087 Y0.2068 Z0.0041
N3905 X0.0069 Y0.207 Z0.0049
N3910 X0. Y0.2001
N3915 Z0.1969
N3920 Z-0.3986
N3925 Z-0.4774
N3930 X0.0108 Y0.1893
N3935 G3 X0.0217 Y0.2001 Z-0.4724 I0. J0.0108
N3940 X-0.0217 Z-0.4528 I-0.0217 J0.
N3945 X0.0217 Z-0.4331 I0.0217 J0.
N3950 X-0.0217 Z-0.4134 I-0.0217 J0.
N3955 X0.0217 Z-0.3937 I0.0217 J0.
N3960 X-0.0217 Z-0.374 I-0.0217 J0.
N3965 X0.0217 Z-0.3543 I0.0217 J0.
N3970 X-0.0217 Z-0.3346 I-0.0217 J0.
N3975 X0.0217 Z-0.315 I0.0217 J0.
N3980 X-0.0217 Z-0.2953 I-0.0217 J0.
N3985 X0.0217 Z-0.2756 I0.0217 J0.
N3990 X-0.0217 Z-0.2559 I-0.0217 J0.
N3995 X0.0217 Z-0.2362 I0.0217 J0.
N4000 X-0.0217 Z-0.2165 I-0.0217 J0.
N4005 X0.0217 Z-0.1969 I0.0217 J0.
N4010 X-0.0217 Z-0.1772 I-0.0217 J0.
N4015 X0.0217 Z-0.1575 I0.0217 J0.
N4020 X-0.0217 Z-0.1378 I-0.0217 J0.
N4025 X0.0217 Z-0.1181 I0.0217 J0.
N4030 X-0.0217 Z-0.0984 I-0.0217 J0.
N4035 X0.0217 Z-0.0787 I0.0217 J0.
N4040 X-0.0217 Z-0.0591 I-0.0217 J0.
N4045 X0.0217 Z-0.0394 I0.0217 J0.
N4050 X-0.0217 Z-0.0197 I-0.0217 J0.
N4055 X0.0217 Z0. I0.0217 J0.
N4060 X0.0108 Y0.211 Z0.0049 I-0.0108 J0.
N4065 G1 X0. Y0.2001
N4070 Z0.1969
N4075 Y0.6201
N4080 Z-0.3986
N4085 Z-0.4774
N4090 X0.0069 Y0.6132
N4095 X0.0087 Y0.6134 Z-0.4765
N4100 X0.0103 Y0.6141 Z-0.4757
N4105 X0.0118 Y0.6152 Z-0.4749
N4110 X0.0129 Y0.6166 Z-0.4741
N4115 X0.0135 Y0.6183 Z-0.4733
N4120 X0.0138 Y0.6201 Z-0.4724
N4125 G3 X-0.0138 Z-0.4528 I-0.0138 J0.
N4130 X0.0138 Z-0.4331 I0.0138 J0.
N4135 X-0.0138 Z-0.4134 I-0.0138 J0.
N4140 X0.0138 Z-0.3937 I0.0138 J0.
N4145 X-0.0138 Z-0.374 I-0.0138 J0.
N4150 X0.0138 Z-0.3543 I0.0138 J0.
N4155 X-0.0138 Z-0.3346 I-0.0138 J0.
N4160 X0.0138 Z-0.315 I0.0138 J0.
N4165 X-0.0138 Z-0.2953 I-0.0138 J0.
N4170 X0.0138 Z-0.2756 I0.0138 J0.
N4175 X-0.0138 Z-0.2559 I-0.0138 J0.
N4180 X0.0138 Z-0.2362 I0.0138 J0.
N4185 X-0.0138 Z-0.2165 I-0.0138 J0.
N4190 X0.0138 Z-0.1969 I0.0138 J0.
N4195 X-0.0138 Z-0.1772 I-0.0138 J0.
N4200 X0.0138 Z-0.1575 I0.0138 J0.
N4205 X-0.0138 Z-0.1378 I-0.0138 J0.
N4210 X0.0138 Z-0.1181 I0.0138 J0.
N4215 X-0.0138 Z-0.0984 I-0.0138 J0.
N4220 X0.0138 Z-0.0787 I0.0138 J0.
N4225 X-0.0138 Z-0.0591 I-0.0138 J0.
N4230 X0.0138 Z-0.0394 I0.0138 J0.
N4235 X-0.0138 Z-0.0197 I-0.0138 J0.
N4240 X0.0138 Z0. I0.0138 J0.
N4245 G1 X0.0135 Y0.6219 Z0.0008
N4250 X0.0129 Y0.6235 Z0.0016
N4255 X0.0118 Y0.625 Z0.0025
N4260 X0.0103 Y0.626 Z0.0033
N4265 X0.0087 Y0.6267 Z0.0041
N4270 X0.0069 Y0.627 Z0.0049
N4275 X0. Y0.6201
N4280 Z0.1969
N4285 Z-0.3986
N4290 Z-0.4774
N4295 X0.0108 Y0.6093
N4300 G3 X0.0217 Y0.6201 Z-0.4724 I0. J0.0108
N4305 X-0.0217 Z-0.4528 I-0.0217 J0.
N4310 X0.0217 Z-0.4331 I0.0217 J0.
N4315 X-0.0217 Z-0.4134 I-0.0217 J0.
N4320 X0.0217 Z-0.3937 I0.0217 J0.
N4325 X-0.0217 Z-0.374 I-0.0217 J0.
N4330 X0.0217 Z-0.3543 I0.0217 J0.
N4335 X-0.0217 Z-0.3346 I-0.0217 J0.
N4340 X0.0217 Z-0.315 I0.0217 J0.
N4345 X-0.0217 Z-0.2953 I-0.0217 J0.
N4350 X0.0217 Z-0.2756 I0.0217 J0.
N4355 X-0.0217 Z-0.2559 I-0.0217 J0.
N4360 X0.0217 Z-0.2362 I0.0217 J0.
N4365 X-0.0217 Z-0.2165 I-0.0217 J0.
N4370 X0.0217 Z-0.1969 I0.0217 J0.
N4375 X-0.0217 Z-0.1772 I-0.0217 J0.
N4380 X0.0217 Z-0.1575 I0.0217 J0.
N4385 X-0.0217 Z-0.1378 I-0.0217 J0.
N4390 X0.0217 Z-0.1181 I0.0217 J0.
N4395 X-0.0217 Z-0.0984 I-0.0217 J0.
N4400 X0.0217 Z-0.0787 I0.0217 J0.
N4405 X-0.0217 Z-0.0591 I-0.0217 J0.
N4410 X0.0217 Z-0.0394 I0.0217 J0.
N4415 X-0.0217 Z-0.0197 I-0.0217 J0.
N4420 X0.0217 Z0. I0.0217 J0.
N4425 X0.0108 Y0.6309 Z0.0049 I-0.0108 J0.
N4430 G1 X0. Y0.6201
N4435 Z0.1969
N4440 X0.6299
N4445 Z-0.3986
N4450 Z-0.4774
N4455 X0.6368 Y0.6132
N4460 X0.6386 Y0.6134 Z-0.4765
N4465 X0.6403 Y0.6141 Z-0.4757
N4470 X0.6417 Y0.6152 Z-0.4749
N4475 X0.6428 Y0.6166 Z-0.4741
N4480 X0.6435 Y0.6183 Z-0.4733
N4485 X0.6437 Y0.6201 Z-0.4724
N4490 G3 X0.6161 Z-0.4528 I-0.0138 J0.
N4495 X0.6437 Z-0.4331 I0.0138 J0.
N4500 X0.6161 Z-0.4134 I-0.0138 J0.
N4505 X0.6437 Z-0.3937 I0.0138 J0.
N4510 X0.6161 Z-0.374 I-0.0138 J0.
N4515 X0.6437 Z-0.3543 I0.0138 J0.
N4520 X0.6161 Z-0.3346 I-0.0138 J0.
N4525 X0.6437 Z-0.315 I0.0138 J0.
N4530 X0.6161 Z-0.2953 I-0.0138 J0.
N4535 X0.6437 Z-0.2756 I0.0138 J0.
N4540 X0.6161 Z-0.2559 I-0.0138 J0.
N4545 X0.6437 Z-0.2362 I0.0138 J0.
N4550 X0.6161 Z-0.2165 I-0.0138 J0.
N4555 X0.6437 Z-0.1969 I0.0138 J0.
N4560 X0.6161 Z-0.1772 I-0.0138 J0.
N4565 X0.6437 Z-0.1575 I0.0138 J0.
N4570 X0.6161 Z-0.1378 I-0.0138 J0.
N4575 X0.6437 Z-0.1181 I0.0138 J0.
N4580 X0.6161 Z-0.0984 I-0.0138 J0.
N4585 X0.6437 Z-0.0787 I0.0138 J0.
N4590 X0.6161 Z-0.0591 I-0.0138 J0.
N4595 X0.6437 Z-0.0394 I0.0138 J0.
N4600 X0.6161 Z-0.0197 I-0.0138 J0.
N4605 X0.6437 Z0. I0.0138 J0.
N4610 G1 X0.6435 Y0.6219 Z0.0008
N4615 X0.6428 Y0.6235 Z0.0016
N4620 X0.6417 Y0.625 Z0.0025
N4625 X0.6403 Y0.626 Z0.0033
N4630 X0.6386 Y0.6267 Z0.0041
N4635 X0.6368 Y0.627 Z0.0049
N4640 X0.6299 Y0.6201
N4645 Z0.1969
N4650 Z-0.3986
N4655 Z-0.4774
N4660 X0.6407 Y0.6093
N4665 G3 X0.6516 Y0.6201 Z-0.4724 I0. J0.0108
N4670 X0.6083 Z-0.4528 I-0.0217 J0.
N4675 X0.6516 Z-0.4331 I0.0217 J0.
N4680 X0.6083 Z-0.4134 I-0.0217 J0.
N4685 X0.6516 Z-0.3937 I0.0217 J0.
N4690 X0.6083 Z-0.374 I-0.0217 J0.
N4695 X0.6516 Z-0.3543 I0.0217 J0.
N4700 X0.6083 Z-0.3346 I-0.0217 J0.
N4705 X0.6516 Z-0.315 I0.0217 J0.
N4710 X0.6083 Z-0.2953 I-0.0217 J0.
N4715 X0.6516 Z-0.2756 I0.0217 J0.
N4720 X0.6083 Z-0.2559 I-0.0217 J0.
N4725 X0.6516 Z-0.2362 I0.0217 J0.
N4730 X0.6083 Z-0.2165 I-0.0217 J0.
N4735 X0.6516 Z-0.1969 I0.0217 J0.
N4740 X0.6083 Z-0.1772 I-0.0217 J0.
N4745 X0.6516 Z-0.1575 I0.0217 J0.
N4750 X0.6083 Z-0.1378 I-0.0217 J0.
N4755 X0.6516 Z-0.1181 I0.0217 J0.
N4760 X0.6083 Z-0.0984 I-0.0217 J0.
N4765 X0.6516 Z-0.0787 I0.0217 J0.
N4770 X0.6083 Z-0.0591 I-0.0217 J0.
N4775 X0.6516 Z-0.0394 I0.0217 J0.
N4780 X0.6083 Z-0.0197 I-0.0217 J0.
N4785 X0.6516 Z0. I0.0217 J0.
N4790 X0.6407 Y0.6309 Z0.0049 I-0.0108 J0.
N4795 G1 X0.6299 Y0.6201
N4800 Z0.1969
N4805 Y0.2001
N4810 Z-0.3986
N4815 Z-0.4774
N4820 X0.6368 Y0.1932
N4825 X0.6386 Y0.1935 Z-0.4765
N4830 X0.6403 Y0.1942 Z-0.4757
N4835 X0.6417 Y0.1953 Z-0.4749
N4840 X0.6428 Y0.1967 Z-0.4741
N4845 X0.6435 Y0.1983 Z-0.4733
N4850 X0.6437 Y0.2001 Z-0.4724
N4855 G3 X0.6161 Z-0.4528 I-0.0138 J0.
N4860 X0.6437 Z-0.4331 I0.0138 J0.
N4865 X0.6161 Z-0.4134 I-0.0138 J0.
N4870 X0.6437 Z-0.3937 I0.0138 J0.
N4875 X0.6161 Z-0.374 I-0.0138 J0.
N4880 X0.6437 Z-0.3543 I0.0138 J0.
N4885 X0.6161 Z-0.3346 I-0.0138 J0.
N4890 X0.6437 Z-0.315 I0.0138 J0.
N4895 X0.6161 Z-0.2953 I-0.0138 J0.
N4900 X0.6437 Z-0.2756 I0.0138 J0.
N4905 X0.6161 Z-0.2559 I-0.0138 J0.
N4910 X0.6437 Z-0.2362 I0.0138 J0.
N4915 X0.6161 Z-0.2165 I-0.0138 J0.
N4920 X0.6437 Z-0.1969 I0.0138 J0.
N4925 X0.6161 Z-0.1772 I-0.0138 J0.
N4930 X0.6437 Z-0.1575 I0.0138 J0.
N4935 X0.6161 Z-0.1378 I-0.0138 J0.
N4940 X0.6437 Z-0.1181 I0.0138 J0.
N4945 X0.6161 Z-0.0984 I-0.0138 J0.
N4950 X0.6437 Z-0.0787 I0.0138 J0.
N4955 X0.6161 Z-0.0591 I-0.0138 J0.
N4960 X0.6437 Z-0.0394 I0.0138 J0.
N4965 X0.6161 Z-0.0197 I-0.0138 J0.
N4970 X0.6437 Z0. I0.0138 J0.
N4975 G1 X0.6435 Y0.2019 Z0.0008
N4980 X0.6428 Y0.2036 Z0.0016
N4985 X0.6417 Y0.205 Z0.0025
N4990 X0.6403 Y0.2061 Z0.0033
N4995 X0.6386 Y0.2068 Z0.0041
N5000 X0.6368 Y0.207 Z0.0049
N5005 X0.6299 Y0.2001
N5010 Z0.1969
N5015 Z-0.3986
N5020 Z-0.4774
N5025 X0.6407 Y0.1893
N5030 G3 X0.6516 Y0.2001 Z-0.4724 I0. J0.0108
N5035 X0.6083 Z-0.4528 I-0.0217 J0.
N5040 X0.6516 Z-0.4331 I0.0217 J0.
N5045 X0.6083 Z-0.4134 I-0.0217 J0.
N5050 X0.6516 Z-0.3937 I0.0217 J0.
N5055 X0.6083 Z-0.374 I-0.0217 J0.
N5060 X0.6516 Z-0.3543 I0.0217 J0.
N5065 X0.6083 Z-0.3346 I-0.0217 J0.
N5070 X0.6516 Z-0.315 I0.0217 J0.
N5075 X0.6083 Z-0.2953 I-0.0217 J0.
N5080 X0.6516 Z-0.2756 I0.0217 J0.
N5085 X0.6083 Z-0.2559 I-0.0217 J0.
N5090 X0.6516 Z-0.2362 I0.0217 J0.
N5095 X0.6083 Z-0.2165 I-0.0217 J0.
N5100 X0.6516 Z-0.1969 I0.0217 J0.
N5105 X0.6083 Z-0.1772 I-0.0217 J0.
N5110 X0.6516 Z-0.1575 I0.0217 J0.
N5115 X0.6083 Z-0.1378 I-0.0217 J0.
N5120 X0.6516 Z-0.1181 I0.0217 J0.
N5125 X0.6083 Z-0.0984 I-0.0217 J0.
N5130 X0.6516 Z-0.0787 I0.0217 J0.
N5135 X0.6083 Z-0.0591 I-0.0217 J0.
N5140 X0.6516 Z-0.0394 I0.0217 J0.
N5145 X0.6083 Z-0.0197 I-0.0217 J0.
N5150 X0.6516 Z0. I0.0217 J0.
N5155 X0.6407 Y0.211 Z0.0049 I-0.0108 J0.
N5160 G1 X0.6299 Y0.2001
N5165 Z0.1969
N5170 Y-0.2198
N5175 Z-0.3986
N5180 Z-0.4774
N5185 X0.6368 Y-0.2267
N5190 X0.6386 Y-0.2265 Z-0.4765
N5195 X0.6403 Y-0.2258 Z-0.4757
N5200 X0.6417 Y-0.2247 Z-0.4749
N5205 X0.6428 Y-0.2233 Z-0.4741
N5210 X0.6435 Y-0.2216 Z-0.4733
N5215 X0.6437 Y-0.2198 Z-0.4724
N5220 G3 X0.6161 Z-0.4528 I-0.0138 J0.
N5225 X0.6437 Z-0.4331 I0.0138 J0.
N5230 X0.6161 Z-0.4134 I-0.0138 J0.
N5235 X0.6437 Z-0.3937 I0.0138 J0.
N5240 X0.6161 Z-0.374 I-0.0138 J0.
N5245 X0.6437 Z-0.3543 I0.0138 J0.
N5250 X0.6161 Z-0.3346 I-0.0138 J0.
N5255 X0.6437 Z-0.315 I0.0138 J0.
N5260 X0.6161 Z-0.2953 I-0.0138 J0.
N5265 X0.6437 Z-0.2756 I0.0138 J0.
N5270 X0.6161 Z-0.2559 I-0.0138 J0.
N5275 X0.6437 Z-0.2362 I0.0138 J0.
N5280 X0.6161 Z-0.2165 I-0.0138 J0.
N5285 X0.6437 Z-0.1969 I0.0138 J0.
N5290 X0.6161 Z-0.1772 I-0.0138 J0.
N5295 X0.6437 Z-0.1575 I0.0138 J0.
N5300 X0.6161 Z-0.1378 I-0.0138 J0.
N5305 X0.6437 Z-0.1181 I0.0138 J0.
N5310 X0.6161 Z-0.0984 I-0.0138 J0.
N5315 X0.6437 Z-0.0787 I0.0138 J0.
N5320 X0.6161 Z-0.0591 I-0.0138 J0.
N5325 X0.6437 Z-0.0394 I0.0138 J0.
N5330 X0.6161 Z-0.0197 I-0.0138 J0.
N5335 X0.6437 Z0. I0.0138 J0.
N5340 G1 X0.6435 Y-0.218 Z0.0008
N5345 X0.6428 Y-0.2164 Z0.0016
N5350 X0.6417 Y-0.2149 Z0.0025
N5355 X0.6403 Y-0.2138 Z0.0033
N5360 X0.6386 Y-0.2132 Z0.0041
N5365 X0.6368 Y-0.2129 Z0.0049
N5370 X0.6299 Y-0.2198
N5375 Z0.1969
N5380 Z-0.3986
N5385 Z-0.4774
N5390 X0.6407 Y-0.2306
N5395 G3 X0.6516 Y-0.2198 Z-0.4724 I0. J0.0108
N5400 X0.6083 Z-0.4528 I-0.0217 J0.
N5405 X0.6516 Z-0.4331 I0.0217 J0.
N5410 X0.6083 Z-0.4134 I-0.0217 J0.
N5415 X0.6516 Z-0.3937 I0.0217 J0.
N5420 X0.6083 Z-0.374 I-0.0217 J0.
N5425 X0.6516 Z-0.3543 I0.0217 J0.
N5430 X0.6083 Z-0.3346 I-0.0217 J0.
N5435 X0.6516 Z-0.315 I0.0217 J0.
N5440 X0.6083 Z-0.2953 I-0.0217 J0.
N5445 X0.6516 Z-0.2756 I0.0217 J0.
N5450 X0.6083 Z-0.2559 I-0.0217 J0.
N5455 X0.6516 Z-0.2362 I0.0217 J0.
N5460 X0.6083 Z-0.2165 I-0.0217 J0.
N5465 X0.6516 Z-0.1969 I0.0217 J0.
N5470 X0.6083 Z-0.1772 I-0.0217 J0.
N5475 X0.6516 Z-0.1575 I0.0217 J0.
N5480 X0.6083 Z-0.1378 I-0.0217 J0.
N5485 X0.6516 Z-0.1181 I0.0217 J0.
N5490 X0.6083 Z-0.0984 I-0.0217 J0.
N5495 X0.6516 Z-0.0787 I0.0217 J0.
N5500 X0.6083 Z-0.0591 I-0.0217 J0.
N5505 X0.6516 Z-0.0394 I0.0217 J0.
N5510 X0.6083 Z-0.0197 I-0.0217 J0.
N5515 X0.6516 Z0. I0.0217 J0.
N5520 X0.6407 Y-0.209 Z0.0049 I-0.0108 J0.
N5525 G1 X0.6299 Y-0.2198
N5530 Z0.1969
N5535 Y-0.6398
N5540 Z-0.3986
N5545 Z-0.4774
N5550 X0.6368 Y-0.6467
N5555 X0.6386 Y-0.6464 Z-0.4765
N5560 X0.6403 Y-0.6457 Z-0.4757
N5565 X0.6417 Y-0.6446 Z-0.4749
N5570 X0.6428 Y-0.6432 Z-0.4741
N5575 X0.6435 Y-0.6415 Z-0.4733
N5580 X0.6437 Y-0.6398 Z-0.4724
N5585 G3 X0.6161 Z-0.4528 I-0.0138 J0.
N5590 X0.6437 Z-0.4331 I0.0138 J0.
N5595 X0.6161 Z-0.4134 I-0.0138 J0.
N5600 X0.6437 Z-0.3937 I0.0138 J0.
N5605 X0.6161 Z-0.374 I-0.0138 J0.
N5610 X0.6437 Z-0.3543 I0.0138 J0.
N5615 X0.6161 Z-0.3346 I-0.0138 J0.
N5620 X0.6437 Z-0.315 I0.0138 J0.
N5625 X0.6161 Z-0.2953 I-0.0138 J0.
N5630 X0.6437 Z-0.2756 I0.0138 J0.
N5635 X0.6161 Z-0.2559 I-0.0138 J0.
N5640 X0.6437 Z-0.2362 I0.0138 J0.
N5645 X0.6161 Z-0.2165 I-0.0138 J0.
N5650 X0.6437 Z-0.1969 I0.0138 J0.
N5655 X0.6161 Z-0.1772 I-0.0138 J0.
N5660 X0.6437 Z-0.1575 I0.0138 J0.
N5665 X0.6161 Z-0.1378 I-0.0138 J0.
N5670 X0.6437 Z-0.1181 I0.0138 J0.
N5675 X0.6161 Z-0.0984 I-0.0138 J0.
N5680 X0.6437 Z-0.0787 I0.0138 J0.
N5685 X0.6161 Z-0.0591 I-0.0138 J0.
N5690 X0.6437 Z-0.0394 I0.0138 J0.
N5695 X0.6161 Z-0.0197 I-0.0138 J0.
N5700 X0.6437 Z0. I0.0138 J0.
N5705 G1 X0.6435 Y-0.638 Z0.0008
N5710 X0.6428 Y-0.6363 Z0.0016
N5715 X0.6417 Y-0.6349 Z0.0025
N5720 X0.6403 Y-0.6338 Z0.0033
N5725 X0.6386 Y-0.6331 Z0.0041
N5730 X0.6368 Y-0.6329 Z0.0049
N5735 X0.6299 Y-0.6398
N5740 Z0.1969
N5745 Z-0.3986
N5750 Z-0.4774
N5755 X0.6407 Y-0.6506
N5760 G3 X0.6516 Y-0.6398 Z-0.4724 I0. J0.0108
N5765 X0.6083 Z-0.4528 I-0.0217 J0.
N5770 X0.6516 Z-0.4331 I0.0217 J0.
N5775 X0.6083 Z-0.4134 I-0.0217 J0.
N5780 X0.6516 Z-0.3937 I0.0217 J0.
N5785 X0.6083 Z-0.374 I-0.0217 J0.
N5790 X0.6516 Z-0.3543 I0.0217 J0.
N5795 X0.6083 Z-0.3346 I-0.0217 J0.
N5800 X0.6516 Z-0.315 I0.0217 J0.
N5805 X0.6083 Z-0.2953 I-0.0217 J0.
N5810 X0.6516 Z-0.2756 I0.0217 J0.
N5815 X0.6083 Z-0.2559 I-0.0217 J0.
N5820 X0.6516 Z-0.2362 I0.0217 J0.
N5825 X0.6083 Z-0.2165 I-0.0217 J0.
N5830 X0.6516 Z-0.1969 I0.0217 J0.
N5835 X0.6083 Z-0.1772 I-0.0217 J0.
N5840 X0.6516 Z-0.1575 I0.0217 J0.
N5845 X0.6083 Z-0.1378 I-0.0217 J0.
N5850 X0.6516 Z-0.1181 I0.0217 J0.
N5855 X0.6083 Z-0.0984 I-0.0217 J0.
N5860 X0.6516 Z-0.0787 I0.0217 J0.
N5865 X0.6083 Z-0.0591 I-0.0217 J0.
N5870 X0.6516 Z-0.0394 I0.0217 J0.
N5875 X0.6083 Z-0.0197 I-0.0217 J0.
N5880 X0.6516 Z0. I0.0217 J0.
N5885 X0.6407 Y-0.6289 Z0.0049 I-0.0108 J0.
N5890 G1 X0.6299 Y-0.6398
N5895 Z0.1969
N5900 X1.2598
N5905 Z-0.3986
N5910 Z-0.4774
N5915 X1.2667 Y-0.6467
N5920 X1.2685 Y-0.6464 Z-0.4765
N5925 X1.2702 Y-0.6457 Z-0.4757
N5930 X1.2716 Y-0.6446 Z-0.4749
N5935 X1.2727 Y-0.6432 Z-0.4741
N5940 X1.2734 Y-0.6415 Z-0.4733
N5945 X1.2736 Y-0.6398 Z-0.4724
N5950 G3 X1.2461 Z-0.4528 I-0.0138 J0.
N5955 X1.2736 Z-0.4331 I0.0138 J0.
N5960 X1.2461 Z-0.4134 I-0.0138 J0.
N5965 X1.2736 Z-0.3937 I0.0138 J0.
N5970 X1.2461 Z-0.374 I-0.0138 J0.
N5975 X1.2736 Z-0.3543 I0.0138 J0.
N5980 X1.2461 Z-0.3346 I-0.0138 J0.
N5985 X1.2736 Z-0.315 I0.0138 J0.
N5990 X1.2461 Z-0.2953 I-0.0138 J0.
N5995 X1.2736 Z-0.2756 I0.0138 J0.
N6000 X1.2461 Z-0.2559 I-0.0138 J0.
N6005 X1.2736 Z-0.2362 I0.0138 J0.
N6010 X1.2461 Z-0.2165 I-0.0138 J0.
N6015 X1.2736 Z-0.1969 I0.0138 J0.
N6020 X1.2461 Z-0.1772 I-0.0138 J0.
N6025 X1.2736 Z-0.1575 I0.0138 J0.
N6030 X1.2461 Z-0.1378 I-0.0138 J0.
N6035 X1.2736 Z-0.1181 I0.0138 J0.
N6040 X1.2461 Z-0.0984 I-0.0138 J0.
N6045 X1.2736 Z-0.0787 I0.0138 J0.
N6050 X1.2461 Z-0.0591 I-0.0138 J0.
N6055 X1.2736 Z-0.0394 I0.0138 J0.
N6060 X1.2461 Z-0.0197 I-0.0138 J0.
N6065 X1.2736 Z0. I0.0138 J0.
N6070 G1 X1.2734 Y-0.638 Z0.0008
N6075 X1.2727 Y-0.6363 Z0.0016
N6080 X1.2716 Y-0.6349 Z0.0025
N6085 X1.2702 Y-0.6338 Z0.0033
N6090 X1.2685 Y-0.6331 Z0.0041
N6095 X1.2667 Y-0.6329 Z0.0049
N6100 X1.2598 Y-0.6398
N6105 Z0.1969
N6110 Z-0.3986
N6115 Z-0.4774
N6120 X1.2707 Y-0.6506
N6125 G3 X1.2815 Y-0.6398 Z-0.4724 I0. J0.0108
N6130 X1.2382 Z-0.4528 I-0.0217 J0.
N6135 X1.2815 Z-0.4331 I0.0217 J0.
N6140 X1.2382 Z-0.4134 I-0.0217 J0.
N6145 X1.2815 Z-0.3937 I0.0217 J0.
N6150 X1.2382 Z-0.374 I-0.0217 J0.
N6155 X1.2815 Z-0.3543 I0.0217 J0.
N6160 X1.2382 Z-0.3346 I-0.0217 J0.
N6165 X1.2815 Z-0.315 I0.0217 J0.
N6170 X1.2382 Z-0.2953 I-0.0217 J0.
N6175 X1.2815 Z-0.2756 I0.0217 J0.
N6180 X1.2382 Z-0.2559 I-0.0217 J0.
N6185 X1.2815 Z-0.2362 I0.0217 J0.
N6190 X1.2382 Z-0.2165 I-0.0217 J0.
N6195 X1.2815 Z-0.1969 I0.0217 J0.
N6200 X1.2382 Z-0.1772 I-0.0217 J0.
N6205 X1.2815 Z-0.1575 I0.0217 J0.
N6210 X1.2382 Z-0.1378 I-0.0217 J0.
N6215 X1.2815 Z-0.1181 I0.0217 J0.
N6220 X1.2382 Z-0.0984 I-0.0217 J0.
N6225 X1.2815 Z-0.0787 I0.0217 J0.
N6230 X1.2382 Z-0.0591 I-0.0217 J0.
N6235 X1.2815 Z-0.0394 I0.0217 J0.
N6240 X1.2382 Z-0.0197 I-0.0217 J0.
N6245 X1.2815 Z0. I0.0217 J0.
N6250 X1.2707 Y-0.6289 Z0.0049 I-0.0108 J0.
N6255 G1 X1.2598 Y-0.6398
N6260 Z0.1969
N6265 Y-0.2198
N6270 Z-0.3986
N6275 Z-0.4774
N6280 X1.2667 Y-0.2267
N6285 X1.2685 Y-0.2265 Z-0.4765
N6290 X1.2702 Y-0.2258 Z-0.4757
N6295 X1.2716 Y-0.2247 Z-0.4749
N6300 X1.2727 Y-0.2233 Z-0.4741
N6305 X1.2734 Y-0.2216 Z-0.4733
N6310 X1.2736 Y-0.2198 Z-0.4724
N6315 G3 X1.2461 Z-0.4528 I-0.0138 J0.
N6320 X1.2736 Z-0.4331 I0.0138 J0.
N6325 X1.2461 Z-0.4134 I-0.0138 J0.
N6330 X1.2736 Z-0.3937 I0.0138 J0.
N6335 X1.2461 Z-0.374 I-0.0138 J0.
N6340 X1.2736 Z-0.3543 I0.0138 J0.
N6345 X1.2461 Z-0.3346 I-0.0138 J0.
N6350 X1.2736 Z-0.315 I0.0138 J0.
N6355 X1.2461 Z-0.2953 I-0.0138 J0.
N6360 X1.2736 Z-0.2756 I0.0138 J0.
N6365 X1.2461 Z-0.2559 I-0.0138 J0.
N6370 X1.2736 Z-0.2362 I0.0138 J0.
N6375 X1.2461 Z-0.2165 I-0.0138 J0.
N6380 X1.2736 Z-0.1969 I0.0138 J0.
N6385 X1.2461 Z-0.1772 I-0.0138 J0.
N6390 X1.2736 Z-0.1575 I0.0138 J0.
N6395 X1.2461 Z-0.1378 I-0.0138 J0.
N6400 X1.2736 Z-0.1181 I0.0138 J0.
N6405 X1.2461 Z-0.0984 I-0.0138 J0.
N6410 X1.2736 Z-0.0787 I0.0138 J0.
N6415 X1.2461 Z-0.0591 I-0.0138 J0.
N6420 X1.2736 Z-0.0394 I0.0138 J0.
N6425 X1.2461 Z-0.0197 I-0.0138 J0.
N6430 X1.2736 Z0. I0.0138 J0.
N6435 G1 X1.2734 Y-0.218 Z0.0008
N6440 X1.2727 Y-0.2164 Z0.0016
N6445 X1.2716 Y-0.2149 Z0.0025
N6450 X1.2702 Y-0.2138 Z0.0033
N6455 X1.2685 Y-0.2132 Z0.0041
N6460 X1.2667 Y-0.2129 Z0.0049
N6465 X1.2598 Y-0.2198
N6470 Z0.1969
N6475 Z-0.3986
N6480 Z-0.4774
N6485 X1.2707 Y-0.2306
N6490 G3 X1.2815 Y-0.2198 Z-0.4724 I0. J0.0108
N6495 X1.2382 Z-0.4528 I-0.0217 J0.
N6500 X1.2815 Z-0.4331 I0.0217 J0.
N6505 X1.2382 Z-0.4134 I-0.0217 J0.
N6510 X1.2815 Z-0.3937 I0.0217 J0.
N6515 X1.2382 Z-0.374 I-0.0217 J0.
N6520 X1.2815 Z-0.3543 I0.0217 J0.
N6525 X1.2382 Z-0.3346 I-0.0217 J0.
N6530 X1.2815 Z-0.315 I0.0217 J0.
N6535 X1.2382 Z-0.2953 I-0.0217 J0.
N6540 X1.2815 Z-0.2756 I0.0217 J0.
N6545 X1.2382 Z-0.2559 I-0.0217 J0.
N6550 X1.2815 Z-0.2362 I0.0217 J0.
N6555 X1.2382 Z-0.2165 I-0.0217 J0.
N6560 X1.2815 Z-0.1969 I0.0217 J0.
N6565 X1.2382 Z-0.1772 I-0.0217 J0.
N6570 X1.2815 Z-0.1575 I0.0217 J0.
N6575 X1.2382 Z-0.1378 I-0.0217 J0.
N6580 X1.2815 Z-0.1181 I0.0217 J0.
N6585 X1.2382 Z-0.0984 I-0.0217 J0.
N6590 X1.2815 Z-0.0787 I0.0217 J0.
N6595 X1.2382 Z-0.0591 I-0.0217 J0.
N6600 X1.2815 Z-0.0394 I0.0217 J0.
N6605 X1.2382 Z-0.0197 I-0.0217 J0.
N6610 X1.2815 Z0. I0.0217 J0.
N6615 X1.2707 Y-0.209 Z0.0049 I-0.0108 J0.
N6620 G1 X1.2598 Y-0.2198
N6625 Z0.1969
N6630 Y0.2001
N6635 Z-0.3986
N6640 Z-0.4774
N6645 X1.2667 Y0.1932
N6650 X1.2685 Y0.1935 Z-0.4765
N6655 X1.2702 Y0.1942 Z-0.4757
N6660 X1.2716 Y0.1953 Z-0.4749
N6665 X1.2727 Y0.1967 Z-0.4741
N6670 X1.2734 Y0.1983 Z-0.4733
N6675 X1.2736 Y0.2001 Z-0.4724
N6680 G3 X1.2461 Z-0.4528 I-0.0138 J0.
N6685 X1.2736 Z-0.4331 I0.0138 J0.
N6690 X1.2461 Z-0.4134 I-0.0138 J0.
N6695 X1.2736 Z-0.3937 I0.0138 J0.
N6700 X1.2461 Z-0.374 I-0.0138 J0.
N6705 X1.2736 Z-0.3543 I0.0138 J0.
N6710 X1.2461 Z-0.3346 I-0.0138 J0.
N6715 X1.2736 Z-0.315 I0.0138 J0.
N6720 X1.2461 Z-0.2953 I-0.0138 J0.
N6725 X1.2736 Z-0.2756 I0.0138 J0.
N6730 X1.2461 Z-0.2559 I-0.0138 J0.
N6735 X1.2736 Z-0.2362 I0.0138 J0.
N6740 X1.2461 Z-0.2165 I-0.0138 J0.
N6745 X1.2736 Z-0.1969 I0.0138 J0.
N6750 X1.2461 Z-0.1772 I-0.0138 J0.
N6755 X1.2736 Z-0.1575 I0.0138 J0.
N6760 X1.2461 Z-0.1378 I-0.0138 J0.
N6765 X1.2736 Z-0.1181 I0.0138 J0.
N6770 X1.2461 Z-0.0984 I-0.0138 J0.
N6775 X1.2736 Z-0.0787 I0.0138 J0.
N6780 X1.2461 Z-0.0591 I-0.0138 J0.
N6785 X1.2736 Z-0.0394 I0.0138 J0.
N6790 X1.2461 Z-0.0197 I-0.0138 J0.
N6795 X1.2736 Z0. I0.0138 J0.
N6800 G1 X1.2734 Y0.2019 Z0.0008
N6805 X1.2727 Y0.2036 Z0.0016
N6810 X1.2716 Y0.205 Z0.0025
N6815 X1.2702 Y0.2061 Z0.0033
N6820 X1.2685 Y0.2068 Z0.0041
N6825 X1.2667 Y0.207 Z0.0049
N6830 X1.2598 Y0.2001
N6835 Z0.1969
N6840 Z-0.3986
N6845 Z-0.4774
N6850 X1.2707 Y0.1893
N6855 G3 X1.2815 Y0.2001 Z-0.4724 I0. J0.0108
N6860 X1.2382 Z-0.4528 I-0.0217 J0.
N6865 X1.2815 Z-0.4331 I0.0217 J0.
N6870 X1.2382 Z-0.4134 I-0.0217 J0.
N6875 X1.2815 Z-0.3937 I0.0217 J0.
N6880 X1.2382 Z-0.374 I-0.0217 J0.
N6885 X1.2815 Z-0.3543 I0.0217 J0.
N6890 X1.2382 Z-0.3346 I-0.0217 J0.
N6895 X1.2815 Z-0.315 I0.0217 J0.
N6900 X1.2382 Z-0.2953 I-0.0217 J0.
N6905 X1.2815 Z-0.2756 I0.0217 J0.
N6910 X1.2382 Z-0.2559 I-0.0217 J0.
N6915 X1.2815 Z-0.2362 I0.0217 J0.
N6920 X1.2382 Z-0.2165 I-0.0217 J0.
N6925 X1.2815 Z-0.1969 I0.0217 J0.
N6930 X1.2382 Z-0.1772 I-0.0217 J0.
N6935 X1.2815 Z-0.1575 I0.0217 J0.
N6940 X1.2382 Z-0.1378 I-0.0217 J0.
N6945 X1.2815 Z-0.1181 I0.0217 J0.
N6950 X1.2382 Z-0.0984 I-0.0217 J0.
N6955 X1.2815 Z-0.0787 I0.0217 J0.
N6960 X1.2382 Z-0.0591 I-0.0217 J0.
N6965 X1.2815 Z-0.0394 I0.0217 J0.
N6970 X1.2382 Z-0.0197 I-0.0217 J0.
N6975 X1.2815 Z0. I0.0217 J0.
N6980 X1.2707 Y0.211 Z0.0049 I-0.0108 J0.
N6985 G1 X1.2598 Y0.2001
N6990 Z0.1969
N6995 Y0.6201
N7000 Z-0.3986
N7005 Z-0.4774
N7010 X1.2667 Y0.6132
N7015 X1.2685 Y0.6134 Z-0.4765
N7020 X1.2702 Y0.6141 Z-0.4757
N7025 X1.2716 Y0.6152 Z-0.4749
N7030 X1.2727 Y0.6166 Z-0.4741
N7035 X1.2734 Y0.6183 Z-0.4733
N7040 X1.2736 Y0.6201 Z-0.4724
N7045 G3 X1.2461 Z-0.4528 I-0.0138 J0.
N7050 X1.2736 Z-0.4331 I0.0138 J0.
N7055 X1.2461 Z-0.4134 I-0.0138 J0.
N7060 X1.2736 Z-0.3937 I0.0138 J0.
N7065 X1.2461 Z-0.374 I-0.0138 J0.
N7070 X1.2736 Z-0.3543 I0.0138 J0.
N7075 X1.2461 Z-0.3346 I-0.0138 J0.
N7080 X1.2736 Z-0.315 I0.0138 J0.
N7085 X1.2461 Z-0.2953 I-0.0138 J0.
N7090 X1.2736 Z-0.2756 I0.0138 J0.
N7095 X1.2461 Z-0.2559 I-0.0138 J0.
N7100 X1.2736 Z-0.2362 I0.0138 J0.
N7105 X1.2461 Z-0.2165 I-0.0138 J0.
N7110 X1.2736 Z-0.1969 I0.0138 J0.
N7115 X1.2461 Z-0.1772 I-0.0138 J0.
N7120 X1.2736 Z-0.1575 I0.0138 J0.
N7125 X1.2461 Z-0.1378 I-0.0138 J0.
N7130 X1.2736 Z-0.1181 I0.0138 J0.
N7135 X1.2461 Z-0.0984 I-0.0138 J0.
N7140 X1.2736 Z-0.0787 I0.0138 J0.
N7145 X1.2461 Z-0.0591 I-0.0138 J0.
N7150 X1.2736 Z-0.0394 I0.0138 J0.
N7155 X1.2461 Z-0.0197 I-0.0138 J0.
N7160 X1.2736 Z0. I0.0138 J0.
N7165 G1 X1.2734 Y0.6219 Z0.0008
N7170 X1.2727 Y0.6235 Z0.0016
N7175 X1.2716 Y0.625 Z0.0025
N7180 X1.2702 Y0.626 Z0.0033
N7185 X1.2685 Y0.6267 Z0.0041
N7190 X1.2667 Y0.627 Z0.0049
N7195 X1.2598 Y0.6201
N7200 Z0.1969
N7205 Z-0.3986
N7210 Z-0.4774
N7215 X1.2707 Y0.6093
N7220 G3 X1.2815 Y0.6201 Z-0.4724 I0. J0.0108
N7225 X1.2382 Z-0.4528 I-0.0217 J0.
N7230 X1.2815 Z-0.4331 I0.0217 J0.
N7235 X1.2382 Z-0.4134 I-0.0217 J0.
N7240 X1.2815 Z-0.3937 I0.0217 J0.
N7245 X1.2382 Z-0.374 I-0.0217 J0.
N7250 X1.2815 Z-0.3543 I0.0217 J0.
N7255 X1.2382 Z-0.3346 I-0.0217 J0.
N7260 X1.2815 Z-0.315 I0.0217 J0.
N7265 X1.2382 Z-0.2953 I-0.0217 J0.
N7270 X1.2815 Z-0.2756 I0.0217 J0.
N7275 X1.2382 Z-0.2559 I-0.0217 J0.
N7280 X1.2815 Z-0.2362 I0.0217 J0.
N7285 X1.2382 Z-0.2165 I-0.0217 J0.
N7290 X1.2815 Z-0.1969 I0.0217 J0.
N7295 X1.2382 Z-0.1772 I-0.0217 J0.
N7300 X1.2815 Z-0.1575 I0.0217 J0.
N7305 X1.2382 Z-0.1378 I-0.0217 J0.
N7310 X1.2815 Z-0.1181 I0.0217 J0.
N7315 X1.2382 Z-0.0984 I-0.0217 J0.
N7320 X1.2815 Z-0.0787 I0.0217 J0.
N7325 X1.2382 Z-0.0591 I-0.0217 J0.
N7330 X1.2815 Z-0.0394 I0.0217 J0.
N7335 X1.2382 Z-0.0197 I-0.0217 J0.
N7340 X1.2815 Z0. I0.0217 J0.
N7345 X1.2707 Y0.6309 Z0.0049 I-0.0108 J0.
N7350 G1 X1.2598 Y0.6201
N7355 Z0.5906
N7360 M9
N7365 M5
N7370 G53 G0 Z0.
N7375 M30
%
