N10 G90 G94 G17 G91.1
N20 G20
N30 T16 M6 G43
N40 S15000.0000
N50 M3
N60 G54
N70 F366.0000
N80 G0 X-0.9496 Y2.1171
N90 G0 Z0.8600
N100 G18 G2 X-0.7421 Z0.6525 I0.2075
N110 G1 X3.2500
N120 G17 G2 Y1.4921 J-0.3125
N130 G1 X-0.2500
N140 G17 G3 Y0.8671 J-0.3125
N150 G1 X3.2500
N160 G17 G2 Y0.2421 J-0.3125
N170 G1 X-0.2500
N180 G18 G3 X-0.4575 Z0.8600 K0.2075
N190 G0 Z1.0000
N200 G0 X-0.9496 Y2.1171
N210 G0 Z0.8525
N220 G18 G2 X-0.7421 Z0.6450 I0.2075
N230 G1 X3.2500
N240 G17 G2 Y1.4921 J-0.3125
N250 G1 X-0.2500
N260 G17 G3 Y0.8671 J-0.3125
N270 G1 X3.2500
N280 G17 G2 Y0.2421 J-0.3125
N290 G1 X-0.2500
N300 G18 G3 X-0.4575 Z0.8525 K0.2075
N310 G0 Z1.0000
N320 G0 X-0.9496 Y2.1171
N330 G0 Z0.8450
N340 G18 G2 X-0.7421 Z0.6375 I0.2075
N350 G1 X3.2500
N360 G17 G2 Y1.4921 J-0.3125
N370 G1 X-0.2500
N380 G17 G3 Y0.8671 J-0.3125
N390 G1 X3.2500
N400 G17 G2 Y0.2421 J-0.3125
N410 G1 X-0.2500
N420 G18 G3 X-0.4575 Z0.8450 K0.2075
N430 G0 Z1.0000
N440 G0 X-0.9496 Y2.1171
N450 G0 Z0.8375
N460 G18 G2 X-0.7421 Z0.6300 I0.2075
N470 G1 X3.2500
N480 G17 G2 Y1.4921 J-0.3125
N490 G1 X-0.2500
N500 G17 G3 Y0.8671 J-0.3125
N510 G1 X3.2500
N520 G17 G2 Y0.2421 J-0.3125
N530 G1 X-0.2500
N540 G18 G3 X-0.4575 Z0.8375 K0.2075
N550 M9
N560 G0 Z1.0000
N570 G53 G0 Z0
N580 M30
N590 %