N10 G90 G94 G17 G91.1
N20 G20
N30 T16 M6 G43
N40 S12164.0000
N50 M3
N60 G54
N70 F366.0000
N80 G0 X-0.9496 Y1.9088
N90 G0 Z0.8600
N100 G18 G2 X-0.7421 Z0.6525 I0.2075
N110 G1 X3.2500
N120 G17 G2 Y1.0755 J-0.4167
N130 G1 X-0.2500
N140 G17 G3 Y0.2421 J-0.4167
N150 G1 X3.2500
N160 G18 G2 X3.4575 Z0.8600 K0.2075
N170 G0 Z1.0000
N180 G0 X-0.9496 Y1.9088
N190 G0 Z0.8525
N200 G18 G2 X-0.7421 Z0.6450 I0.2075
N210 G1 X3.2500
N220 G17 G2 Y1.0755 J-0.4167
N230 G1 X-0.2500
N240 G17 G3 Y0.2421 J-0.4167
N250 G1 X3.2500
N260 G18 G2 X3.4575 Z0.8525 K0.2075
N270 G0 Z1.0000
N280 G0 X-0.9496 Y1.9088
N290 G0 Z0.8450
N300 G18 G2 X-0.7421 Z0.6375 I0.2075
N310 G1 X3.2500
N320 G17 G2 Y1.0755 J-0.4167
N330 G1 X-0.2500
N340 G17 G3 Y0.2421 J-0.4167
N350 G1 X3.2500
N360 G18 G2 X3.4575 Z0.8450 K0.2075
N370 G0 Z1.0000
N380 G0 X-0.9496 Y1.9088
N390 G0 Z0.8375
N400 G18 G2 X-0.7421 Z0.6300 I0.2075
N410 G1 X3.2500
N420 G17 G2 Y1.0755 J-0.4167
N430 G1 X-0.2500
N440 G17 G3 Y0.2421 J-0.4167
N450 G1 X3.2500
N460 G18 G2 X3.4575 Z0.8375 K0.2075
N470 M9
N480 G0 Z1.0000
N490 G53 G0 Z0
N500 M30
N510 %