N10 G90 G94 G17 G91.1
N20 G20
N30 T12 M6 G43
N40 S10000.0000
N50 M3
N60 G54
N70 F50.0000
N80 G0 X-0.6994 Y1.6346
N90 G0 Z0.5000
N100 G18 G2 X-0.1984 Z-0.0010 I0.5010
N110 G1 X6.6000
N120 G17 G2 Y1.4009 J-0.1169
N130 G1 X0.0000
N140 G17 G3 Y1.1672 J-0.1169
N150 G1 X6.6000
N160 G17 G2 Y0.9334 J-0.1169
N170 G1 X0.0000
N180 G17 G3 Y0.6997 J-0.1169
N190 G1 X6.6000
N200 G17 G2 Y0.4659 J-0.1169
N210 G1 X0.0000
N220 G17 G3 Y0.2322 J-0.1169
N230 G1 X6.6000
N240 G17 G2 Y-0.0016 J-0.1169
N250 G1 X0.0000
N260 G18 G3 X-0.5010 Z0.5000 K0.5010
N270 G0 Z2.0000
N280 G0 X-0.6994 Y1.6346
N290 G0 Z0.4990
N300 G18 G2 X-0.1984 Z-0.0020 I0.5010
N310 G1 X6.6000
N320 G17 G2 Y1.4009 J-0.1169
N330 G1 X0.0000
N340 G17 G3 Y1.1672 J-0.1169
N350 G1 X6.6000
N360 G17 G2 Y0.9334 J-0.1169
N370 G1 X0.0000
N380 G17 G3 Y0.6997 J-0.1169
N390 G1 X6.6000
N400 G17 G2 Y0.4659 J-0.1169
N410 G1 X0.0000
N420 G17 G3 Y0.2322 J-0.1169
N430 G1 X6.6000
N440 G17 G2 Y-0.0016 J-0.1169
N450 G1 X0.0000
N460 G18 G3 X-0.5010 Z0.4990 K0.5010
N470 G0 Z2.0000
N480 G0 X-0.6994 Y1.6346
N490 G0 Z0.4980
N500 G18 G2 X-0.1984 Z-0.0030 I0.5010
N510 G1 X6.6000
N520 G17 G2 Y1.4009 J-0.1169
N530 G1 X0.0000
N540 G17 G3 Y1.1672 J-0.1169
N550 G1 X6.6000
N560 G17 G2 Y0.9334 J-0.1169
N570 G1 X0.0000
N580 G17 G3 Y0.6997 J-0.1169
N590 G1 X6.6000
N600 G17 G2 Y0.4659 J-0.1169
N610 G1 X0.0000
N620 G17 G3 Y0.2322 J-0.1169
N630 G1 X6.6000
N640 G17 G2 Y-0.0016 J-0.1169
N650 G1 X0.0000
N660 G18 G3 X-0.5010 Z0.4980 K0.5010
N670 M9
N680 G0 Z2.0000
N690 G53 G0 Z0
N700 M30
N710 %