N10 G90 G94 G17 G91.1
N20 G20
N30 T16 M6 G43
N40 S15000.0000
N50 M3
N60 G54
N70 F150.0000
N80 G0 X-1.6996 Y6.5171
N90 G0 Z0.8300
N100 G18 G2 X-1.4921 Z0.6225 I0.2075
N110 G1 X7.6600
N120 G17 G2 Y5.7921 J-0.3625
N130 G1 X-1.0000
N140 G17 G3 Y5.0671 J-0.3625
N150 G1 X7.6600
N160 G17 G2 Y4.3421 J-0.3625
N170 G1 X-1.0000
N180 G17 G3 Y3.6171 J-0.3625
N190 G1 X7.6600
N200 G17 G2 Y2.8921 J-0.3625
N210 G1 X-1.0000
N220 G17 G3 Y2.1671 J-0.3625
N230 G1 X7.6600
N240 G17 G2 Y1.4421 J-0.3625
N250 G1 X-1.0000
N260 G17 G3 Y0.7171 J-0.3625
N270 G1 X7.6600
N280 G17 G2 Y-0.0079 J-0.3625
N290 G1 X-1.0000
N300 G18 G3 X-1.2075 Z0.8300 K0.2075
N310 G0 Z1.0000
N320 G0 X-1.6996 Y6.5171
N330 G0 Z0.8225
N340 G18 G2 X-1.4921 Z0.6150 I0.2075
N350 G1 X7.6600
N360 G17 G2 Y5.7921 J-0.3625
N370 G1 X-1.0000
N380 G17 G3 Y5.0671 J-0.3625
N390 G1 X7.6600
N400 G17 G2 Y4.3421 J-0.3625
N410 G1 X-1.0000
N420 G17 G3 Y3.6171 J-0.3625
N430 G1 X7.6600
N440 G17 G2 Y2.8921 J-0.3625
N450 G1 X-1.0000
N460 G17 G3 Y2.1671 J-0.3625
N470 G1 X7.6600
N480 G17 G2 Y1.4421 J-0.3625
N490 G1 X-1.0000
N500 G17 G3 Y0.7171 J-0.3625
N510 G1 X7.6600
N520 G17 G2 Y-0.0079 J-0.3625
N530 G1 X-1.0000
N540 G18 G3 X-1.2075 Z0.8225 K0.2075
N550 G0 Z1.0000
N560 G0 X-1.6996 Y6.5171
N570 G0 Z0.8150
N580 G18 G2 X-1.4921 Z0.6075 I0.2075
N590 G1 X7.6600
N600 G17 G2 Y5.7921 J-0.3625
N610 G1 X-1.0000
N620 G17 G3 Y5.0671 J-0.3625
N630 G1 X7.6600
N640 G17 G2 Y4.3421 J-0.3625
N650 G1 X-1.0000
N660 G17 G3 Y3.6171 J-0.3625
N670 G1 X7.6600
N680 G17 G2 Y2.8921 J-0.3625
N690 G1 X-1.0000
N700 G17 G3 Y2.1671 J-0.3625
N710 G1 X7.6600
N720 G17 G2 Y1.4421 J-0.3625
N730 G1 X-1.0000
N740 G17 G3 Y0.7171 J-0.3625
N750 G1 X7.6600
N760 G17 G2 Y-0.0079 J-0.3625
N770 G1 X-1.0000
N780 G18 G3 X-1.2075 Z0.8150 K0.2075
N790 G0 Z1.0000
N800 G0 X-1.6996 Y6.5171
N810 G0 Z0.8075
N820 G18 G2 X-1.4921 Z0.6000 I0.2075
N830 G1 X7.6600
N840 G17 G2 Y5.7921 J-0.3625
N850 G1 X-1.0000
N860 G17 G3 Y5.0671 J-0.3625
N870 G1 X7.6600
N880 G17 G2 Y4.3421 J-0.3625
N890 G1 X-1.0000
N900 G17 G3 Y3.6171 J-0.3625
N910 G1 X7.6600
N920 G17 G2 Y2.8921 J-0.3625
N930 G1 X-1.0000
N940 G17 G3 Y2.1671 J-0.3625
N950 G1 X7.6600
N960 G17 G2 Y1.4421 J-0.3625
N970 G1 X-1.0000
N980 G17 G3 Y0.7171 J-0.3625
N990 G1 X7.6600
N1000 G17 G2 Y-0.0079 J-0.3625
N1010 G1 X-1.0000
N1020 G18 G3 X-1.2075 Z0.8075 K0.2075
N1030 M9
N1040 G0 Z1.0000
N1050 G53 G0 Z0
N1060 M30
N1070 %