N10 G90 G94 G17 G91.1
N20 G20
N30 T11 M6 G43
N40 S6000.0000
N50 M3
N60 G54
N70 F10.0000
N80 G0 X-0.5970 Y4.9920
N90 G0 Z0.1000
N100 G18 G2 X-0.4920 Z-0.0050 I0.1050
N110 G1 X24.0000
N120 G17 G2 Y4.4920 J-0.2500
N130 G1 X0.0000
N140 G17 G3 Y3.9920 J-0.2500
N150 G1 X24.0000
N160 G17 G2 Y3.4920 J-0.2500
N170 G1 X0.0000
N180 G17 G3 Y2.9920 J-0.2500
N190 G1 X24.0000
N200 G17 G2 Y2.4920 J-0.2500
N210 G1 X0.0000
N220 G17 G3 Y1.9920 J-0.2500
N230 G1 X24.0000
N240 G17 G2 Y1.4920 J-0.2500
N250 G1 X0.0000
N260 G17 G3 Y0.9920 J-0.2500
N270 G1 X24.0000
N280 G17 G2 Y0.4920 J-0.2500
N290 G1 X0.0000
N300 G18 G3 X-0.1050 Z0.1000 K0.1050
N310 G0 Z1.0000
N320 G0 X-0.5970 Y4.9920
N330 G0 Z0.0950
N340 G18 G2 X-0.4920 Z-0.0100 I0.1050
N350 G1 X24.0000
N360 G17 G2 Y4.4920 J-0.2500
N370 G1 X0.0000
N380 G17 G3 Y3.9920 J-0.2500
N390 G1 X24.0000
N400 G17 G2 Y3.4920 J-0.2500
N410 G1 X0.0000
N420 G17 G3 Y2.9920 J-0.2500
N430 G1 X24.0000
N440 G17 G2 Y2.4920 J-0.2500
N450 G1 X0.0000
N460 G17 G3 Y1.9920 J-0.2500
N470 G1 X24.0000
N480 G17 G2 Y1.4920 J-0.2500
N490 G1 X0.0000
N500 G17 G3 Y0.9920 J-0.2500
N510 G1 X24.0000
N520 G17 G2 Y0.4920 J-0.2500
N530 G1 X0.0000
N540 G18 G3 X-0.1050 Z0.0950 K0.1050
N550 M9
N560 G0 Z1.0000
N570 G53 G0 Z0
N580 M30
N590 %