(CASTERPLATE)
(MACHINE)
(  VENDOR LINUXCNC)
(  DESCRIPTION GENERIC CUTTING MACHINE)
N10 G21
N15 G90 G40
N20 G17 G91.1
N25 G64 P0.254 Q0.254
N30 M52 P1.
N35 M65 P2.
N40 M65 P3.
N45 M68 E3 Q0.

(2D PROFILE2)
(---------------------)
(- NORMAL OPERATION. -)
(---------------------)
(PLASMA CUTTING)
(THROUGH CUTTING)

N55 M66 P3. L3 Q1.
N60 F#<_hal[plasmac.cut-feed-rate]>
N65 G0 X9.001 Y10.017
N70 M3 $0 S1
N75 G1 Y11.033
N80 G3 J-2.032
N85 M5
N90 G0 X9.84718 Y66.35065
N95 M3 $0 S1
N100 G1 X10.69337 Y65.78831
N105 G3 I-1.69237 J1.12469
N110 M5
N115 G0 X66.35065 Y66.06682
N120 M3 $0 S1
N125 G1 X65.78831 Y65.22063
N130 G3 I1.12469 J1.69237
N135 M5
N140 G0 X66.89268 Y10.0168
N145 M3 $0 S1
N150 G1 X66.87236 Y11.03259
N155 G3 I0.04064 J-2.03159
N160 M5
N165 G0 X76.438
N170 M3 $0 S1
N175 G1 X75.422
N180 Y7.35
N185 G2 X68.564 Y0.492 I-6.85799
N190 G1 X7.35
N195 G2 X0.492 Y7.35 J6.858
N200 G1 Y68.564
N205 G2 X7.35 Y75.422 I6.858
N210 G1 X68.564
N215 G2 X75.422 Y68.564 J-6.85799
N220 G1 Y11.03259
N225 M5

N230 G0 X0. Y0.
N235 G90
N240 G40
N245 M65 P2.
N250 M65 P3.
N255 M68 E3 Q0.
N260 M5
N265 M30
