N10 G90 G94 G17 G91.1
N20 G20
N30 T11 M6 G43
N40 S15000.0000
N50 M3
N60 G54
N70 F100.0000
N80 G0 X-0.6930 Y2.2120
N90 G0 Z0.2000
N100 G18 G2 X-0.4920 Z-0.0010 I0.2010
N110 G1 X6.5000
N120 G17 G2 Y1.7820 J-0.2150
N130 G1 X0.0000
N140 G17 G3 Y1.3520 J-0.2150
N150 G1 X6.5000
N160 G17 G2 Y0.9220 J-0.2150
N170 G1 X0.0000
N180 G17 G3 Y0.4920 J-0.2150
N190 G1 X6.5000
N200 G18 G2 X6.7010 Z0.2000 K0.2010
N210 G0 Z1.0000
N220 G0 X-0.6930 Y2.2120
N230 G0 Z0.1990
N240 G18 G2 X-0.4920 Z-0.0020 I0.2010
N250 G1 X6.5000
N260 G17 G2 Y1.7820 J-0.2150
N270 G1 X0.0000
N280 G17 G3 Y1.3520 J-0.2150
N290 G1 X6.5000
N300 G17 G2 Y0.9220 J-0.2150
N310 G1 X0.0000
N320 G17 G3 Y0.4920 J-0.2150
N330 G1 X6.5000
N340 G18 G2 X6.7010 Z0.1990 K0.2010
N350 M9
N360 G0 Z1.0000
N370 G53 G0 Z0
N380 M30
N390 %