N10 G90 G94 G17 G91.1
N20 G20
N30 T11 M6 G43
N40 S15000.0000
N50 M3
N60 G54
N70 F100.0000
N80 G0 X-1.1930 Y2.4920
N90 G0 Z0.2000
N100 G18 G2 X-0.9920 Z-0.0010 I0.2010
N110 G1 X7.0000
N120 G17 G2 Y1.9920 J-0.2500
N130 G1 X-0.5000
N140 G17 G3 Y1.4920 J-0.2500
N150 G1 X7.0000
N160 G17 G2 Y0.9920 J-0.2500
N170 G1 X-0.5000
N180 G17 G3 Y0.4920 J-0.2500
N190 G1 X7.0000
N200 G17 G2 Y-0.0080 J-0.2500
N210 G1 X-0.5000
N220 G18 G3 X-0.7010 Z0.2000 K0.2010
N230 G0 Z1.0000
N240 G0 X-1.1930 Y2.4920
N250 G0 Z0.1990
N260 G18 G2 X-0.9920 Z-0.0020 I0.2010
N270 G1 X7.0000
N280 G17 G2 Y1.9920 J-0.2500
N290 G1 X-0.5000
N300 G17 G3 Y1.4920 J-0.2500
N310 G1 X7.0000
N320 G17 G2 Y0.9920 J-0.2500
N330 G1 X-0.5000
N340 G17 G3 Y0.4920 J-0.2500
N350 G1 X7.0000
N360 G17 G2 Y-0.0080 J-0.2500
N370 G1 X-0.5000
N380 G18 G3 X-0.7010 Z0.1990 K0.2010
N390 M9
N400 G0 Z1.0000
N410 G53 G0 Z0
N420 M30
N430 %