N10 G90 G94 G17 G91.1
N20 G20
N30 T5 M6 G43
N40 S6000.0000
N50 M3
N60 G54
N70 F3.3330
N80 G0 X0.0000 Y0.0000
N90 G0 Z1.0000
N100 G98 G83 R0.05000 Z-0.5000 Q0.1000 F2.0000
N105 X2.0000 Y0.0000
N110 X4.0000 Y0.0000
N120 X6.0000 Y0.0000
N130 X8.0000 Y0.0000
N140 X10.0000 Y0.0000
N150 X12.0000 Y0.0000
N160 X14.0000 Y0.0000
N170 X16.0000 Y0.0000
N180 X18.0000 Y0.0000
N190 X20.0000 Y0.0000
N200 X22.0000 Y0.0000
N210 X24.0000 Y0.0000
N220 X26.0000 Y0.0000
N230 X28.0000 Y0.0000
N240 X30.0000 Y0.0000
N250 G80
N260 M9
N270 G0 Z1.0000
N280 G53 G0 Z0
N290 M30
N300 %