N10 G90 G94 G17 G91.1
N20 G20
N30 T90 M6 G43
N40 S12000.0000
N50 M3
N60 G54
N70 F100.0000
N80 G0 X-0.7510 Y13.6522
N90 G0 Z0.2500
N100 G18 G2 X-0.5000 Z-0.0010 I0.2510
N110 G1 X24.0000
N120 G17 G2 Y13.0543 J-0.2989
N130 G1 X0.0000
N140 G17 G3 Y12.4565 J-0.2989
N150 G1 X24.0000
N160 G17 G2 Y11.8587 J-0.2989
N170 G1 X0.0000
N180 G17 G3 Y11.2609 J-0.2989
N190 G1 X24.0000
N200 G17 G2 Y10.6630 J-0.2989
N210 G1 X0.0000
N220 G17 G3 Y10.0652 J-0.2989
N230 G1 X24.0000
N240 G17 G2 Y9.4674 J-0.2989
N250 G1 X0.0000
N260 G17 G3 Y8.8696 J-0.2989
N270 G1 X24.0000
N280 G17 G2 Y8.2717 J-0.2989
N290 G1 X0.0000
N300 G17 G3 Y7.6739 J-0.2989
N310 G1 X24.0000
N320 G17 G2 Y7.0761 J-0.2989
N330 G1 X0.0000
N340 G17 G3 Y6.4783 J-0.2989
N350 G1 X24.0000
N360 G17 G2 Y5.8804 J-0.2989
N370 G1 X0.0000
N380 G17 G3 Y5.2826 J-0.2989
N390 G1 X24.0000
N400 G17 G2 Y4.6848 J-0.2989
N410 G1 X0.0000
N420 G17 G3 Y4.0870 J-0.2989
N430 G1 X24.0000
N440 G17 G2 Y3.4891 J-0.2989
N450 G1 X0.0000
N460 G17 G3 Y2.8913 J-0.2989
N470 G1 X24.0000
N480 G17 G2 Y2.2935 J-0.2989
N490 G1 X0.0000
N500 G17 G3 Y1.6957 J-0.2989
N510 G1 X24.0000
N520 G17 G2 Y1.0978 J-0.2989
N530 G1 X0.0000
N540 G17 G3 Y0.5000 J-0.2989
N550 G1 X24.0000
N560 G18 G2 X24.2510 Z0.2500 K0.2510
N570 G0 Z0.5000
N580 G0 X-0.7510 Y13.6522
N590 G0 Z0.2490
N600 G18 G2 X-0.5000 Z-0.0020 I0.2510
N610 G1 X24.0000
N620 G17 G2 Y13.0543 J-0.2989
N630 G1 X0.0000
N640 G17 G3 Y12.4565 J-0.2989
N650 G1 X24.0000
N660 G17 G2 Y11.8587 J-0.2989
N670 G1 X0.0000
N680 G17 G3 Y11.2609 J-0.2989
N690 G1 X24.0000
N700 G17 G2 Y10.6630 J-0.2989
N710 G1 X0.0000
N720 G17 G3 Y10.0652 J-0.2989
N730 G1 X24.0000
N740 G17 G2 Y9.4674 J-0.2989
N750 G1 X0.0000
N760 G17 G3 Y8.8696 J-0.2989
N770 G1 X24.0000
N780 G17 G2 Y8.2717 J-0.2989
N790 G1 X0.0000
N800 G17 G3 Y7.6739 J-0.2989
N810 G1 X24.0000
N820 G17 G2 Y7.0761 J-0.2989
N830 G1 X0.0000
N840 G17 G3 Y6.4783 J-0.2989
N850 G1 X24.0000
N860 G17 G2 Y5.8804 J-0.2989
N870 G1 X0.0000
N880 G17 G3 Y5.2826 J-0.2989
N890 G1 X24.0000
N900 G17 G2 Y4.6848 J-0.2989
N910 G1 X0.0000
N920 G17 G3 Y4.0870 J-0.2989
N930 G1 X24.0000
N940 G17 G2 Y3.4891 J-0.2989
N950 G1 X0.0000
N960 G17 G3 Y2.8913 J-0.2989
N970 G1 X24.0000
N980 G17 G2 Y2.2935 J-0.2989
N990 G1 X0.0000
N1000 G17 G3 Y1.6957 J-0.2989
N1010 G1 X24.0000
N1020 G17 G2 Y1.0978 J-0.2989
N1030 G1 X0.0000
N1040 G17 G3 Y0.5000 J-0.2989
N1050 G1 X24.0000
N1060 G18 G2 X24.2510 Z0.2490 K0.2510
N1070 M9
N1080 G0 Z0.5000
N1090 G53 G0 Z0
N1100 M30
N1110 %