N10 G90 G94 G17 G91.1
N20 G20
N30 T90 M6 G43
N40 S12000.0000
N50 M3
N60 G54
N70 F200.0000
N80 G0 X-0.7520 Y13.6667
N90 G0 Z0.2500
N100 G18 G2 X-0.5000 Z-0.0020 I0.2520
N110 G1 X24.0000
N120 G17 G2 Y13.0833 J-0.2917
N130 G1 X0.0000
N140 G17 G3 Y12.5000 J-0.2917
N150 G1 X24.0000
N160 G17 G2 Y11.9167 J-0.2917
N170 G1 X0.0000
N180 G17 G3 Y11.3333 J-0.2917
N190 G1 X24.0000
N200 G17 G2 Y10.7500 J-0.2917
N210 G1 X0.0000
N220 G17 G3 Y10.1667 J-0.2917
N230 G1 X24.0000
N240 G17 G2 Y9.5833 J-0.2917
N250 G1 X0.0000
N260 G17 G3 Y9.0000 J-0.2917
N270 G1 X24.0000
N280 G17 G2 Y8.4167 J-0.2917
N290 G1 X0.0000
N300 G17 G3 Y7.8333 J-0.2917
N310 G1 X24.0000
N320 G17 G2 Y7.2500 J-0.2917
N330 G1 X0.0000
N340 G17 G3 Y6.6667 J-0.2917
N350 G1 X24.0000
N360 G17 G2 Y6.0833 J-0.2917
N370 G1 X0.0000
N380 G17 G3 Y5.5000 J-0.2917
N390 G1 X24.0000
N400 G17 G2 Y4.9167 J-0.2917
N410 G1 X0.0000
N420 G17 G3 Y4.3333 J-0.2917
N430 G1 X24.0000
N440 G17 G2 Y3.7500 J-0.2917
N450 G1 X0.0000
N460 G17 G3 Y3.1667 J-0.2917
N470 G1 X24.0000
N480 G17 G2 Y2.5833 J-0.2917
N490 G1 X0.0000
N500 G17 G3 Y2.0000 J-0.2917
N510 G1 X24.0000
N520 G17 G2 Y1.4167 J-0.2917
N530 G1 X0.0000
N540 G17 G3 Y0.8333 J-0.2917
N550 G1 X24.0000
N560 G17 G2 Y0.2500 J-0.2917
N570 G1 X0.0000
N580 G18 G3 X-0.2520 Z0.2500 K0.2520
N590 G0 Z0.5000
N600 G0 X-0.7520 Y13.6667
N610 G0 Z0.2480
N620 G18 G2 X-0.5000 Z-0.0040 I0.2520
N630 G1 X24.0000
N640 G17 G2 Y13.0833 J-0.2917
N650 G1 X0.0000
N660 G17 G3 Y12.5000 J-0.2917
N670 G1 X24.0000
N680 G17 G2 Y11.9167 J-0.2917
N690 G1 X0.0000
N700 G17 G3 Y11.3333 J-0.2917
N710 G1 X24.0000
N720 G17 G2 Y10.7500 J-0.2917
N730 G1 X0.0000
N740 G17 G3 Y10.1667 J-0.2917
N750 G1 X24.0000
N760 G17 G2 Y9.5833 J-0.2917
N770 G1 X0.0000
N780 G17 G3 Y9.0000 J-0.2917
N790 G1 X24.0000
N800 G17 G2 Y8.4167 J-0.2917
N810 G1 X0.0000
N820 G17 G3 Y7.8333 J-0.2917
N830 G1 X24.0000
N840 G17 G2 Y7.2500 J-0.2917
N850 G1 X0.0000
N860 G17 G3 Y6.6667 J-0.2917
N870 G1 X24.0000
N880 G17 G2 Y6.0833 J-0.2917
N890 G1 X0.0000
N900 G17 G3 Y5.5000 J-0.2917
N910 G1 X24.0000
N920 G17 G2 Y4.9167 J-0.2917
N930 G1 X0.0000
N940 G17 G3 Y4.3333 J-0.2917
N950 G1 X24.0000
N960 G17 G2 Y3.7500 J-0.2917
N970 G1 X0.0000
N980 G17 G3 Y3.1667 J-0.2917
N990 G1 X24.0000
N1000 G17 G2 Y2.5833 J-0.2917
N1010 G1 X0.0000
N1020 G17 G3 Y2.0000 J-0.2917
N1030 G1 X24.0000
N1040 G17 G2 Y1.4167 J-0.2917
N1050 G1 X0.0000
N1060 G17 G3 Y0.8333 J-0.2917
N1070 G1 X24.0000
N1080 G17 G2 Y0.2500 J-0.2917
N1090 G1 X0.0000
N1100 G18 G3 X-0.2520 Z0.2480 K0.2520
N1110 M9
N1120 G0 Z0.5000
N1130 G53 G0 Z0
N1140 M30
N1150 %