N10 G90 G94 G17 G91.1
N20 G20
N30 T90 M6 G43
N40 S10000.0000
N50 M3
N60 G54
N70 F150.0000
N80 G0 X-1.1000 Y13.7750
N90 G0 Z0.0000
N100 G18 G2 X-1.0000 Z-0.1000 I0.1000
N110 G1 X24.0000
N120 G17 G2 Y13.0500 J-0.3625
N130 G1 X-0.5000
N140 G17 G3 Y12.3250 J-0.3625
N150 G1 X24.0000
N160 G17 G2 Y11.6000 J-0.3625
N170 G1 X-0.5000
N180 G17 G3 Y10.8750 J-0.3625
N190 G1 X24.0000
N200 G17 G2 Y10.1500 J-0.3625
N210 G1 X-0.5000
N220 G17 G3 Y9.4250 J-0.3625
N230 G1 X24.0000
N240 G17 G2 Y8.7000 J-0.3625
N250 G1 X-0.5000
N260 G17 G3 Y7.9750 J-0.3625
N270 G1 X24.0000
N280 G17 G2 Y7.2500 J-0.3625
N290 G1 X-0.5000
N300 G17 G3 Y6.5250 J-0.3625
N310 G1 X24.0000
N320 G17 G2 Y5.8000 J-0.3625
N330 G1 X-0.5000
N340 G17 G3 Y5.0750 J-0.3625
N350 G1 X24.0000
N360 G17 G2 Y4.3500 J-0.3625
N370 G1 X-0.5000
N380 G17 G3 Y3.6250 J-0.3625
N390 G1 X24.0000
N400 G17 G2 Y2.9000 J-0.3625
N410 G1 X-0.5000
N420 G17 G3 Y2.1750 J-0.3625
N430 G1 X24.0000
N440 G17 G2 Y1.4500 J-0.3625
N450 G1 X-0.5000
N460 G17 G3 Y0.7250 J-0.3625
N470 G1 X24.0000
N480 G17 G2 Y0.0000 J-0.3625
N490 G1 X-0.5000
N500 G18 G3 X-0.6000 Z0.0000 K0.1000
N510 M9
N520 G0 Z1.0000
N530 G53 G0 Z0
N540 M30
N550 %