N10 G90 G94 G17 G91.1
N20 G20
N30 T90 M6 G43
N40 S12000.0000
N50 M3
N60 G54
N70 F50.0000
N80 G0 X-0.6010 Y25.1034
N90 G0 Z0.0990
N100 G18 G2 X-0.5000 Z-0.0020 I0.1010
N110 G1 X25.0000
N120 G17 G2 Y24.2069 J-0.4483
N130 G1 X0.0000
N140 G17 G3 Y23.3103 J-0.4483
N150 G1 X25.0000
N160 G17 G2 Y22.4138 J-0.4483
N170 G1 X0.0000
N180 G17 G3 Y21.5172 J-0.4483
N190 G1 X25.0000
N200 G17 G2 Y20.6207 J-0.4483
N210 G1 X0.0000
N220 G17 G3 Y19.7241 J-0.4483
N230 G1 X25.0000
N240 G17 G2 Y18.8276 J-0.4483
N250 G1 X0.0000
N260 G17 G3 Y17.9310 J-0.4483
N270 G1 X25.0000
N280 G17 G2 Y17.0345 J-0.4483
N290 G1 X0.0000
N300 G17 G3 Y16.1379 J-0.4483
N310 G1 X25.0000
N320 G17 G2 Y15.2414 J-0.4483
N330 G1 X0.0000
N340 G17 G3 Y14.3448 J-0.4483
N350 G1 X25.0000
N360 G17 G2 Y13.4483 J-0.4483
N370 G1 X0.0000
N380 G17 G3 Y12.5517 J-0.4483
N390 G1 X25.0000
N400 G17 G2 Y11.6552 J-0.4483
N410 G1 X0.0000
N420 G17 G3 Y10.7586 J-0.4483
N430 G1 X25.0000
N440 G17 G2 Y9.8621 J-0.4483
N450 G1 X0.0000
N460 G17 G3 Y8.9655 J-0.4483
N470 G1 X25.0000
N480 G17 G2 Y8.0690 J-0.4483
N490 G1 X0.0000
N500 G17 G3 Y7.1724 J-0.4483
N510 G1 X25.0000
N520 G17 G2 Y6.2759 J-0.4483
N530 G1 X0.0000
N540 G17 G3 Y5.3793 J-0.4483
N550 G1 X25.0000
N560 G17 G2 Y4.4828 J-0.4483
N570 G1 X0.0000
N580 G17 G3 Y3.5862 J-0.4483
N590 G1 X25.0000
N600 G17 G2 Y2.6897 J-0.4483
N610 G1 X0.0000
N620 G17 G3 Y1.7931 J-0.4483
N630 G1 X25.0000
N640 G17 G2 Y0.8966 J-0.4483
N650 G1 X0.0000
N660 G17 G3 Y-0.0000 J-0.4483
N670 G1 X25.0000
N680 G18 G2 X25.1010 Z0.0990 K0.1010
N690 M9
N700 G0 Z1.0000
N710 G53 G0 Z0
N720 M30
N730 %