N10 G90 G94 G17 G91.1
N20 G20
N30 T90 M6 G43
N40 S12000.0000
N50 M3
N60 G54
N70 F3.3330
N80 G0 X-1.0010 Y24.6214
N90 G0 Z0.0000
N100 G18 G2 X-1.0000 Z-0.0010 I0.0010
N110 G1 X24.5000
N120 G17 G2 Y23.7429 J-0.4393
N130 G1 X-0.5000
N140 G17 G3 Y22.8643 J-0.4393
N150 G1 X24.5000
N160 G17 G2 Y21.9857 J-0.4393
N170 G1 X-0.5000
N180 G17 G3 Y21.1071 J-0.4393
N190 G1 X24.5000
N200 G17 G2 Y20.2286 J-0.4393
N210 G1 X-0.5000
N220 G17 G3 Y19.3500 J-0.4393
N230 G1 X24.5000
N240 G17 G2 Y18.4714 J-0.4393
N250 G1 X-0.5000
N260 G17 G3 Y17.5929 J-0.4393
N270 G1 X24.5000
N280 G17 G2 Y16.7143 J-0.4393
N290 G1 X-0.5000
N300 G17 G3 Y15.8357 J-0.4393
N310 G1 X24.5000
N320 G17 G2 Y14.9571 J-0.4393
N330 G1 X-0.5000
N340 G17 G3 Y14.0786 J-0.4393
N350 G1 X24.5000
N360 G17 G2 Y13.2000 J-0.4393
N370 G1 X-0.5000
N380 G17 G3 Y12.3214 J-0.4393
N390 G1 X24.5000
N400 G17 G2 Y11.4429 J-0.4393
N410 G1 X-0.5000
N420 G17 G3 Y10.5643 J-0.4393
N430 G1 X24.5000
N440 G17 G2 Y9.6857 J-0.4393
N450 G1 X-0.5000
N460 G17 G3 Y8.8071 J-0.4393
N470 G1 X24.5000
N480 G17 G2 Y7.9286 J-0.4393
N490 G1 X-0.5000
N500 G17 G3 Y7.0500 J-0.4393
N510 G1 X24.5000
N520 G17 G2 Y6.1714 J-0.4393
N530 G1 X-0.5000
N540 G17 G3 Y5.2929 J-0.4393
N550 G1 X24.5000
N560 G17 G2 Y4.4143 J-0.4393
N570 G1 X-0.5000
N580 G17 G3 Y3.5357 J-0.4393
N590 G1 X24.5000
N600 G17 G2 Y2.6571 J-0.4393
N610 G1 X-0.5000
N620 G17 G3 Y1.7786 J-0.4393
N630 G1 X24.5000
N640 G17 G2 Y0.9000 J-0.4393
N650 G1 X-0.5000
N660 G18 G3 X-0.5010 Z0.0000 K0.0010
N670 M9
N680 G0 Z0.0000
N690 G53 G0 Z0
N700 M30
N710 %