N10 G90 G94 G17 G91.1
N20 G20
N30 T90 M6 G43
N40 S12000.0000
N50 M3
N60 G54
N70 F50.0000
N80 G0 X-0.6010 Y24.6071
N90 G0 Z0.0990
N100 G18 G2 X-0.5000 Z-0.0020 I0.1010
N110 G1 X24.0000
N120 G17 G2 Y23.7143 J-0.4464
N130 G1 X0.0000
N140 G17 G3 Y22.8214 J-0.4464
N150 G1 X24.0000
N160 G17 G2 Y21.9286 J-0.4464
N170 G1 X0.0000
N180 G17 G3 Y21.0357 J-0.4464
N190 G1 X24.0000
N200 G17 G2 Y20.1429 J-0.4464
N210 G1 X0.0000
N220 G17 G3 Y19.2500 J-0.4464
N230 G1 X24.0000
N240 G17 G2 Y18.3571 J-0.4464
N250 G1 X0.0000
N260 G17 G3 Y17.4643 J-0.4464
N270 G1 X24.0000
N280 G17 G2 Y16.5714 J-0.4464
N290 G1 X0.0000
N300 G17 G3 Y15.6786 J-0.4464
N310 G1 X24.0000
N320 G17 G2 Y14.7857 J-0.4464
N330 G1 X0.0000
N340 G17 G3 Y13.8929 J-0.4464
N350 G1 X24.0000
N360 G17 G2 Y13.0000 J-0.4464
N370 G1 X0.0000
N380 G17 G3 Y12.1071 J-0.4464
N390 G1 X24.0000
N400 G17 G2 Y11.2143 J-0.4464
N410 G1 X0.0000
N420 G17 G3 Y10.3214 J-0.4464
N430 G1 X24.0000
N440 G17 G2 Y9.4286 J-0.4464
N450 G1 X0.0000
N460 G17 G3 Y8.5357 J-0.4464
N470 G1 X24.0000
N480 G17 G2 Y7.6429 J-0.4464
N490 G1 X0.0000
N500 G17 G3 Y6.7500 J-0.4464
N510 G1 X24.0000
N520 G17 G2 Y5.8571 J-0.4464
N530 G1 X0.0000
N540 G17 G3 Y4.9643 J-0.4464
N550 G1 X24.0000
N560 G17 G2 Y4.0714 J-0.4464
N570 G1 X0.0000
N580 G17 G3 Y3.1786 J-0.4464
N590 G1 X24.0000
N600 G17 G2 Y2.2857 J-0.4464
N610 G1 X0.0000
N620 G17 G3 Y1.3929 J-0.4464
N630 G1 X24.0000
N640 G17 G2 Y0.5000 J-0.4464
N650 G1 X0.0000
N660 G18 G3 X-0.1010 Z0.0990 K0.1010
N670 M9
N680 G0 Z1.0000
N690 G53 G0 Z0
N700 M30
N710 %