N10 G90 G94 G17 G91.1
N20 G20
N30 T1 M6 G43
N40 S10000.0000
N50 M3
N60 G54
N70 F3.3330
N80 G0 X-0.1825 Y3.5625
N90 G0 Z0.1000
N100 G18 G2 X-0.0625 Z-0.0200 I0.1200
N110 G1 X6.0000
N120 G17 G2 Y3.0625 J-0.2500
N130 G1 X0.0000
N140 G17 G3 Y2.5625 J-0.2500
N150 G1 X6.0000
N160 G17 G2 Y2.0625 J-0.2500
N170 G1 X0.0000
N180 G17 G3 Y1.5625 J-0.2500
N190 G1 X6.0000
N200 G17 G2 Y1.0625 J-0.2500
N210 G1 X0.0000
N220 G17 G3 Y0.5625 J-0.2500
N230 G1 X6.0000
N240 G17 G2 Y0.0625 J-0.2500
N250 G1 X0.0000
N260 G18 G3 X-0.1200 Z0.1000 K0.1200
N270 G0 Z0.0000
N280 G0 X-0.1825 Y3.5625
N290 G0 Z0.0800
N300 G18 G2 X-0.0625 Z-0.0400 I0.1200
N310 G1 X6.0000
N320 G17 G2 Y3.0625 J-0.2500
N330 G1 X0.0000
N340 G17 G3 Y2.5625 J-0.2500
N350 G1 X6.0000
N360 G17 G2 Y2.0625 J-0.2500
N370 G1 X0.0000
N380 G17 G3 Y1.5625 J-0.2500
N390 G1 X6.0000
N400 G17 G2 Y1.0625 J-0.2500
N410 G1 X0.0000
N420 G17 G3 Y0.5625 J-0.2500
N430 G1 X6.0000
N440 G17 G2 Y0.0625 J-0.2500
N450 G1 X0.0000
N460 G18 G3 X-0.1200 Z0.0800 K0.1200
N470 G0 Z0.0000
N480 G0 X-0.1825 Y3.5625
N490 G0 Z0.0600
N500 G18 G2 X-0.0625 Z-0.0600 I0.1200
N510 G1 X6.0000
N520 G17 G2 Y3.0625 J-0.2500
N530 G1 X0.0000
N540 G17 G3 Y2.5625 J-0.2500
N550 G1 X6.0000
N560 G17 G2 Y2.0625 J-0.2500
N570 G1 X0.0000
N580 G17 G3 Y1.5625 J-0.2500
N590 G1 X6.0000
N600 G17 G2 Y1.0625 J-0.2500
N610 G1 X0.0000
N620 G17 G3 Y0.5625 J-0.2500
N630 G1 X6.0000
N640 G17 G2 Y0.0625 J-0.2500
N650 G1 X0.0000
N660 G18 G3 X-0.1200 Z0.0600 K0.1200
N670 G0 Z0.0000
N680 G0 X-0.1825 Y3.5625
N690 G0 Z0.0400
N700 G18 G2 X-0.0625 Z-0.0800 I0.1200
N710 G1 X6.0000
N720 G17 G2 Y3.0625 J-0.2500
N730 G1 X0.0000
N740 G17 G3 Y2.5625 J-0.2500
N750 G1 X6.0000
N760 G17 G2 Y2.0625 J-0.2500
N770 G1 X0.0000
N780 G17 G3 Y1.5625 J-0.2500
N790 G1 X6.0000
N800 G17 G2 Y1.0625 J-0.2500
N810 G1 X0.0000
N820 G17 G3 Y0.5625 J-0.2500
N830 G1 X6.0000
N840 G17 G2 Y0.0625 J-0.2500
N850 G1 X0.0000
N860 G18 G3 X-0.1200 Z0.0400 K0.1200
N870 G0 Z0.0000
N880 G0 X-0.1825 Y3.5625
N890 G0 Z0.0200
N900 G18 G2 X-0.0625 Z-0.1000 I0.1200
N910 G1 X6.0000
N920 G17 G2 Y3.0625 J-0.2500
N930 G1 X0.0000
N940 G17 G3 Y2.5625 J-0.2500
N950 G1 X6.0000
N960 G17 G2 Y2.0625 J-0.2500
N970 G1 X0.0000
N980 G17 G3 Y1.5625 J-0.2500
N990 G1 X6.0000
N1000 G17 G2 Y1.0625 J-0.2500
N1010 G1 X0.0000
N1020 G17 G3 Y0.5625 J-0.2500
N1030 G1 X6.0000
N1040 G17 G2 Y0.0625 J-0.2500
N1050 G1 X0.0000
N1060 G18 G3 X-0.1200 Z0.0200 K0.1200
N1070 M9
N1080 G0 Z0.0000
N1090 G53 G0 Z0
N1100 M30
N1110 %