%
(BKHM12 RISER)
(MACHINE)
(  VENDOR PRINTNC)
(  MODEL PRINTNC V4 METALCUTTER)
(  DESCRIPTION GENERIC 3-AXIS ROUTER)
(T7 D=0.1575 CR=0. - ZMIN=-1.1811 - FLAT END MILL)
N10 G90 G94 G17 G91.1
N15 G20
(WHEN USING FUSION FOR PERSONAL USE, THE FEEDRATE OF RAPID)
(MOVES IS REDUCED TO MATCH THE FEEDRATE OF CUTTING MOVES,)
(WHICH CAN INCREASE MACHINING TIME. UNRESTRICTED RAPID MOVES)
(ARE AVAILABLE WITH A FUSION SUBSCRIPTION.)
N20 G53 G0 Z0.
(LARGE BORE)
N25 T7 M6
N30 S24000 M3
N35 G17 G90 G94
N40 G54
N45 G64 P0.0004 Q0.0004
N50 G0 X-1.6201 Y-0.5846
N55 G43 Z0.5906 H7
N60 G1 Z-0.374 F33.457
N65 Z-0.437
N70 G19 G2 Y-0.6004 Z-0.4528 J-0.0157 K0.
N75 G1 Y-0.6083
N80 G17 G3 X-1.6043 Y-0.624 I0.0157 J0.
N85 Y-0.5571 Z-0.4567 I0. J0.0335
N90 Y-0.624 Z-0.4606 I0. J-0.0335
N95 Y-0.5571 Z-0.4645 I0. J0.0335
N100 Y-0.624 Z-0.4684 I0. J-0.0335
N105 Y-0.5571 Z-0.4723 I0. J0.0335
N110 Y-0.624 Z-0.4763 I0. J-0.0335
N115 Y-0.5571 Z-0.4802 I0. J0.0335
N120 Y-0.624 Z-0.4841 I0. J-0.0335
N125 Y-0.5571 Z-0.488 I0. J0.0335
N130 Y-0.624 Z-0.4919 I0. J-0.0335
N135 Y-0.5571 Z-0.4959 I0. J0.0335
N140 Y-0.624 Z-0.4998 I0. J-0.0335
N145 Y-0.5571 Z-0.5037 I0. J0.0335
N150 Y-0.624 Z-0.5076 I0. J-0.0335
N155 Y-0.5571 Z-0.5115 I0. J0.0335
N160 Y-0.624 Z-0.5154 I0. J-0.0335
N165 Y-0.5571 Z-0.5194 I0. J0.0335
N170 Y-0.624 Z-0.5233 I0. J-0.0335
N175 Y-0.5571 Z-0.5272 I0. J0.0335
N180 Y-0.624 Z-0.5311 I0. J-0.0335
N185 Y-0.5571 Z-0.535 I0. J0.0335
N190 Y-0.624 Z-0.539 I0. J-0.0335
N195 Y-0.5571 Z-0.5429 I0. J0.0335
N200 Y-0.624 Z-0.5468 I0. J-0.0335
N205 Y-0.5571 Z-0.5507 I0. J0.0335
N210 Y-0.624 Z-0.5546 I0. J-0.0335
N215 Y-0.5571 Z-0.5585 I0. J0.0335
N220 Y-0.624 Z-0.5625 I0. J-0.0335
N225 Y-0.5571 Z-0.5664 I0. J0.0335
N230 Y-0.624 Z-0.5703 I0. J-0.0335
N235 Y-0.5571 Z-0.5742 I0. J0.0335
N240 Y-0.624 Z-0.5781 I0. J-0.0335
N245 Y-0.5571 Z-0.5821 I0. J0.0335
N250 Y-0.624 Z-0.586 I0. J-0.0335
N255 Y-0.5571 Z-0.5899 I0. J0.0335
N260 Y-0.624 Z-0.5938 I0. J-0.0335
N265 Y-0.5571 Z-0.5977 I0. J0.0335
N270 Y-0.624 Z-0.6017 I0. J-0.0335
N275 Y-0.5571 Z-0.6056 I0. J0.0335
N280 Y-0.624 Z-0.6095 I0. J-0.0335
N285 Y-0.5571 Z-0.6134 I0. J0.0335
N290 Y-0.624 Z-0.6173 I0. J-0.0335
N295 Y-0.5571 Z-0.6212 I0. J0.0335
N300 Y-0.624 Z-0.6252 I0. J-0.0335
N305 Y-0.5571 Z-0.6291 I0. J0.0335
N310 Y-0.624 Z-0.633 I0. J-0.0335
N315 Y-0.5571 Z-0.6369 I0. J0.0335
N320 Y-0.624 Z-0.6408 I0. J-0.0335
N325 Y-0.5571 Z-0.6448 I0. J0.0335
N330 Y-0.624 Z-0.6487 I0. J-0.0335
N335 Y-0.5571 Z-0.6526 I0. J0.0335
N340 Y-0.624 Z-0.6565 I0. J-0.0335
N345 Y-0.5571 Z-0.6604 I0. J0.0335
N350 Y-0.624 Z-0.6643 I0. J-0.0335
N355 Y-0.5571 Z-0.6683 I0. J0.0335
N360 Y-0.624 Z-0.6722 I0. J-0.0335
N365 Y-0.5571 Z-0.6761 I0. J0.0335
N370 Y-0.624 Z-0.68 I0. J-0.0335
N375 Y-0.5571 Z-0.6839 I0. J0.0335
N380 Y-0.624 Z-0.6879 I0. J-0.0335
N385 Y-0.5571 Z-0.6918 I0. J0.0335
N390 Y-0.624 Z-0.6957 I0. J-0.0335
N395 Y-0.5571 Z-0.6996 I0. J0.0335
N400 Y-0.624 Z-0.7035 I0. J-0.0335
N405 Y-0.5571 Z-0.7074 I0. J0.0335
N410 X-1.6321 Y-0.5718 Z-0.7087 I0. J-0.0335
N415 X-1.5766 Y-0.6093 I0.0277 J-0.0187
N420 X-1.6321 Y-0.5718 I-0.0277 J0.0187
N425 X-1.6278 Y-0.5937 I0.013 J-0.0088
N430 G1 X-1.6213 Y-0.5981
N435 X-1.6188 Y-0.5998 Z-0.7084
N440 X-1.6163 Y-0.6015 Z-0.7075
N445 X-1.6141 Y-0.603 Z-0.706
N450 X-1.6121 Y-0.6043 Z-0.704
N455 X-1.6105 Y-0.6054 Z-0.7017
N460 X-1.6093 Y-0.6062 Z-0.6989
N465 X-1.6085 Y-0.6067 Z-0.696
N470 X-1.6083 Y-0.6069 Z-0.6929
N475 Z0.1969
N480 Z0.5906
N485 X-1.6201 Y-0.6634
N490 Z-0.374
N495 Z-0.437
N500 G19 G2 Y-0.6791 Z-0.4528 J-0.0157 K0.
N505 G1 Y-0.687
N510 G17 G3 X-1.6043 Y-0.7028 I0.0157 J0.
N515 Y-0.4783 Z-0.4594 I0. J0.1122
N520 Y-0.7028 Z-0.4661 I0. J-0.1122
N525 Y-0.4783 Z-0.4728 I0. J0.1122
N530 Y-0.7028 Z-0.4794 I0. J-0.1122
N535 Y-0.4783 Z-0.4861 I0. J0.1122
N540 Y-0.7028 Z-0.4928 I0. J-0.1122
N545 Y-0.4783 Z-0.4994 I0. J0.1122
N550 Y-0.7028 Z-0.5061 I0. J-0.1122
N555 Y-0.4783 Z-0.5128 I0. J0.1122
N560 Y-0.7028 Z-0.5194 I0. J-0.1122
N565 Y-0.4783 Z-0.5261 I0. J0.1122
N570 Y-0.7028 Z-0.5328 I0. J-0.1122
N575 Y-0.4783 Z-0.5394 I0. J0.1122
N580 Y-0.7028 Z-0.5461 I0. J-0.1122
N585 Y-0.4783 Z-0.5528 I0. J0.1122
N590 Y-0.7028 Z-0.5594 I0. J-0.1122
N595 Y-0.4783 Z-0.5661 I0. J0.1122
N600 Y-0.7028 Z-0.5728 I0. J-0.1122
N605 Y-0.4783 Z-0.5794 I0. J0.1122
N610 Y-0.7028 Z-0.5861 I0. J-0.1122
N615 Y-0.4783 Z-0.5928 I0. J0.1122
N620 Y-0.7028 Z-0.5995 I0. J-0.1122
N625 Y-0.4783 Z-0.6061 I0. J0.1122
N630 Y-0.7028 Z-0.6128 I0. J-0.1122
N635 Y-0.4783 Z-0.6195 I0. J0.1122
N640 Y-0.7028 Z-0.6261 I0. J-0.1122
N645 Y-0.4783 Z-0.6328 I0. J0.1122
N650 Y-0.7028 Z-0.6395 I0. J-0.1122
N655 Y-0.4783 Z-0.6461 I0. J0.1122
N660 Y-0.7028 Z-0.6528 I0. J-0.1122
N665 Y-0.4783 Z-0.6595 I0. J0.1122
N670 Y-0.7028 Z-0.6661 I0. J-0.1122
N675 Y-0.4783 Z-0.6728 I0. J0.1122
N680 Y-0.7028 Z-0.6795 I0. J-0.1122
N685 Y-0.4783 Z-0.6861 I0. J0.1122
N690 Y-0.7028 Z-0.6928 I0. J-0.1122
N695 Y-0.4783 Z-0.6995 I0. J0.1122
N700 Y-0.7028 Z-0.7061 I0. J-0.1122
N705 X-1.5002 Y-0.6324 Z-0.7087 I0. J0.1122
N710 X-1.7085 Y-0.5487 I-0.1041 J0.0418
N715 X-1.5002 Y-0.6324 I0.1041 J-0.0418
N720 X-1.509 Y-0.6119 I-0.0146 J0.0059
N725 G1 X-1.5163 Y-0.6089
N730 X-1.5191 Y-0.6078 Z-0.7084
N735 X-1.5219 Y-0.6067 Z-0.7075
N740 X-1.5244 Y-0.6057 Z-0.706
N745 X-1.5266 Y-0.6048 Z-0.704
N750 X-1.5284 Y-0.6041 Z-0.7017
N755 X-1.5298 Y-0.6035 Z-0.6989
N760 X-1.5306 Y-0.6032 Z-0.696
N765 X-1.5309 Y-0.6031 Z-0.6929
N770 Z0.1969
N775 Z0.5906
N780 X-1.6201 Y-0.6791
N785 Z-0.6299
N790 Z-0.6929
N795 G19 G2 Y-0.6949 Z-0.7087 J-0.0157 K0.
N800 G1 Y-0.7028
N805 G17 G3 X-1.6043 Y-0.7185 I0.0157 J0.
N810 Y-0.4626 I0. J0.128
N815 Y-0.7185 I0. J-0.128
N820 X-1.5886 Y-0.7028 I0. J0.0157
N825 G1 Y-0.6949
N830 G19 G3 Y-0.6791 Z-0.6929 J0. K0.0157
N835 G1 Z0.1969
N840 X-1.6201 Y0.5965
N845 Z-0.374
N850 Z-0.437
N855 G2 Y0.5807 Z-0.4528 J-0.0157 K0.
N860 G1 Y0.5728
N865 G17 G3 X-1.6043 Y0.5571 I0.0157 J0.
N870 Y0.624 Z-0.4567 I0. J0.0335
N875 Y0.5571 Z-0.4606 I0. J-0.0335
N880 Y0.624 Z-0.4645 I0. J0.0335
N885 Y0.5571 Z-0.4684 I0. J-0.0335
N890 Y0.624 Z-0.4723 I0. J0.0335
N895 Y0.5571 Z-0.4763 I0. J-0.0335
N900 Y0.624 Z-0.4802 I0. J0.0335
N905 Y0.5571 Z-0.4841 I0. J-0.0335
N910 Y0.624 Z-0.488 I0. J0.0335
N915 Y0.5571 Z-0.4919 I0. J-0.0335
N920 Y0.624 Z-0.4959 I0. J0.0335
N925 Y0.5571 Z-0.4998 I0. J-0.0335
N930 Y0.624 Z-0.5037 I0. J0.0335
N935 Y0.5571 Z-0.5076 I0. J-0.0335
N940 Y0.624 Z-0.5115 I0. J0.0335
N945 Y0.5571 Z-0.5154 I0. J-0.0335
N950 Y0.624 Z-0.5194 I0. J0.0335
N955 Y0.5571 Z-0.5233 I0. J-0.0335
N960 Y0.624 Z-0.5272 I0. J0.0335
N965 Y0.5571 Z-0.5311 I0. J-0.0335
N970 Y0.624 Z-0.535 I0. J0.0335
N975 Y0.5571 Z-0.539 I0. J-0.0335
N980 Y0.624 Z-0.5429 I0. J0.0335
N985 Y0.5571 Z-0.5468 I0. J-0.0335
N990 Y0.624 Z-0.5507 I0. J0.0335
N995 Y0.5571 Z-0.5546 I0. J-0.0335
N1000 Y0.624 Z-0.5585 I0. J0.0335
N1005 Y0.5571 Z-0.5625 I0. J-0.0335
N1010 Y0.624 Z-0.5664 I0. J0.0335
N1015 Y0.5571 Z-0.5703 I0. J-0.0335
N1020 Y0.624 Z-0.5742 I0. J0.0335
N1025 Y0.5571 Z-0.5781 I0. J-0.0335
N1030 Y0.624 Z-0.5821 I0. J0.0335
N1035 Y0.5571 Z-0.586 I0. J-0.0335
N1040 Y0.624 Z-0.5899 I0. J0.0335
N1045 Y0.5571 Z-0.5938 I0. J-0.0335
N1050 Y0.624 Z-0.5977 I0. J0.0335
N1055 Y0.5571 Z-0.6017 I0. J-0.0335
N1060 Y0.624 Z-0.6056 I0. J0.0335
N1065 Y0.5571 Z-0.6095 I0. J-0.0335
N1070 Y0.624 Z-0.6134 I0. J0.0335
N1075 Y0.5571 Z-0.6173 I0. J-0.0335
N1080 Y0.624 Z-0.6212 I0. J0.0335
N1085 Y0.5571 Z-0.6252 I0. J-0.0335
N1090 Y0.624 Z-0.6291 I0. J0.0335
N1095 Y0.5571 Z-0.633 I0. J-0.0335
N1100 Y0.624 Z-0.6369 I0. J0.0335
N1105 Y0.5571 Z-0.6408 I0. J-0.0335
N1110 Y0.624 Z-0.6448 I0. J0.0335
N1115 Y0.5571 Z-0.6487 I0. J-0.0335
N1120 Y0.624 Z-0.6526 I0. J0.0335
N1125 Y0.5571 Z-0.6565 I0. J-0.0335
N1130 Y0.624 Z-0.6604 I0. J0.0335
N1135 Y0.5571 Z-0.6643 I0. J-0.0335
N1140 Y0.624 Z-0.6683 I0. J0.0335
N1145 Y0.5571 Z-0.6722 I0. J-0.0335
N1150 Y0.624 Z-0.6761 I0. J0.0335
N1155 Y0.5571 Z-0.68 I0. J-0.0335
N1160 Y0.624 Z-0.6839 I0. J0.0335
N1165 Y0.5571 Z-0.6879 I0. J-0.0335
N1170 Y0.624 Z-0.6918 I0. J0.0335
N1175 Y0.5571 Z-0.6957 I0. J-0.0335
N1180 Y0.624 Z-0.6996 I0. J0.0335
N1185 Y0.5571 Z-0.7035 I0. J-0.0335
N1190 Y0.624 Z-0.7074 I0. J0.0335
N1195 X-1.6321 Y0.6093 Z-0.7087 I0. J-0.0335
N1200 X-1.5766 Y0.5718 I0.0277 J-0.0187
N1205 X-1.6321 Y0.6093 I-0.0277 J0.0187
N1210 X-1.6278 Y0.5874 I0.013 J-0.0088
N1215 G1 X-1.6213 Y0.583
N1220 X-1.6188 Y0.5813 Z-0.7084
N1225 X-1.6163 Y0.5796 Z-0.7075
N1230 X-1.6141 Y0.5781 Z-0.706
N1235 X-1.6121 Y0.5768 Z-0.704
N1240 X-1.6105 Y0.5757 Z-0.7017
N1245 X-1.6093 Y0.5749 Z-0.6989
N1250 X-1.6085 Y0.5744 Z-0.696
N1255 X-1.6083 Y0.5742 Z-0.6929
N1260 Z0.1969
N1265 X-1.6201 Y0.5177
N1270 Z-0.374
N1275 Z-0.437
N1280 G19 G2 Y0.502 Z-0.4528 J-0.0157 K0.
N1285 G1 Y0.4941
N1290 G17 G3 X-1.6043 Y0.4783 I0.0157 J0.
N1295 Y0.7028 Z-0.4594 I0. J0.1122
N1300 Y0.4783 Z-0.4661 I0. J-0.1122
N1305 Y0.7028 Z-0.4728 I0. J0.1122
N1310 Y0.4783 Z-0.4794 I0. J-0.1122
N1315 Y0.7028 Z-0.4861 I0. J0.1122
N1320 Y0.4783 Z-0.4928 I0. J-0.1122
N1325 Y0.7028 Z-0.4994 I0. J0.1122
N1330 Y0.4783 Z-0.5061 I0. J-0.1122
N1335 Y0.7028 Z-0.5128 I0. J0.1122
N1340 Y0.4783 Z-0.5194 I0. J-0.1122
N1345 Y0.7028 Z-0.5261 I0. J0.1122
N1350 Y0.4783 Z-0.5328 I0. J-0.1122
N1355 Y0.7028 Z-0.5394 I0. J0.1122
N1360 Y0.4783 Z-0.5461 I0. J-0.1122
N1365 Y0.7028 Z-0.5528 I0. J0.1122
N1370 Y0.4783 Z-0.5594 I0. J-0.1122
N1375 Y0.7028 Z-0.5661 I0. J0.1122
N1380 Y0.4783 Z-0.5728 I0. J-0.1122
N1385 Y0.7028 Z-0.5794 I0. J0.1122
N1390 Y0.4783 Z-0.5861 I0. J-0.1122
N1395 Y0.7028 Z-0.5928 I0. J0.1122
N1400 Y0.4783 Z-0.5995 I0. J-0.1122
N1405 Y0.7028 Z-0.6061 I0. J0.1122
N1410 Y0.4783 Z-0.6128 I0. J-0.1122
N1415 Y0.7028 Z-0.6195 I0. J0.1122
N1420 Y0.4783 Z-0.6261 I0. J-0.1122
N1425 Y0.7028 Z-0.6328 I0. J0.1122
N1430 Y0.4783 Z-0.6395 I0. J-0.1122
N1435 Y0.7028 Z-0.6461 I0. J0.1122
N1440 Y0.4783 Z-0.6528 I0. J-0.1122
N1445 Y0.7028 Z-0.6595 I0. J0.1122
N1450 Y0.4783 Z-0.6661 I0. J-0.1122
N1455 Y0.7028 Z-0.6728 I0. J0.1122
N1460 Y0.4783 Z-0.6795 I0. J-0.1122
N1465 Y0.7028 Z-0.6861 I0. J0.1122
N1470 Y0.4783 Z-0.6928 I0. J-0.1122
N1475 Y0.7028 Z-0.6995 I0. J0.1122
N1480 Y0.4783 Z-0.7061 I0. J-0.1122
N1485 X-1.5002 Y0.5487 Z-0.7087 I0. J0.1122
N1490 X-1.7085 Y0.6324 I-0.1041 J0.0418
N1495 X-1.5002 Y0.5487 I0.1041 J-0.0418
N1500 X-1.509 Y0.5692 I-0.0146 J0.0059
N1505 G1 X-1.5163 Y0.5722
N1510 X-1.5191 Y0.5733 Z-0.7084
N1515 X-1.5219 Y0.5744 Z-0.7075
N1520 X-1.5244 Y0.5754 Z-0.706
N1525 X-1.5266 Y0.5763 Z-0.704
N1530 X-1.5284 Y0.577 Z-0.7017
N1535 X-1.5298 Y0.5776 Z-0.6989
N1540 X-1.5306 Y0.5779 Z-0.696
N1545 X-1.5309 Y0.578 Z-0.6929
N1550 Z0.1969
N1555 X-1.6201 Y0.502
N1560 Z-0.6299
N1565 Z-0.6929
N1570 G19 G2 Y0.4862 Z-0.7087 J-0.0157 K0.
N1575 G1 Y0.4783
N1580 G17 G3 X-1.6043 Y0.4626 I0.0157 J0.
N1585 Y0.7185 I0. J0.128
N1590 Y0.4626 I0. J-0.128
N1595 X-1.5886 Y0.4783 I0. J0.0157
N1600 G1 Y0.4862
N1605 G19 G3 Y0.502 Z-0.6929 J0. K0.0157
N1610 G1 Z0.1969
N1615 X1.5295 Y0.5965
N1620 Z0.0984
N1625 Z0.0354
N1630 G2 Y0.5807 Z0.0197 J-0.0157 K0.
N1635 G1 Y0.5728
N1640 G17 G3 X1.5453 Y0.5571 I0.0157 J0.
N1645 Y0.624 Z0.0158 I0. J0.0335
N1650 Y0.5571 Z0.0118 I0. J-0.0335
N1655 Y0.624 Z0.0079 I0. J0.0335
N1660 Y0.5571 Z0.004 I0. J-0.0335
N1665 Y0.624 Z0.0001 I0. J0.0335
N1670 Y0.5571 Z-0.0038 I0. J-0.0335
N1675 Y0.624 Z-0.0077 I0. J0.0335
N1680 Y0.5571 Z-0.0117 I0. J-0.0335
N1685 Y0.624 Z-0.0156 I0. J0.0335
N1690 Y0.5571 Z-0.0195 I0. J-0.0335
N1695 Y0.624 Z-0.0234 I0. J0.0335
N1700 Y0.5571 Z-0.0273 I0. J-0.0335
N1705 Y0.624 Z-0.0313 I0. J0.0335
N1710 Y0.5571 Z-0.0352 I0. J-0.0335
N1715 Y0.624 Z-0.0391 I0. J0.0335
N1720 Y0.5571 Z-0.043 I0. J-0.0335
N1725 Y0.624 Z-0.0469 I0. J0.0335
N1730 Y0.5571 Z-0.0508 I0. J-0.0335
N1735 Y0.624 Z-0.0548 I0. J0.0335
N1740 Y0.5571 Z-0.0587 I0. J-0.0335
N1745 Y0.624 Z-0.0626 I0. J0.0335
N1750 Y0.5571 Z-0.0665 I0. J-0.0335
N1755 Y0.624 Z-0.0704 I0. J0.0335
N1760 Y0.5571 Z-0.0744 I0. J-0.0335
N1765 Y0.624 Z-0.0783 I0. J0.0335
N1770 Y0.5571 Z-0.0822 I0. J-0.0335
N1775 Y0.624 Z-0.0861 I0. J0.0335
N1780 Y0.5571 Z-0.09 I0. J-0.0335
N1785 Y0.624 Z-0.0939 I0. J0.0335
N1790 Y0.5571 Z-0.0979 I0. J-0.0335
N1795 Y0.624 Z-0.1018 I0. J0.0335
N1800 Y0.5571 Z-0.1057 I0. J-0.0335
N1805 Y0.624 Z-0.1096 I0. J0.0335
N1810 Y0.5571 Z-0.1135 I0. J-0.0335
N1815 Y0.624 Z-0.1175 I0. J0.0335
N1820 Y0.5571 Z-0.1214 I0. J-0.0335
N1825 Y0.624 Z-0.1253 I0. J0.0335
N1830 Y0.5571 Z-0.1292 I0. J-0.0335
N1835 Y0.624 Z-0.1331 I0. J0.0335
N1840 Y0.5571 Z-0.137 I0. J-0.0335
N1845 Y0.624 Z-0.141 I0. J0.0335
N1850 Y0.5571 Z-0.1449 I0. J-0.0335
N1855 Y0.624 Z-0.1488 I0. J0.0335
N1860 Y0.5571 Z-0.1527 I0. J-0.0335
N1865 Y0.624 Z-0.1566 I0. J0.0335
N1870 Y0.5571 Z-0.1606 I0. J-0.0335
N1875 Y0.624 Z-0.1645 I0. J0.0335
N1880 Y0.5571 Z-0.1684 I0. J-0.0335
N1885 Y0.624 Z-0.1723 I0. J0.0335
N1890 Y0.5571 Z-0.1762 I0. J-0.0335
N1895 Y0.624 Z-0.1801 I0. J0.0335
N1900 Y0.5571 Z-0.1841 I0. J-0.0335
N1905 Y0.624 Z-0.188 I0. J0.0335
N1910 Y0.5571 Z-0.1919 I0. J-0.0335
N1915 Y0.624 Z-0.1958 I0. J0.0335
N1920 Y0.5571 Z-0.1997 I0. J-0.0335
N1925 Y0.624 Z-0.2037 I0. J0.0335
N1930 Y0.5571 Z-0.2076 I0. J-0.0335
N1935 Y0.624 Z-0.2115 I0. J0.0335
N1940 Y0.5571 Z-0.2154 I0. J-0.0335
N1945 Y0.624 Z-0.2193 I0. J0.0335
N1950 Y0.5571 Z-0.2232 I0. J-0.0335
N1955 Y0.624 Z-0.2272 I0. J0.0335
N1960 Y0.5571 Z-0.2311 I0. J-0.0335
N1965 Y0.624 Z-0.235 I0. J0.0335
N1970 X1.5176 Y0.6093 Z-0.2362 I0. J-0.0335
N1975 X1.573 Y0.5718 I0.0277 J-0.0187
N1980 X1.5176 Y0.6093 I-0.0277 J0.0187
N1985 X1.5218 Y0.5874 I0.013 J-0.0088
N1990 G1 X1.5283 Y0.583
N1995 X1.5308 Y0.5813 Z-0.2359
N2000 X1.5333 Y0.5796 Z-0.235
N2005 X1.5355 Y0.5781 Z-0.2336
N2010 X1.5375 Y0.5768 Z-0.2316
N2015 X1.5391 Y0.5757 Z-0.2292
N2020 X1.5404 Y0.5749 Z-0.2265
N2025 X1.5411 Y0.5744 Z-0.2235
N2030 X1.5413 Y0.5742 Z-0.2205
N2035 Z0.1969
N2040 X1.5295 Y0.5177
N2045 Z0.0984
N2050 Z0.0354
N2055 G19 G2 Y0.502 Z0.0197 J-0.0157 K0.
N2060 G1 Y0.4941
N2065 G17 G3 X1.5453 Y0.4783 I0.0157 J0.
N2070 Y0.7028 Z0.013 I0. J0.1122
N2075 Y0.4783 Z0.0063 I0. J-0.1122
N2080 Y0.7028 Z-0.0003 I0. J0.1122
N2085 Y0.4783 Z-0.007 I0. J-0.1122
N2090 Y0.7028 Z-0.0137 I0. J0.1122
N2095 Y0.4783 Z-0.0203 I0. J-0.1122
N2100 Y0.7028 Z-0.027 I0. J0.1122
N2105 Y0.4783 Z-0.0337 I0. J-0.1122
N2110 Y0.7028 Z-0.0403 I0. J0.1122
N2115 Y0.4783 Z-0.047 I0. J-0.1122
N2120 Y0.7028 Z-0.0537 I0. J0.1122
N2125 Y0.4783 Z-0.0603 I0. J-0.1122
N2130 Y0.7028 Z-0.067 I0. J0.1122
N2135 Y0.4783 Z-0.0737 I0. J-0.1122
N2140 Y0.7028 Z-0.0803 I0. J0.1122
N2145 Y0.4783 Z-0.087 I0. J-0.1122
N2150 Y0.7028 Z-0.0937 I0. J0.1122
N2155 Y0.4783 Z-0.1003 I0. J-0.1122
N2160 Y0.7028 Z-0.107 I0. J0.1122
N2165 Y0.4783 Z-0.1137 I0. J-0.1122
N2170 Y0.7028 Z-0.1203 I0. J0.1122
N2175 Y0.4783 Z-0.127 I0. J-0.1122
N2180 Y0.7028 Z-0.1337 I0. J0.1122
N2185 Y0.4783 Z-0.1403 I0. J-0.1122
N2190 Y0.7028 Z-0.147 I0. J0.1122
N2195 Y0.4783 Z-0.1537 I0. J-0.1122
N2200 Y0.7028 Z-0.1603 I0. J0.1122
N2205 Y0.4783 Z-0.167 I0. J-0.1122
N2210 Y0.7028 Z-0.1737 I0. J0.1122
N2215 Y0.4783 Z-0.1804 I0. J-0.1122
N2220 Y0.7028 Z-0.187 I0. J0.1122
N2225 Y0.4783 Z-0.1937 I0. J-0.1122
N2230 Y0.7028 Z-0.2004 I0. J0.1122
N2235 Y0.4783 Z-0.207 I0. J-0.1122
N2240 Y0.7028 Z-0.2137 I0. J0.1122
N2245 Y0.4783 Z-0.2204 I0. J-0.1122
N2250 Y0.7028 Z-0.227 I0. J0.1122
N2255 Y0.4783 Z-0.2337 I0. J-0.1122
N2260 X1.6494 Y0.5487 Z-0.2362 I0. J0.1122
N2265 X1.4411 Y0.6324 I-0.1041 J0.0418
N2270 X1.6494 Y0.5487 I0.1041 J-0.0418
N2275 X1.6407 Y0.5692 I-0.0146 J0.0059
N2280 G1 X1.6333 Y0.5722
N2285 X1.6305 Y0.5733 Z-0.2359
N2290 X1.6278 Y0.5744 Z-0.235
N2295 X1.6252 Y0.5754 Z-0.2336
N2300 X1.623 Y0.5763 Z-0.2316
N2305 X1.6212 Y0.577 Z-0.2292
N2310 X1.6198 Y0.5776 Z-0.2265
N2315 X1.619 Y0.5779 Z-0.2235
N2320 X1.6187 Y0.578 Z-0.2205
N2325 Z0.1969
N2330 X1.5295 Y0.502
N2335 Z-0.1575
N2340 Z-0.2205
N2345 G19 G2 Y0.4862 Z-0.2362 J-0.0157 K0.
N2350 G1 Y0.4783
N2355 G17 G3 X1.5453 Y0.4626 I0.0157 J0.
N2360 Y0.7185 I0. J0.128
N2365 Y0.4626 I0. J-0.128
N2370 X1.561 Y0.4783 I0. J0.0157
N2375 G1 Y0.4862
N2380 G19 G3 Y0.502 Z-0.2205 J0. K0.0157
N2385 G1 Z0.1969
N2390 X1.5295 Y-0.5846
N2395 Z0.0984
N2400 Z0.0354
N2405 G2 Y-0.6004 Z0.0197 J-0.0157 K0.
N2410 G1 Y-0.6083
N2415 G17 G3 X1.5453 Y-0.624 I0.0157 J0.
N2420 Y-0.5571 Z0.0158 I0. J0.0335
N2425 Y-0.624 Z0.0118 I0. J-0.0335
N2430 Y-0.5571 Z0.0079 I0. J0.0335
N2435 Y-0.624 Z0.004 I0. J-0.0335
N2440 Y-0.5571 Z0.0001 I0. J0.0335
N2445 Y-0.624 Z-0.0038 I0. J-0.0335
N2450 Y-0.5571 Z-0.0077 I0. J0.0335
N2455 Y-0.624 Z-0.0117 I0. J-0.0335
N2460 Y-0.5571 Z-0.0156 I0. J0.0335
N2465 Y-0.624 Z-0.0195 I0. J-0.0335
N2470 Y-0.5571 Z-0.0234 I0. J0.0335
N2475 Y-0.624 Z-0.0273 I0. J-0.0335
N2480 Y-0.5571 Z-0.0313 I0. J0.0335
N2485 Y-0.624 Z-0.0352 I0. J-0.0335
N2490 Y-0.5571 Z-0.0391 I0. J0.0335
N2495 Y-0.624 Z-0.043 I0. J-0.0335
N2500 Y-0.5571 Z-0.0469 I0. J0.0335
N2505 Y-0.624 Z-0.0508 I0. J-0.0335
N2510 Y-0.5571 Z-0.0548 I0. J0.0335
N2515 Y-0.624 Z-0.0587 I0. J-0.0335
N2520 Y-0.5571 Z-0.0626 I0. J0.0335
N2525 Y-0.624 Z-0.0665 I0. J-0.0335
N2530 Y-0.5571 Z-0.0704 I0. J0.0335
N2535 Y-0.624 Z-0.0744 I0. J-0.0335
N2540 Y-0.5571 Z-0.0783 I0. J0.0335
N2545 Y-0.624 Z-0.0822 I0. J-0.0335
N2550 Y-0.5571 Z-0.0861 I0. J0.0335
N2555 Y-0.624 Z-0.09 I0. J-0.0335
N2560 Y-0.5571 Z-0.0939 I0. J0.0335
N2565 Y-0.624 Z-0.0979 I0. J-0.0335
N2570 Y-0.5571 Z-0.1018 I0. J0.0335
N2575 Y-0.624 Z-0.1057 I0. J-0.0335
N2580 Y-0.5571 Z-0.1096 I0. J0.0335
N2585 Y-0.624 Z-0.1135 I0. J-0.0335
N2590 Y-0.5571 Z-0.1175 I0. J0.0335
N2595 Y-0.624 Z-0.1214 I0. J-0.0335
N2600 Y-0.5571 Z-0.1253 I0. J0.0335
N2605 Y-0.624 Z-0.1292 I0. J-0.0335
N2610 Y-0.5571 Z-0.1331 I0. J0.0335
N2615 Y-0.624 Z-0.137 I0. J-0.0335
N2620 Y-0.5571 Z-0.141 I0. J0.0335
N2625 Y-0.624 Z-0.1449 I0. J-0.0335
N2630 Y-0.5571 Z-0.1488 I0. J0.0335
N2635 Y-0.624 Z-0.1527 I0. J-0.0335
N2640 Y-0.5571 Z-0.1566 I0. J0.0335
N2645 Y-0.624 Z-0.1606 I0. J-0.0335
N2650 Y-0.5571 Z-0.1645 I0. J0.0335
N2655 Y-0.624 Z-0.1684 I0. J-0.0335
N2660 Y-0.5571 Z-0.1723 I0. J0.0335
N2665 Y-0.624 Z-0.1762 I0. J-0.0335
N2670 Y-0.5571 Z-0.1801 I0. J0.0335
N2675 Y-0.624 Z-0.1841 I0. J-0.0335
N2680 Y-0.5571 Z-0.188 I0. J0.0335
N2685 Y-0.624 Z-0.1919 I0. J-0.0335
N2690 Y-0.5571 Z-0.1958 I0. J0.0335
N2695 Y-0.624 Z-0.1997 I0. J-0.0335
N2700 Y-0.5571 Z-0.2037 I0. J0.0335
N2705 Y-0.624 Z-0.2076 I0. J-0.0335
N2710 Y-0.5571 Z-0.2115 I0. J0.0335
N2715 Y-0.624 Z-0.2154 I0. J-0.0335
N2720 Y-0.5571 Z-0.2193 I0. J0.0335
N2725 Y-0.624 Z-0.2232 I0. J-0.0335
N2730 Y-0.5571 Z-0.2272 I0. J0.0335
N2735 Y-0.624 Z-0.2311 I0. J-0.0335
N2740 Y-0.5571 Z-0.235 I0. J0.0335
N2745 X1.5176 Y-0.5718 Z-0.2362 I0. J-0.0335
N2750 X1.573 Y-0.6093 I0.0277 J-0.0187
N2755 X1.5176 Y-0.5718 I-0.0277 J0.0187
N2760 X1.5218 Y-0.5937 I0.013 J-0.0088
N2765 G1 X1.5283 Y-0.5981
N2770 X1.5308 Y-0.5998 Z-0.2359
N2775 X1.5333 Y-0.6015 Z-0.235
N2780 X1.5355 Y-0.603 Z-0.2336
N2785 X1.5375 Y-0.6043 Z-0.2316
N2790 X1.5391 Y-0.6054 Z-0.2292
N2795 X1.5404 Y-0.6062 Z-0.2265
N2800 X1.5411 Y-0.6067 Z-0.2235
N2805 X1.5413 Y-0.6069 Z-0.2205
N2810 Z0.1969
N2815 X1.5295 Y-0.6634
N2820 Z0.0984
N2825 Z0.0354
N2830 G19 G2 Y-0.6791 Z0.0197 J-0.0157 K0.
N2835 G1 Y-0.687
N2840 G17 G3 X1.5453 Y-0.7028 I0.0157 J0.
N2845 Y-0.4783 Z0.013 I0. J0.1122
N2850 Y-0.7028 Z0.0063 I0. J-0.1122
N2855 Y-0.4783 Z-0.0003 I0. J0.1122
N2860 Y-0.7028 Z-0.007 I0. J-0.1122
N2865 Y-0.4783 Z-0.0137 I0. J0.1122
N2870 Y-0.7028 Z-0.0203 I0. J-0.1122
N2875 Y-0.4783 Z-0.027 I0. J0.1122
N2880 Y-0.7028 Z-0.0337 I0. J-0.1122
N2885 Y-0.4783 Z-0.0403 I0. J0.1122
N2890 Y-0.7028 Z-0.047 I0. J-0.1122
N2895 Y-0.4783 Z-0.0537 I0. J0.1122
N2900 Y-0.7028 Z-0.0603 I0. J-0.1122
N2905 Y-0.4783 Z-0.067 I0. J0.1122
N2910 Y-0.7028 Z-0.0737 I0. J-0.1122
N2915 Y-0.4783 Z-0.0803 I0. J0.1122
N2920 Y-0.7028 Z-0.087 I0. J-0.1122
N2925 Y-0.4783 Z-0.0937 I0. J0.1122
N2930 Y-0.7028 Z-0.1003 I0. J-0.1122
N2935 Y-0.4783 Z-0.107 I0. J0.1122
N2940 Y-0.7028 Z-0.1137 I0. J-0.1122
N2945 Y-0.4783 Z-0.1203 I0. J0.1122
N2950 Y-0.7028 Z-0.127 I0. J-0.1122
N2955 Y-0.4783 Z-0.1337 I0. J0.1122
N2960 Y-0.7028 Z-0.1403 I0. J-0.1122
N2965 Y-0.4783 Z-0.147 I0. J0.1122
N2970 Y-0.7028 Z-0.1537 I0. J-0.1122
N2975 Y-0.4783 Z-0.1603 I0. J0.1122
N2980 Y-0.7028 Z-0.167 I0. J-0.1122
N2985 Y-0.4783 Z-0.1737 I0. J0.1122
N2990 Y-0.7028 Z-0.1804 I0. J-0.1122
N2995 Y-0.4783 Z-0.187 I0. J0.1122
N3000 Y-0.7028 Z-0.1937 I0. J-0.1122
N3005 Y-0.4783 Z-0.2004 I0. J0.1122
N3010 Y-0.7028 Z-0.207 I0. J-0.1122
N3015 Y-0.4783 Z-0.2137 I0. J0.1122
N3020 Y-0.7028 Z-0.2204 I0. J-0.1122
N3025 Y-0.4783 Z-0.227 I0. J0.1122
N3030 Y-0.7028 Z-0.2337 I0. J-0.1122
N3035 X1.6494 Y-0.6324 Z-0.2362 I0. J0.1122
N3040 X1.4411 Y-0.5487 I-0.1041 J0.0418
N3045 X1.6494 Y-0.6324 I0.1041 J-0.0418
N3050 X1.6407 Y-0.6119 I-0.0146 J0.0059
N3055 G1 X1.6333 Y-0.6089
N3060 X1.6305 Y-0.6078 Z-0.2359
N3065 X1.6278 Y-0.6067 Z-0.235
N3070 X1.6252 Y-0.6057 Z-0.2336
N3075 X1.623 Y-0.6048 Z-0.2316
N3080 X1.6212 Y-0.6041 Z-0.2292
N3085 X1.6198 Y-0.6035 Z-0.2265
N3090 X1.619 Y-0.6032 Z-0.2235
N3095 X1.6187 Y-0.6031 Z-0.2205
N3100 Z0.1969
N3105 X1.5295 Y-0.6791
N3110 Z-0.1575
N3115 Z-0.2205
N3120 G19 G2 Y-0.6949 Z-0.2362 J-0.0157 K0.
N3125 G1 Y-0.7028
N3130 G17 G3 X1.5453 Y-0.7185 I0.0157 J0.
N3135 Y-0.4626 I0. J0.128
N3140 Y-0.7185 I0. J-0.128
N3145 X1.561 Y-0.7028 I0. J0.0157
N3150 G1 Y-0.6949
N3155 G19 G3 Y-0.6791 Z-0.2205 J0. K0.0157
N3160 G1 Z0.5906
N3165 G17
(WHEN USING FUSION FOR PERSONAL USE, THE FEEDRATE OF RAPID)
(MOVES IS REDUCED TO MATCH THE FEEDRATE OF CUTTING MOVES,)
(WHICH CAN INCREASE MACHINING TIME. UNRESTRICTED RAPID MOVES)
(ARE AVAILABLE WITH A FUSION SUBSCRIPTION.)
(SMALL BORE)
N3170 G0 X-1.6201 Y0.5965
N3175 G1 Z0.5906 F33.457
N3180 Z-0.5906
N3185 Z-0.6535
N3190 G19 G2 Y0.5807 Z-0.6693 J-0.0157 K0.
N3195 G1 Y0.5728
N3200 G17 G3 X-1.6043 Y0.5571 I0.0157 J0.
N3205 Y0.624 Z-0.6732 I0. J0.0335
N3210 Y0.5571 Z-0.6771 I0. J-0.0335
N3215 Y0.624 Z-0.681 I0. J0.0335
N3220 Y0.5571 Z-0.685 I0. J-0.0335
N3225 Y0.624 Z-0.6889 I0. J0.0335
N3230 Y0.5571 Z-0.6928 I0. J-0.0335
N3235 Y0.624 Z-0.6967 I0. J0.0335
N3240 Y0.5571 Z-0.7006 I0. J-0.0335
N3245 Y0.624 Z-0.7046 I0. J0.0335
N3250 Y0.5571 Z-0.7085 I0. J-0.0335
N3255 Y0.624 Z-0.7124 I0. J0.0335
N3260 Y0.5571 Z-0.7163 I0. J-0.0335
N3265 Y0.624 Z-0.7202 I0. J0.0335
N3270 Y0.5571 Z-0.7241 I0. J-0.0335
N3275 Y0.624 Z-0.7281 I0. J0.0335
N3280 Y0.5571 Z-0.732 I0. J-0.0335
N3285 Y0.624 Z-0.7359 I0. J0.0335
N3290 Y0.5571 Z-0.7398 I0. J-0.0335
N3295 Y0.624 Z-0.7437 I0. J0.0335
N3300 Y0.5571 Z-0.7477 I0. J-0.0335
N3305 Y0.624 Z-0.7516 I0. J0.0335
N3310 Y0.5571 Z-0.7555 I0. J-0.0335
N3315 Y0.624 Z-0.7594 I0. J0.0335
N3320 Y0.5571 Z-0.7633 I0. J-0.0335
N3325 Y0.624 Z-0.7672 I0. J0.0335
N3330 Y0.5571 Z-0.7712 I0. J-0.0335
N3335 Y0.624 Z-0.7751 I0. J0.0335
N3340 Y0.5571 Z-0.779 I0. J-0.0335
N3345 Y0.624 Z-0.7829 I0. J0.0335
N3350 Y0.5571 Z-0.7868 I0. J-0.0335
N3355 Y0.624 Z-0.7908 I0. J0.0335
N3360 Y0.5571 Z-0.7947 I0. J-0.0335
N3365 Y0.624 Z-0.7986 I0. J0.0335
N3370 Y0.5571 Z-0.8025 I0. J-0.0335
N3375 Y0.624 Z-0.8064 I0. J0.0335
N3380 Y0.5571 Z-0.8103 I0. J-0.0335
N3385 Y0.624 Z-0.8143 I0. J0.0335
N3390 Y0.5571 Z-0.8182 I0. J-0.0335
N3395 Y0.624 Z-0.8221 I0. J0.0335
N3400 Y0.5571 Z-0.826 I0. J-0.0335
N3405 Y0.624 Z-0.8299 I0. J0.0335
N3410 Y0.5571 Z-0.8339 I0. J-0.0335
N3415 Y0.624 Z-0.8378 I0. J0.0335
N3420 Y0.5571 Z-0.8417 I0. J-0.0335
N3425 Y0.624 Z-0.8456 I0. J0.0335
N3430 Y0.5571 Z-0.8495 I0. J-0.0335
N3435 Y0.624 Z-0.8535 I0. J0.0335
N3440 Y0.5571 Z-0.8574 I0. J-0.0335
N3445 Y0.624 Z-0.8613 I0. J0.0335
N3450 Y0.5571 Z-0.8652 I0. J-0.0335
N3455 Y0.624 Z-0.8691 I0. J0.0335
N3460 Y0.5571 Z-0.873 I0. J-0.0335
N3465 Y0.624 Z-0.877 I0. J0.0335
N3470 Y0.5571 Z-0.8809 I0. J-0.0335
N3475 Y0.624 Z-0.8848 I0. J0.0335
N3480 Y0.5571 Z-0.8887 I0. J-0.0335
N3485 Y0.624 Z-0.8926 I0. J0.0335
N3490 Y0.5571 Z-0.8966 I0. J-0.0335
N3495 Y0.624 Z-0.9005 I0. J0.0335
N3500 Y0.5571 Z-0.9044 I0. J-0.0335
N3505 Y0.624 Z-0.9083 I0. J0.0335
N3510 Y0.5571 Z-0.9122 I0. J-0.0335
N3515 Y0.624 Z-0.9161 I0. J0.0335
N3520 Y0.5571 Z-0.9201 I0. J-0.0335
N3525 Y0.624 Z-0.924 I0. J0.0335
N3530 Y0.5571 Z-0.9279 I0. J-0.0335
N3535 Y0.624 Z-0.9318 I0. J0.0335
N3540 Y0.5571 Z-0.9357 I0. J-0.0335
N3545 Y0.624 Z-0.9397 I0. J0.0335
N3550 Y0.5571 Z-0.9436 I0. J-0.0335
N3555 Y0.624 Z-0.9475 I0. J0.0335
N3560 Y0.5571 Z-0.9514 I0. J-0.0335
N3565 Y0.624 Z-0.9553 I0. J0.0335
N3570 Y0.5571 Z-0.9592 I0. J-0.0335
N3575 Y0.624 Z-0.9632 I0. J0.0335
N3580 Y0.5571 Z-0.9671 I0. J-0.0335
N3585 Y0.624 Z-0.971 I0. J0.0335
N3590 Y0.5571 Z-0.9749 I0. J-0.0335
N3595 Y0.624 Z-0.9788 I0. J0.0335
N3600 Y0.5571 Z-0.9828 I0. J-0.0335
N3605 Y0.624 Z-0.9867 I0. J0.0335
N3610 Y0.5571 Z-0.9906 I0. J-0.0335
N3615 Y0.624 Z-0.9945 I0. J0.0335
N3620 Y0.5571 Z-0.9984 I0. J-0.0335
N3625 Y0.624 Z-1.0023 I0. J0.0335
N3630 Y0.5571 Z-1.0063 I0. J-0.0335
N3635 Y0.624 Z-1.0102 I0. J0.0335
N3640 Y0.5571 Z-1.0141 I0. J-0.0335
N3645 Y0.624 Z-1.018 I0. J0.0335
N3650 Y0.5571 Z-1.0219 I0. J-0.0335
N3655 Y0.624 Z-1.0259 I0. J0.0335
N3660 Y0.5571 Z-1.0298 I0. J-0.0335
N3665 Y0.624 Z-1.0337 I0. J0.0335
N3670 Y0.5571 Z-1.0376 I0. J-0.0335
N3675 Y0.624 Z-1.0415 I0. J0.0335
N3680 Y0.5571 Z-1.0454 I0. J-0.0335
N3685 Y0.624 Z-1.0494 I0. J0.0335
N3690 Y0.5571 Z-1.0533 I0. J-0.0335
N3695 Y0.624 Z-1.0572 I0. J0.0335
N3700 Y0.5571 Z-1.0611 I0. J-0.0335
N3705 Y0.624 Z-1.065 I0. J0.0335
N3710 Y0.5571 Z-1.069 I0. J-0.0335
N3715 Y0.624 Z-1.0729 I0. J0.0335
N3720 Y0.5571 Z-1.0768 I0. J-0.0335
N3725 Y0.624 Z-1.0807 I0. J0.0335
N3730 Y0.5571 Z-1.0846 I0. J-0.0335
N3735 Y0.624 Z-1.0885 I0. J0.0335
N3740 Y0.5571 Z-1.0925 I0. J-0.0335
N3745 Y0.624 Z-1.0964 I0. J0.0335
N3750 Y0.5571 Z-1.1003 I0. J-0.0335
N3755 Y0.624 Z-1.1042 I0. J0.0335
N3760 Y0.5571 Z-1.1081 I0. J-0.0335
N3765 Y0.624 Z-1.1121 I0. J0.0335
N3770 Y0.5571 Z-1.116 I0. J-0.0335
N3775 Y0.624 Z-1.1199 I0. J0.0335
N3780 Y0.5571 Z-1.1238 I0. J-0.0335
N3785 Y0.624 Z-1.1277 I0. J0.0335
N3790 Y0.5571 Z-1.1316 I0. J-0.0335
N3795 Y0.624 Z-1.1356 I0. J0.0335
N3800 Y0.5571 Z-1.1395 I0. J-0.0335
N3805 Y0.624 Z-1.1434 I0. J0.0335
N3810 Y0.5571 Z-1.1473 I0. J-0.0335
N3815 Y0.624 Z-1.1512 I0. J0.0335
N3820 Y0.5571 Z-1.1552 I0. J-0.0335
N3825 Y0.624 Z-1.1591 I0. J0.0335
N3830 Y0.5571 Z-1.163 I0. J-0.0335
N3835 Y0.624 Z-1.1669 I0. J0.0335
N3840 Y0.5571 Z-1.1708 I0. J-0.0335
N3845 Y0.624 Z-1.1747 I0. J0.0335
N3850 Y0.5571 Z-1.1787 I0. J-0.0335
N3855 X-1.5733 Y0.603 Z-1.1811 I0. J0.0335
N3860 X-1.6354 Y0.5781 I-0.0311 J-0.0125
N3865 X-1.5733 Y0.603 I0.0311 J0.0125
N3870 X-1.5938 Y0.6118 I-0.0146 J-0.0059
N3875 G1 X-1.6011 Y0.6088
N3880 X-1.6039 Y0.6077 Z-1.1808
N3885 X-1.6067 Y0.6066 Z-1.1799
N3890 X-1.6092 Y0.6056 Z-1.1784
N3895 X-1.6114 Y0.6047 Z-1.1765
N3900 X-1.6132 Y0.604 Z-1.1741
N3905 X-1.6146 Y0.6034 Z-1.1714
N3910 X-1.6154 Y0.6031 Z-1.1684
N3915 X-1.6157 Y0.603 Z-1.1654
N3920 Z0.1969
N3925 Z0.5906
N3930 X-1.6201 Y0.5807
N3935 Z-1.1024
N3940 Z-1.1654
N3945 G19 G2 Y0.565 Z-1.1811 J-0.0157 K0.
N3950 G1 Y0.5571
N3955 G17 G3 X-1.6043 Y0.5413 I0.0157 J0.
N3960 Y0.6398 I0. J0.0492
N3965 Y0.5413 I0. J-0.0492
N3970 X-1.5886 Y0.5571 I0. J0.0157
N3975 G1 Y0.565
N3980 G19 G3 Y0.5807 Z-1.1654 J0. K0.0157
N3985 G1 Z0.1969
N3990 X-1.6201 Y-0.5846
N3995 Z-0.5906
N4000 Z-0.6535
N4005 G2 Y-0.6004 Z-0.6693 J-0.0157 K0.
N4010 G1 Y-0.6083
N4015 G17 G3 X-1.6043 Y-0.624 I0.0157 J0.
N4020 Y-0.5571 Z-0.6732 I0. J0.0335
N4025 Y-0.624 Z-0.6771 I0. J-0.0335
N4030 Y-0.5571 Z-0.681 I0. J0.0335
N4035 Y-0.624 Z-0.685 I0. J-0.0335
N4040 Y-0.5571 Z-0.6889 I0. J0.0335
N4045 Y-0.624 Z-0.6928 I0. J-0.0335
N4050 Y-0.5571 Z-0.6967 I0. J0.0335
N4055 Y-0.624 Z-0.7006 I0. J-0.0335
N4060 Y-0.5571 Z-0.7046 I0. J0.0335
N4065 Y-0.624 Z-0.7085 I0. J-0.0335
N4070 Y-0.5571 Z-0.7124 I0. J0.0335
N4075 Y-0.624 Z-0.7163 I0. J-0.0335
N4080 Y-0.5571 Z-0.7202 I0. J0.0335
N4085 Y-0.624 Z-0.7241 I0. J-0.0335
N4090 Y-0.5571 Z-0.7281 I0. J0.0335
N4095 Y-0.624 Z-0.732 I0. J-0.0335
N4100 Y-0.5571 Z-0.7359 I0. J0.0335
N4105 Y-0.624 Z-0.7398 I0. J-0.0335
N4110 Y-0.5571 Z-0.7437 I0. J0.0335
N4115 Y-0.624 Z-0.7477 I0. J-0.0335
N4120 Y-0.5571 Z-0.7516 I0. J0.0335
N4125 Y-0.624 Z-0.7555 I0. J-0.0335
N4130 Y-0.5571 Z-0.7594 I0. J0.0335
N4135 Y-0.624 Z-0.7633 I0. J-0.0335
N4140 Y-0.5571 Z-0.7672 I0. J0.0335
N4145 Y-0.624 Z-0.7712 I0. J-0.0335
N4150 Y-0.5571 Z-0.7751 I0. J0.0335
N4155 Y-0.624 Z-0.779 I0. J-0.0335
N4160 Y-0.5571 Z-0.7829 I0. J0.0335
N4165 Y-0.624 Z-0.7868 I0. J-0.0335
N4170 Y-0.5571 Z-0.7908 I0. J0.0335
N4175 Y-0.624 Z-0.7947 I0. J-0.0335
N4180 Y-0.5571 Z-0.7986 I0. J0.0335
N4185 Y-0.624 Z-0.8025 I0. J-0.0335
N4190 Y-0.5571 Z-0.8064 I0. J0.0335
N4195 Y-0.624 Z-0.8103 I0. J-0.0335
N4200 Y-0.5571 Z-0.8143 I0. J0.0335
N4205 Y-0.624 Z-0.8182 I0. J-0.0335
N4210 Y-0.5571 Z-0.8221 I0. J0.0335
N4215 Y-0.624 Z-0.826 I0. J-0.0335
N4220 Y-0.5571 Z-0.8299 I0. J0.0335
N4225 Y-0.624 Z-0.8339 I0. J-0.0335
N4230 Y-0.5571 Z-0.8378 I0. J0.0335
N4235 Y-0.624 Z-0.8417 I0. J-0.0335
N4240 Y-0.5571 Z-0.8456 I0. J0.0335
N4245 Y-0.624 Z-0.8495 I0. J-0.0335
N4250 Y-0.5571 Z-0.8535 I0. J0.0335
N4255 Y-0.624 Z-0.8574 I0. J-0.0335
N4260 Y-0.5571 Z-0.8613 I0. J0.0335
N4265 Y-0.624 Z-0.8652 I0. J-0.0335
N4270 Y-0.5571 Z-0.8691 I0. J0.0335
N4275 Y-0.624 Z-0.873 I0. J-0.0335
N4280 Y-0.5571 Z-0.877 I0. J0.0335
N4285 Y-0.624 Z-0.8809 I0. J-0.0335
N4290 Y-0.5571 Z-0.8848 I0. J0.0335
N4295 Y-0.624 Z-0.8887 I0. J-0.0335
N4300 Y-0.5571 Z-0.8926 I0. J0.0335
N4305 Y-0.624 Z-0.8966 I0. J-0.0335
N4310 Y-0.5571 Z-0.9005 I0. J0.0335
N4315 Y-0.624 Z-0.9044 I0. J-0.0335
N4320 Y-0.5571 Z-0.9083 I0. J0.0335
N4325 Y-0.624 Z-0.9122 I0. J-0.0335
N4330 Y-0.5571 Z-0.9161 I0. J0.0335
N4335 Y-0.624 Z-0.9201 I0. J-0.0335
N4340 Y-0.5571 Z-0.924 I0. J0.0335
N4345 Y-0.624 Z-0.9279 I0. J-0.0335
N4350 Y-0.5571 Z-0.9318 I0. J0.0335
N4355 Y-0.624 Z-0.9357 I0. J-0.0335
N4360 Y-0.5571 Z-0.9397 I0. J0.0335
N4365 Y-0.624 Z-0.9436 I0. J-0.0335
N4370 Y-0.5571 Z-0.9475 I0. J0.0335
N4375 Y-0.624 Z-0.9514 I0. J-0.0335
N4380 Y-0.5571 Z-0.9553 I0. J0.0335
N4385 Y-0.624 Z-0.9592 I0. J-0.0335
N4390 Y-0.5571 Z-0.9632 I0. J0.0335
N4395 Y-0.624 Z-0.9671 I0. J-0.0335
N4400 Y-0.5571 Z-0.971 I0. J0.0335
N4405 Y-0.624 Z-0.9749 I0. J-0.0335
N4410 Y-0.5571 Z-0.9788 I0. J0.0335
N4415 Y-0.624 Z-0.9828 I0. J-0.0335
N4420 Y-0.5571 Z-0.9867 I0. J0.0335
N4425 Y-0.624 Z-0.9906 I0. J-0.0335
N4430 Y-0.5571 Z-0.9945 I0. J0.0335
N4435 Y-0.624 Z-0.9984 I0. J-0.0335
N4440 Y-0.5571 Z-1.0023 I0. J0.0335
N4445 Y-0.624 Z-1.0063 I0. J-0.0335
N4450 Y-0.5571 Z-1.0102 I0. J0.0335
N4455 Y-0.624 Z-1.0141 I0. J-0.0335
N4460 Y-0.5571 Z-1.018 I0. J0.0335
N4465 Y-0.624 Z-1.0219 I0. J-0.0335
N4470 Y-0.5571 Z-1.0259 I0. J0.0335
N4475 Y-0.624 Z-1.0298 I0. J-0.0335
N4480 Y-0.5571 Z-1.0337 I0. J0.0335
N4485 Y-0.624 Z-1.0376 I0. J-0.0335
N4490 Y-0.5571 Z-1.0415 I0. J0.0335
N4495 Y-0.624 Z-1.0454 I0. J-0.0335
N4500 Y-0.5571 Z-1.0494 I0. J0.0335
N4505 Y-0.624 Z-1.0533 I0. J-0.0335
N4510 Y-0.5571 Z-1.0572 I0. J0.0335
N4515 Y-0.624 Z-1.0611 I0. J-0.0335
N4520 Y-0.5571 Z-1.065 I0. J0.0335
N4525 Y-0.624 Z-1.069 I0. J-0.0335
N4530 Y-0.5571 Z-1.0729 I0. J0.0335
N4535 Y-0.624 Z-1.0768 I0. J-0.0335
N4540 Y-0.5571 Z-1.0807 I0. J0.0335
N4545 Y-0.624 Z-1.0846 I0. J-0.0335
N4550 Y-0.5571 Z-1.0885 I0. J0.0335
N4555 Y-0.624 Z-1.0925 I0. J-0.0335
N4560 Y-0.5571 Z-1.0964 I0. J0.0335
N4565 Y-0.624 Z-1.1003 I0. J-0.0335
N4570 Y-0.5571 Z-1.1042 I0. J0.0335
N4575 Y-0.624 Z-1.1081 I0. J-0.0335
N4580 Y-0.5571 Z-1.1121 I0. J0.0335
N4585 Y-0.624 Z-1.116 I0. J-0.0335
N4590 Y-0.5571 Z-1.1199 I0. J0.0335
N4595 Y-0.624 Z-1.1238 I0. J-0.0335
N4600 Y-0.5571 Z-1.1277 I0. J0.0335
N4605 Y-0.624 Z-1.1316 I0. J-0.0335
N4610 Y-0.5571 Z-1.1356 I0. J0.0335
N4615 Y-0.624 Z-1.1395 I0. J-0.0335
N4620 Y-0.5571 Z-1.1434 I0. J0.0335
N4625 Y-0.624 Z-1.1473 I0. J-0.0335
N4630 Y-0.5571 Z-1.1512 I0. J0.0335
N4635 Y-0.624 Z-1.1552 I0. J-0.0335
N4640 Y-0.5571 Z-1.1591 I0. J0.0335
N4645 Y-0.624 Z-1.163 I0. J-0.0335
N4650 Y-0.5571 Z-1.1669 I0. J0.0335
N4655 Y-0.624 Z-1.1708 I0. J-0.0335
N4660 Y-0.5571 Z-1.1747 I0. J0.0335
N4665 Y-0.624 Z-1.1787 I0. J-0.0335
N4670 X-1.5733 Y-0.5781 Z-1.1811 I0. J0.0335
N4675 X-1.6354 Y-0.603 I-0.0311 J-0.0125
N4680 X-1.5733 Y-0.5781 I0.0311 J0.0125
N4685 X-1.5938 Y-0.5693 I-0.0146 J-0.0059
N4690 G1 X-1.6011 Y-0.5723
N4695 X-1.6039 Y-0.5734 Z-1.1808
N4700 X-1.6067 Y-0.5745 Z-1.1799
N4705 X-1.6092 Y-0.5755 Z-1.1784
N4710 X-1.6114 Y-0.5764 Z-1.1765
N4715 X-1.6132 Y-0.5771 Z-1.1741
N4720 X-1.6146 Y-0.5777 Z-1.1714
N4725 X-1.6154 Y-0.578 Z-1.1684
N4730 X-1.6157 Y-0.5781 Z-1.1654
N4735 Z0.1969
N4740 X-1.6201 Y-0.6004
N4745 Z-1.1024
N4750 Z-1.1654
N4755 G19 G2 Y-0.6161 Z-1.1811 J-0.0157 K0.
N4760 G1 Y-0.624
N4765 G17 G3 X-1.6043 Y-0.6398 I0.0157 J0.
N4770 Y-0.5413 I0. J0.0492
N4775 Y-0.6398 I0. J-0.0492
N4780 X-1.5886 Y-0.624 I0. J0.0157
N4785 G1 Y-0.6161
N4790 G19 G3 Y-0.6004 Z-1.1654 J0. K0.0157
N4795 G1 Z0.1969
N4800 X1.5295 Y-0.5846
N4805 Z-0.1181
N4810 Z-0.1811
N4815 G2 Y-0.6004 Z-0.1969 J-0.0157 K0.
N4820 G1 Y-0.6083
N4825 G17 G3 X1.5453 Y-0.624 I0.0157 J0.
N4830 Y-0.5571 Z-0.2008 I0. J0.0335
N4835 Y-0.624 Z-0.2047 I0. J-0.0335
N4840 Y-0.5571 Z-0.2086 I0. J0.0335
N4845 Y-0.624 Z-0.2125 I0. J-0.0335
N4850 Y-0.5571 Z-0.2164 I0. J0.0335
N4855 Y-0.624 Z-0.2204 I0. J-0.0335
N4860 Y-0.5571 Z-0.2243 I0. J0.0335
N4865 Y-0.624 Z-0.2282 I0. J-0.0335
N4870 Y-0.5571 Z-0.2321 I0. J0.0335
N4875 Y-0.624 Z-0.236 I0. J-0.0335
N4880 Y-0.5571 Z-0.24 I0. J0.0335
N4885 Y-0.624 Z-0.2439 I0. J-0.0335
N4890 Y-0.5571 Z-0.2478 I0. J0.0335
N4895 Y-0.624 Z-0.2517 I0. J-0.0335
N4900 Y-0.5571 Z-0.2556 I0. J0.0335
N4905 Y-0.624 Z-0.2595 I0. J-0.0335
N4910 Y-0.5571 Z-0.2635 I0. J0.0335
N4915 Y-0.624 Z-0.2674 I0. J-0.0335
N4920 Y-0.5571 Z-0.2713 I0. J0.0335
N4925 Y-0.624 Z-0.2752 I0. J-0.0335
N4930 Y-0.5571 Z-0.2791 I0. J0.0335
N4935 Y-0.624 Z-0.2831 I0. J-0.0335
N4940 Y-0.5571 Z-0.287 I0. J0.0335
N4945 Y-0.624 Z-0.2909 I0. J-0.0335
N4950 Y-0.5571 Z-0.2948 I0. J0.0335
N4955 Y-0.624 Z-0.2987 I0. J-0.0335
N4960 Y-0.5571 Z-0.3026 I0. J0.0335
N4965 Y-0.624 Z-0.3066 I0. J-0.0335
N4970 Y-0.5571 Z-0.3105 I0. J0.0335
N4975 Y-0.624 Z-0.3144 I0. J-0.0335
N4980 Y-0.5571 Z-0.3183 I0. J0.0335
N4985 Y-0.624 Z-0.3222 I0. J-0.0335
N4990 Y-0.5571 Z-0.3262 I0. J0.0335
N4995 Y-0.624 Z-0.3301 I0. J-0.0335
N5000 Y-0.5571 Z-0.334 I0. J0.0335
N5005 Y-0.624 Z-0.3379 I0. J-0.0335
N5010 Y-0.5571 Z-0.3418 I0. J0.0335
N5015 Y-0.624 Z-0.3457 I0. J-0.0335
N5020 Y-0.5571 Z-0.3497 I0. J0.0335
N5025 Y-0.624 Z-0.3536 I0. J-0.0335
N5030 Y-0.5571 Z-0.3575 I0. J0.0335
N5035 Y-0.624 Z-0.3614 I0. J-0.0335
N5040 Y-0.5571 Z-0.3653 I0. J0.0335
N5045 Y-0.624 Z-0.3693 I0. J-0.0335
N5050 Y-0.5571 Z-0.3732 I0. J0.0335
N5055 Y-0.624 Z-0.3771 I0. J-0.0335
N5060 Y-0.5571 Z-0.381 I0. J0.0335
N5065 Y-0.624 Z-0.3849 I0. J-0.0335
N5070 Y-0.5571 Z-0.3888 I0. J0.0335
N5075 Y-0.624 Z-0.3928 I0. J-0.0335
N5080 Y-0.5571 Z-0.3967 I0. J0.0335
N5085 Y-0.624 Z-0.4006 I0. J-0.0335
N5090 Y-0.5571 Z-0.4045 I0. J0.0335
N5095 Y-0.624 Z-0.4084 I0. J-0.0335
N5100 Y-0.5571 Z-0.4124 I0. J0.0335
N5105 Y-0.624 Z-0.4163 I0. J-0.0335
N5110 Y-0.5571 Z-0.4202 I0. J0.0335
N5115 Y-0.624 Z-0.4241 I0. J-0.0335
N5120 Y-0.5571 Z-0.428 I0. J0.0335
N5125 Y-0.624 Z-0.4319 I0. J-0.0335
N5130 Y-0.5571 Z-0.4359 I0. J0.0335
N5135 Y-0.624 Z-0.4398 I0. J-0.0335
N5140 Y-0.5571 Z-0.4437 I0. J0.0335
N5145 Y-0.624 Z-0.4476 I0. J-0.0335
N5150 Y-0.5571 Z-0.4515 I0. J0.0335
N5155 Y-0.624 Z-0.4555 I0. J-0.0335
N5160 Y-0.5571 Z-0.4594 I0. J0.0335
N5165 Y-0.624 Z-0.4633 I0. J-0.0335
N5170 Y-0.5571 Z-0.4672 I0. J0.0335
N5175 Y-0.624 Z-0.4711 I0. J-0.0335
N5180 Y-0.5571 Z-0.475 I0. J0.0335
N5185 Y-0.624 Z-0.479 I0. J-0.0335
N5190 Y-0.5571 Z-0.4829 I0. J0.0335
N5195 Y-0.624 Z-0.4868 I0. J-0.0335
N5200 Y-0.5571 Z-0.4907 I0. J0.0335
N5205 Y-0.624 Z-0.4946 I0. J-0.0335
N5210 Y-0.5571 Z-0.4986 I0. J0.0335
N5215 Y-0.624 Z-0.5025 I0. J-0.0335
N5220 Y-0.5571 Z-0.5064 I0. J0.0335
N5225 Y-0.624 Z-0.5103 I0. J-0.0335
N5230 Y-0.5571 Z-0.5142 I0. J0.0335
N5235 Y-0.624 Z-0.5181 I0. J-0.0335
N5240 Y-0.5571 Z-0.5221 I0. J0.0335
N5245 Y-0.624 Z-0.526 I0. J-0.0335
N5250 Y-0.5571 Z-0.5299 I0. J0.0335
N5255 Y-0.624 Z-0.5338 I0. J-0.0335
N5260 Y-0.5571 Z-0.5377 I0. J0.0335
N5265 Y-0.624 Z-0.5417 I0. J-0.0335
N5270 Y-0.5571 Z-0.5456 I0. J0.0335
N5275 Y-0.624 Z-0.5495 I0. J-0.0335
N5280 Y-0.5571 Z-0.5534 I0. J0.0335
N5285 Y-0.624 Z-0.5573 I0. J-0.0335
N5290 Y-0.5571 Z-0.5612 I0. J0.0335
N5295 Y-0.624 Z-0.5652 I0. J-0.0335
N5300 Y-0.5571 Z-0.5691 I0. J0.0335
N5305 Y-0.624 Z-0.573 I0. J-0.0335
N5310 Y-0.5571 Z-0.5769 I0. J0.0335
N5315 Y-0.624 Z-0.5808 I0. J-0.0335
N5320 Y-0.5571 Z-0.5848 I0. J0.0335
N5325 Y-0.624 Z-0.5887 I0. J-0.0335
N5330 Y-0.5571 Z-0.5926 I0. J0.0335
N5335 Y-0.624 Z-0.5965 I0. J-0.0335
N5340 Y-0.5571 Z-0.6004 I0. J0.0335
N5345 Y-0.624 Z-0.6044 I0. J-0.0335
N5350 Y-0.5571 Z-0.6083 I0. J0.0335
N5355 Y-0.624 Z-0.6122 I0. J-0.0335
N5360 Y-0.5571 Z-0.6161 I0. J0.0335
N5365 Y-0.624 Z-0.62 I0. J-0.0335
N5370 Y-0.5571 Z-0.6239 I0. J0.0335
N5375 Y-0.624 Z-0.6279 I0. J-0.0335
N5380 Y-0.5571 Z-0.6318 I0. J0.0335
N5385 Y-0.624 Z-0.6357 I0. J-0.0335
N5390 Y-0.5571 Z-0.6396 I0. J0.0335
N5395 Y-0.624 Z-0.6435 I0. J-0.0335
N5400 Y-0.5571 Z-0.6475 I0. J0.0335
N5405 Y-0.624 Z-0.6514 I0. J-0.0335
N5410 Y-0.5571 Z-0.6553 I0. J0.0335
N5415 Y-0.624 Z-0.6592 I0. J-0.0335
N5420 Y-0.5571 Z-0.6631 I0. J0.0335
N5425 Y-0.624 Z-0.667 I0. J-0.0335
N5430 Y-0.5571 Z-0.671 I0. J0.0335
N5435 Y-0.624 Z-0.6749 I0. J-0.0335
N5440 Y-0.5571 Z-0.6788 I0. J0.0335
N5445 Y-0.624 Z-0.6827 I0. J-0.0335
N5450 Y-0.5571 Z-0.6866 I0. J0.0335
N5455 Y-0.624 Z-0.6906 I0. J-0.0335
N5460 Y-0.5571 Z-0.6945 I0. J0.0335
N5465 Y-0.624 Z-0.6984 I0. J-0.0335
N5470 Y-0.5571 Z-0.7023 I0. J0.0335
N5475 Y-0.624 Z-0.7062 I0. J-0.0335
N5480 Y-0.5571 Z-0.7101 I0. J0.0335
N5485 Y-0.624 Z-0.7141 I0. J-0.0335
N5490 Y-0.5571 Z-0.718 I0. J0.0335
N5495 Y-0.624 Z-0.7219 I0. J-0.0335
N5500 Y-0.5571 Z-0.7258 I0. J0.0335
N5505 Y-0.624 Z-0.7297 I0. J-0.0335
N5510 Y-0.5571 Z-0.7337 I0. J0.0335
N5515 Y-0.624 Z-0.7376 I0. J-0.0335
N5520 Y-0.5571 Z-0.7415 I0. J0.0335
N5525 Y-0.624 Z-0.7454 I0. J-0.0335
N5530 Y-0.5571 Z-0.7493 I0. J0.0335
N5535 Y-0.624 Z-0.7532 I0. J-0.0335
N5540 Y-0.5571 Z-0.7572 I0. J0.0335
N5545 Y-0.624 Z-0.7611 I0. J-0.0335
N5550 Y-0.5571 Z-0.765 I0. J0.0335
N5555 Y-0.624 Z-0.7689 I0. J-0.0335
N5560 Y-0.5571 Z-0.7728 I0. J0.0335
N5565 Y-0.624 Z-0.7768 I0. J-0.0335
N5570 Y-0.5571 Z-0.7807 I0. J0.0335
N5575 Y-0.624 Z-0.7846 I0. J-0.0335
N5580 Y-0.5571 Z-0.7885 I0. J0.0335
N5585 Y-0.624 Z-0.7924 I0. J-0.0335
N5590 Y-0.5571 Z-0.7963 I0. J0.0335
N5595 Y-0.624 Z-0.8003 I0. J-0.0335
N5600 Y-0.5571 Z-0.8042 I0. J0.0335
N5605 Y-0.624 Z-0.8081 I0. J-0.0335
N5610 Y-0.5571 Z-0.812 I0. J0.0335
N5615 Y-0.624 Z-0.8159 I0. J-0.0335
N5620 Y-0.5571 Z-0.8199 I0. J0.0335
N5625 Y-0.624 Z-0.8238 I0. J-0.0335
N5630 Y-0.5571 Z-0.8277 I0. J0.0335
N5635 Y-0.624 Z-0.8316 I0. J-0.0335
N5640 Y-0.5571 Z-0.8355 I0. J0.0335
N5645 Y-0.624 Z-0.8394 I0. J-0.0335
N5650 Y-0.5571 Z-0.8434 I0. J0.0335
N5655 Y-0.624 Z-0.8473 I0. J-0.0335
N5660 Y-0.5571 Z-0.8512 I0. J0.0335
N5665 Y-0.624 Z-0.8551 I0. J-0.0335
N5670 Y-0.5571 Z-0.859 I0. J0.0335
N5675 Y-0.624 Z-0.863 I0. J-0.0335
N5680 Y-0.5571 Z-0.8669 I0. J0.0335
N5685 Y-0.624 Z-0.8708 I0. J-0.0335
N5690 Y-0.5571 Z-0.8747 I0. J0.0335
N5695 Y-0.624 Z-0.8786 I0. J-0.0335
N5700 Y-0.5571 Z-0.8825 I0. J0.0335
N5705 Y-0.624 Z-0.8865 I0. J-0.0335
N5710 Y-0.5571 Z-0.8904 I0. J0.0335
N5715 Y-0.624 Z-0.8943 I0. J-0.0335
N5720 Y-0.5571 Z-0.8982 I0. J0.0335
N5725 Y-0.624 Z-0.9021 I0. J-0.0335
N5730 Y-0.5571 Z-0.9061 I0. J0.0335
N5735 Y-0.624 Z-0.91 I0. J-0.0335
N5740 Y-0.5571 Z-0.9139 I0. J0.0335
N5745 Y-0.624 Z-0.9178 I0. J-0.0335
N5750 Y-0.5571 Z-0.9217 I0. J0.0335
N5755 Y-0.624 Z-0.9256 I0. J-0.0335
N5760 Y-0.5571 Z-0.9296 I0. J0.0335
N5765 Y-0.624 Z-0.9335 I0. J-0.0335
N5770 Y-0.5571 Z-0.9374 I0. J0.0335
N5775 Y-0.624 Z-0.9413 I0. J-0.0335
N5780 Y-0.5571 Z-0.9452 I0. J0.0335
N5785 Y-0.624 Z-0.9492 I0. J-0.0335
N5790 Y-0.5571 Z-0.9531 I0. J0.0335
N5795 Y-0.624 Z-0.957 I0. J-0.0335
N5800 Y-0.5571 Z-0.9609 I0. J0.0335
N5805 Y-0.624 Z-0.9648 I0. J-0.0335
N5810 Y-0.5571 Z-0.9688 I0. J0.0335
N5815 Y-0.624 Z-0.9727 I0. J-0.0335
N5820 Y-0.5571 Z-0.9766 I0. J0.0335
N5825 Y-0.624 Z-0.9805 I0. J-0.0335
N5830 Y-0.5571 Z-0.9844 I0. J0.0335
N5835 Y-0.624 Z-0.9883 I0. J-0.0335
N5840 Y-0.5571 Z-0.9923 I0. J0.0335
N5845 Y-0.624 Z-0.9962 I0. J-0.0335
N5850 Y-0.5571 Z-1.0001 I0. J0.0335
N5855 Y-0.624 Z-1.004 I0. J-0.0335
N5860 Y-0.5571 Z-1.0079 I0. J0.0335
N5865 Y-0.624 Z-1.0119 I0. J-0.0335
N5870 Y-0.5571 Z-1.0158 I0. J0.0335
N5875 Y-0.624 Z-1.0197 I0. J-0.0335
N5880 Y-0.5571 Z-1.0236 I0. J0.0335
N5885 Y-0.624 Z-1.0275 I0. J-0.0335
N5890 Y-0.5571 Z-1.0314 I0. J0.0335
N5895 Y-0.624 Z-1.0354 I0. J-0.0335
N5900 Y-0.5571 Z-1.0393 I0. J0.0335
N5905 Y-0.624 Z-1.0432 I0. J-0.0335
N5910 Y-0.5571 Z-1.0471 I0. J0.0335
N5915 Y-0.624 Z-1.051 I0. J-0.0335
N5920 Y-0.5571 Z-1.055 I0. J0.0335
N5925 Y-0.624 Z-1.0589 I0. J-0.0335
N5930 Y-0.5571 Z-1.0628 I0. J0.0335
N5935 Y-0.624 Z-1.0667 I0. J-0.0335
N5940 Y-0.5571 Z-1.0706 I0. J0.0335
N5945 Y-0.624 Z-1.0745 I0. J-0.0335
N5950 Y-0.5571 Z-1.0785 I0. J0.0335
N5955 Y-0.624 Z-1.0824 I0. J-0.0335
N5960 Y-0.5571 Z-1.0863 I0. J0.0335
N5965 Y-0.624 Z-1.0902 I0. J-0.0335
N5970 Y-0.5571 Z-1.0941 I0. J0.0335
N5975 Y-0.624 Z-1.0981 I0. J-0.0335
N5980 Y-0.5571 Z-1.102 I0. J0.0335
N5985 Y-0.624 Z-1.1059 I0. J-0.0335
N5990 Y-0.5571 Z-1.1098 I0. J0.0335
N5995 Y-0.624 Z-1.1137 I0. J-0.0335
N6000 Y-0.5571 Z-1.1176 I0. J0.0335
N6005 Y-0.624 Z-1.1216 I0. J-0.0335
N6010 Y-0.5571 Z-1.1255 I0. J0.0335
N6015 Y-0.624 Z-1.1294 I0. J-0.0335
N6020 Y-0.5571 Z-1.1333 I0. J0.0335
N6025 Y-0.624 Z-1.1372 I0. J-0.0335
N6030 Y-0.5571 Z-1.1412 I0. J0.0335
N6035 Y-0.624 Z-1.1451 I0. J-0.0335
N6040 Y-0.5571 Z-1.149 I0. J0.0335
N6045 Y-0.624 Z-1.1529 I0. J-0.0335
N6050 Y-0.5571 Z-1.1568 I0. J0.0335
N6055 Y-0.624 Z-1.1607 I0. J-0.0335
N6060 Y-0.5571 Z-1.1647 I0. J0.0335
N6065 Y-0.624 Z-1.1686 I0. J-0.0335
N6070 Y-0.5571 Z-1.1725 I0. J0.0335
N6075 Y-0.624 Z-1.1764 I0. J-0.0335
N6080 Y-0.5571 Z-1.1803 I0. J0.0335
N6085 X1.526 Y-0.5632 Z-1.1811 I0. J-0.0335
N6090 X1.5645 Y-0.6179 I0.0193 J-0.0274
N6095 X1.526 Y-0.5632 I-0.0193 J0.0274
N6100 X1.5222 Y-0.5851 I0.0091 J-0.0129
N6105 G1 X1.5267 Y-0.5916
N6110 X1.5285 Y-0.5941 Z-1.1808
N6115 X1.5302 Y-0.5965 Z-1.1799
N6120 X1.5318 Y-0.5987 Z-1.1784
N6125 X1.5331 Y-0.6007 Z-1.1765
N6130 X1.5343 Y-0.6023 Z-1.1741
N6135 X1.5351 Y-0.6035 Z-1.1714
N6140 X1.5356 Y-0.6042 Z-1.1684
N6145 X1.5358 Y-0.6044 Z-1.1654
N6150 Z0.1969
N6155 X1.5295 Y-0.6004
N6160 Z-1.1024
N6165 Z-1.1654
N6170 G19 G2 Y-0.6161 Z-1.1811 J-0.0157 K0.
N6175 G1 Y-0.624
N6180 G17 G3 X1.5453 Y-0.6398 I0.0157 J0.
N6185 Y-0.5413 I0. J0.0492
N6190 Y-0.6398 I0. J-0.0492
N6195 X1.561 Y-0.624 I0. J0.0157
N6200 G1 Y-0.6161
N6205 G19 G3 Y-0.6004 Z-1.1654 J0. K0.0157
N6210 G1 Z0.1969
N6215 X1.5295 Y0.5965
N6220 Z-0.1181
N6225 Z-0.1811
N6230 G2 Y0.5807 Z-0.1969 J-0.0157 K0.
N6235 G1 Y0.5728
N6240 G17 G3 X1.5453 Y0.5571 I0.0157 J0.
N6245 Y0.624 Z-0.2008 I0. J0.0335
N6250 Y0.5571 Z-0.2047 I0. J-0.0335
N6255 Y0.624 Z-0.2086 I0. J0.0335
N6260 Y0.5571 Z-0.2125 I0. J-0.0335
N6265 Y0.624 Z-0.2164 I0. J0.0335
N6270 Y0.5571 Z-0.2204 I0. J-0.0335
N6275 Y0.624 Z-0.2243 I0. J0.0335
N6280 Y0.5571 Z-0.2282 I0. J-0.0335
N6285 Y0.624 Z-0.2321 I0. J0.0335
N6290 Y0.5571 Z-0.236 I0. J-0.0335
N6295 Y0.624 Z-0.24 I0. J0.0335
N6300 Y0.5571 Z-0.2439 I0. J-0.0335
N6305 Y0.624 Z-0.2478 I0. J0.0335
N6310 Y0.5571 Z-0.2517 I0. J-0.0335
N6315 Y0.624 Z-0.2556 I0. J0.0335
N6320 Y0.5571 Z-0.2595 I0. J-0.0335
N6325 Y0.624 Z-0.2635 I0. J0.0335
N6330 Y0.5571 Z-0.2674 I0. J-0.0335
N6335 Y0.624 Z-0.2713 I0. J0.0335
N6340 Y0.5571 Z-0.2752 I0. J-0.0335
N6345 Y0.624 Z-0.2791 I0. J0.0335
N6350 Y0.5571 Z-0.2831 I0. J-0.0335
N6355 Y0.624 Z-0.287 I0. J0.0335
N6360 Y0.5571 Z-0.2909 I0. J-0.0335
N6365 Y0.624 Z-0.2948 I0. J0.0335
N6370 Y0.5571 Z-0.2987 I0. J-0.0335
N6375 Y0.624 Z-0.3026 I0. J0.0335
N6380 Y0.5571 Z-0.3066 I0. J-0.0335
N6385 Y0.624 Z-0.3105 I0. J0.0335
N6390 Y0.5571 Z-0.3144 I0. J-0.0335
N6395 Y0.624 Z-0.3183 I0. J0.0335
N6400 Y0.5571 Z-0.3222 I0. J-0.0335
N6405 Y0.624 Z-0.3262 I0. J0.0335
N6410 Y0.5571 Z-0.3301 I0. J-0.0335
N6415 Y0.624 Z-0.334 I0. J0.0335
N6420 Y0.5571 Z-0.3379 I0. J-0.0335
N6425 Y0.624 Z-0.3418 I0. J0.0335
N6430 Y0.5571 Z-0.3457 I0. J-0.0335
N6435 Y0.624 Z-0.3497 I0. J0.0335
N6440 Y0.5571 Z-0.3536 I0. J-0.0335
N6445 Y0.624 Z-0.3575 I0. J0.0335
N6450 Y0.5571 Z-0.3614 I0. J-0.0335
N6455 Y0.624 Z-0.3653 I0. J0.0335
N6460 Y0.5571 Z-0.3693 I0. J-0.0335
N6465 Y0.624 Z-0.3732 I0. J0.0335
N6470 Y0.5571 Z-0.3771 I0. J-0.0335
N6475 Y0.624 Z-0.381 I0. J0.0335
N6480 Y0.5571 Z-0.3849 I0. J-0.0335
N6485 Y0.624 Z-0.3888 I0. J0.0335
N6490 Y0.5571 Z-0.3928 I0. J-0.0335
N6495 Y0.624 Z-0.3967 I0. J0.0335
N6500 Y0.5571 Z-0.4006 I0. J-0.0335
N6505 Y0.624 Z-0.4045 I0. J0.0335
N6510 Y0.5571 Z-0.4084 I0. J-0.0335
N6515 Y0.624 Z-0.4124 I0. J0.0335
N6520 Y0.5571 Z-0.4163 I0. J-0.0335
N6525 Y0.624 Z-0.4202 I0. J0.0335
N6530 Y0.5571 Z-0.4241 I0. J-0.0335
N6535 Y0.624 Z-0.428 I0. J0.0335
N6540 Y0.5571 Z-0.4319 I0. J-0.0335
N6545 Y0.624 Z-0.4359 I0. J0.0335
N6550 Y0.5571 Z-0.4398 I0. J-0.0335
N6555 Y0.624 Z-0.4437 I0. J0.0335
N6560 Y0.5571 Z-0.4476 I0. J-0.0335
N6565 Y0.624 Z-0.4515 I0. J0.0335
N6570 Y0.5571 Z-0.4555 I0. J-0.0335
N6575 Y0.624 Z-0.4594 I0. J0.0335
N6580 Y0.5571 Z-0.4633 I0. J-0.0335
N6585 Y0.624 Z-0.4672 I0. J0.0335
N6590 Y0.5571 Z-0.4711 I0. J-0.0335
N6595 Y0.624 Z-0.475 I0. J0.0335
N6600 Y0.5571 Z-0.479 I0. J-0.0335
N6605 Y0.624 Z-0.4829 I0. J0.0335
N6610 Y0.5571 Z-0.4868 I0. J-0.0335
N6615 Y0.624 Z-0.4907 I0. J0.0335
N6620 Y0.5571 Z-0.4946 I0. J-0.0335
N6625 Y0.624 Z-0.4986 I0. J0.0335
N6630 Y0.5571 Z-0.5025 I0. J-0.0335
N6635 Y0.624 Z-0.5064 I0. J0.0335
N6640 Y0.5571 Z-0.5103 I0. J-0.0335
N6645 Y0.624 Z-0.5142 I0. J0.0335
N6650 Y0.5571 Z-0.5181 I0. J-0.0335
N6655 Y0.624 Z-0.5221 I0. J0.0335
N6660 Y0.5571 Z-0.526 I0. J-0.0335
N6665 Y0.624 Z-0.5299 I0. J0.0335
N6670 Y0.5571 Z-0.5338 I0. J-0.0335
N6675 Y0.624 Z-0.5377 I0. J0.0335
N6680 Y0.5571 Z-0.5417 I0. J-0.0335
N6685 Y0.624 Z-0.5456 I0. J0.0335
N6690 Y0.5571 Z-0.5495 I0. J-0.0335
N6695 Y0.624 Z-0.5534 I0. J0.0335
N6700 Y0.5571 Z-0.5573 I0. J-0.0335
N6705 Y0.624 Z-0.5612 I0. J0.0335
N6710 Y0.5571 Z-0.5652 I0. J-0.0335
N6715 Y0.624 Z-0.5691 I0. J0.0335
N6720 Y0.5571 Z-0.573 I0. J-0.0335
N6725 Y0.624 Z-0.5769 I0. J0.0335
N6730 Y0.5571 Z-0.5808 I0. J-0.0335
N6735 Y0.624 Z-0.5848 I0. J0.0335
N6740 Y0.5571 Z-0.5887 I0. J-0.0335
N6745 Y0.624 Z-0.5926 I0. J0.0335
N6750 Y0.5571 Z-0.5965 I0. J-0.0335
N6755 Y0.624 Z-0.6004 I0. J0.0335
N6760 Y0.5571 Z-0.6044 I0. J-0.0335
N6765 Y0.624 Z-0.6083 I0. J0.0335
N6770 Y0.5571 Z-0.6122 I0. J-0.0335
N6775 Y0.624 Z-0.6161 I0. J0.0335
N6780 Y0.5571 Z-0.62 I0. J-0.0335
N6785 Y0.624 Z-0.6239 I0. J0.0335
N6790 Y0.5571 Z-0.6279 I0. J-0.0335
N6795 Y0.624 Z-0.6318 I0. J0.0335
N6800 Y0.5571 Z-0.6357 I0. J-0.0335
N6805 Y0.624 Z-0.6396 I0. J0.0335
N6810 Y0.5571 Z-0.6435 I0. J-0.0335
N6815 Y0.624 Z-0.6475 I0. J0.0335
N6820 Y0.5571 Z-0.6514 I0. J-0.0335
N6825 Y0.624 Z-0.6553 I0. J0.0335
N6830 Y0.5571 Z-0.6592 I0. J-0.0335
N6835 Y0.624 Z-0.6631 I0. J0.0335
N6840 Y0.5571 Z-0.667 I0. J-0.0335
N6845 Y0.624 Z-0.671 I0. J0.0335
N6850 Y0.5571 Z-0.6749 I0. J-0.0335
N6855 Y0.624 Z-0.6788 I0. J0.0335
N6860 Y0.5571 Z-0.6827 I0. J-0.0335
N6865 Y0.624 Z-0.6866 I0. J0.0335
N6870 Y0.5571 Z-0.6906 I0. J-0.0335
N6875 Y0.624 Z-0.6945 I0. J0.0335
N6880 Y0.5571 Z-0.6984 I0. J-0.0335
N6885 Y0.624 Z-0.7023 I0. J0.0335
N6890 Y0.5571 Z-0.7062 I0. J-0.0335
N6895 Y0.624 Z-0.7101 I0. J0.0335
N6900 Y0.5571 Z-0.7141 I0. J-0.0335
N6905 Y0.624 Z-0.718 I0. J0.0335
N6910 Y0.5571 Z-0.7219 I0. J-0.0335
N6915 Y0.624 Z-0.7258 I0. J0.0335
N6920 Y0.5571 Z-0.7297 I0. J-0.0335
N6925 Y0.624 Z-0.7337 I0. J0.0335
N6930 Y0.5571 Z-0.7376 I0. J-0.0335
N6935 Y0.624 Z-0.7415 I0. J0.0335
N6940 Y0.5571 Z-0.7454 I0. J-0.0335
N6945 Y0.624 Z-0.7493 I0. J0.0335
N6950 Y0.5571 Z-0.7532 I0. J-0.0335
N6955 Y0.624 Z-0.7572 I0. J0.0335
N6960 Y0.5571 Z-0.7611 I0. J-0.0335
N6965 Y0.624 Z-0.765 I0. J0.0335
N6970 Y0.5571 Z-0.7689 I0. J-0.0335
N6975 Y0.624 Z-0.7728 I0. J0.0335
N6980 Y0.5571 Z-0.7768 I0. J-0.0335
N6985 Y0.624 Z-0.7807 I0. J0.0335
N6990 Y0.5571 Z-0.7846 I0. J-0.0335
N6995 Y0.624 Z-0.7885 I0. J0.0335
N7000 Y0.5571 Z-0.7924 I0. J-0.0335
N7005 Y0.624 Z-0.7963 I0. J0.0335
N7010 Y0.5571 Z-0.8003 I0. J-0.0335
N7015 Y0.624 Z-0.8042 I0. J0.0335
N7020 Y0.5571 Z-0.8081 I0. J-0.0335
N7025 Y0.624 Z-0.812 I0. J0.0335
N7030 Y0.5571 Z-0.8159 I0. J-0.0335
N7035 Y0.624 Z-0.8199 I0. J0.0335
N7040 Y0.5571 Z-0.8238 I0. J-0.0335
N7045 Y0.624 Z-0.8277 I0. J0.0335
N7050 Y0.5571 Z-0.8316 I0. J-0.0335
N7055 Y0.624 Z-0.8355 I0. J0.0335
N7060 Y0.5571 Z-0.8394 I0. J-0.0335
N7065 Y0.624 Z-0.8434 I0. J0.0335
N7070 Y0.5571 Z-0.8473 I0. J-0.0335
N7075 Y0.624 Z-0.8512 I0. J0.0335
N7080 Y0.5571 Z-0.8551 I0. J-0.0335
N7085 Y0.624 Z-0.859 I0. J0.0335
N7090 Y0.5571 Z-0.863 I0. J-0.0335
N7095 Y0.624 Z-0.8669 I0. J0.0335
N7100 Y0.5571 Z-0.8708 I0. J-0.0335
N7105 Y0.624 Z-0.8747 I0. J0.0335
N7110 Y0.5571 Z-0.8786 I0. J-0.0335
N7115 Y0.624 Z-0.8825 I0. J0.0335
N7120 Y0.5571 Z-0.8865 I0. J-0.0335
N7125 Y0.624 Z-0.8904 I0. J0.0335
N7130 Y0.5571 Z-0.8943 I0. J-0.0335
N7135 Y0.624 Z-0.8982 I0. J0.0335
N7140 Y0.5571 Z-0.9021 I0. J-0.0335
N7145 Y0.624 Z-0.9061 I0. J0.0335
N7150 Y0.5571 Z-0.91 I0. J-0.0335
N7155 Y0.624 Z-0.9139 I0. J0.0335
N7160 Y0.5571 Z-0.9178 I0. J-0.0335
N7165 Y0.624 Z-0.9217 I0. J0.0335
N7170 Y0.5571 Z-0.9256 I0. J-0.0335
N7175 Y0.624 Z-0.9296 I0. J0.0335
N7180 Y0.5571 Z-0.9335 I0. J-0.0335
N7185 Y0.624 Z-0.9374 I0. J0.0335
N7190 Y0.5571 Z-0.9413 I0. J-0.0335
N7195 Y0.624 Z-0.9452 I0. J0.0335
N7200 Y0.5571 Z-0.9492 I0. J-0.0335
N7205 Y0.624 Z-0.9531 I0. J0.0335
N7210 Y0.5571 Z-0.957 I0. J-0.0335
N7215 Y0.624 Z-0.9609 I0. J0.0335
N7220 Y0.5571 Z-0.9648 I0. J-0.0335
N7225 Y0.624 Z-0.9688 I0. J0.0335
N7230 Y0.5571 Z-0.9727 I0. J-0.0335
N7235 Y0.624 Z-0.9766 I0. J0.0335
N7240 Y0.5571 Z-0.9805 I0. J-0.0335
N7245 Y0.624 Z-0.9844 I0. J0.0335
N7250 Y0.5571 Z-0.9883 I0. J-0.0335
N7255 Y0.624 Z-0.9923 I0. J0.0335
N7260 Y0.5571 Z-0.9962 I0. J-0.0335
N7265 Y0.624 Z-1.0001 I0. J0.0335
N7270 Y0.5571 Z-1.004 I0. J-0.0335
N7275 Y0.624 Z-1.0079 I0. J0.0335
N7280 Y0.5571 Z-1.0119 I0. J-0.0335
N7285 Y0.624 Z-1.0158 I0. J0.0335
N7290 Y0.5571 Z-1.0197 I0. J-0.0335
N7295 Y0.624 Z-1.0236 I0. J0.0335
N7300 Y0.5571 Z-1.0275 I0. J-0.0335
N7305 Y0.624 Z-1.0314 I0. J0.0335
N7310 Y0.5571 Z-1.0354 I0. J-0.0335
N7315 Y0.624 Z-1.0393 I0. J0.0335
N7320 Y0.5571 Z-1.0432 I0. J-0.0335
N7325 Y0.624 Z-1.0471 I0. J0.0335
N7330 Y0.5571 Z-1.051 I0. J-0.0335
N7335 Y0.624 Z-1.055 I0. J0.0335
N7340 Y0.5571 Z-1.0589 I0. J-0.0335
N7345 Y0.624 Z-1.0628 I0. J0.0335
N7350 Y0.5571 Z-1.0667 I0. J-0.0335
N7355 Y0.624 Z-1.0706 I0. J0.0335
N7360 Y0.5571 Z-1.0745 I0. J-0.0335
N7365 Y0.624 Z-1.0785 I0. J0.0335
N7370 Y0.5571 Z-1.0824 I0. J-0.0335
N7375 Y0.624 Z-1.0863 I0. J0.0335
N7380 Y0.5571 Z-1.0902 I0. J-0.0335
N7385 Y0.624 Z-1.0941 I0. J0.0335
N7390 Y0.5571 Z-1.0981 I0. J-0.0335
N7395 Y0.624 Z-1.102 I0. J0.0335
N7400 Y0.5571 Z-1.1059 I0. J-0.0335
N7405 Y0.624 Z-1.1098 I0. J0.0335
N7410 Y0.5571 Z-1.1137 I0. J-0.0335
N7415 Y0.624 Z-1.1176 I0. J0.0335
N7420 Y0.5571 Z-1.1216 I0. J-0.0335
N7425 Y0.624 Z-1.1255 I0. J0.0335
N7430 Y0.5571 Z-1.1294 I0. J-0.0335
N7435 Y0.624 Z-1.1333 I0. J0.0335
N7440 Y0.5571 Z-1.1372 I0. J-0.0335
N7445 Y0.624 Z-1.1412 I0. J0.0335
N7450 Y0.5571 Z-1.1451 I0. J-0.0335
N7455 Y0.624 Z-1.149 I0. J0.0335
N7460 Y0.5571 Z-1.1529 I0. J-0.0335
N7465 Y0.624 Z-1.1568 I0. J0.0335
N7470 Y0.5571 Z-1.1607 I0. J-0.0335
N7475 Y0.624 Z-1.1647 I0. J0.0335
N7480 Y0.5571 Z-1.1686 I0. J-0.0335
N7485 Y0.624 Z-1.1725 I0. J0.0335
N7490 Y0.5571 Z-1.1764 I0. J-0.0335
N7495 Y0.624 Z-1.1803 I0. J0.0335
N7500 X1.526 Y0.6179 Z-1.1811 I0. J-0.0335
N7505 X1.5645 Y0.5632 I0.0193 J-0.0274
N7510 X1.526 Y0.6179 I-0.0193 J0.0274
N7515 X1.5222 Y0.596 I0.0091 J-0.0129
N7520 G1 X1.5267 Y0.5895
N7525 X1.5285 Y0.587 Z-1.1808
N7530 X1.5302 Y0.5846 Z-1.1799
N7535 X1.5318 Y0.5824 Z-1.1784
N7540 X1.5331 Y0.5804 Z-1.1765
N7545 X1.5343 Y0.5788 Z-1.1741
N7550 X1.5351 Y0.5776 Z-1.1714
N7555 X1.5356 Y0.5769 Z-1.1684
N7560 X1.5358 Y0.5767 Z-1.1654
N7565 Z0.1969
N7570 X1.5295 Y0.5807
N7575 Z-1.1024
N7580 Z-1.1654
N7585 G19 G2 Y0.565 Z-1.1811 J-0.0157 K0.
N7590 G1 Y0.5571
N7595 G17 G3 X1.5453 Y0.5413 I0.0157 J0.
N7600 Y0.6398 I0. J0.0492
N7605 Y0.5413 I0. J-0.0492
N7610 X1.561 Y0.5571 I0. J0.0157
N7615 G1 Y0.565
N7620 G19 G3 Y0.5807 Z-1.1654 J0. K0.0157
N7625 G1 Z0.5906
N7630 G17
N7635 M5
N7640 G53 G0 Z0.
N7645 M30
%
