%
(1001)
(MACHINE)
(  VENDOR PRINTNC)
(  MODEL PRINTNC V4 METALCUTTER)
(  DESCRIPTION GENERIC 3-AXIS ROUTER)
(T10 D=0.125 CR=0. - ZMIN=-0.5906 - FLAT END MILL)
N10 G90 G94 G17 G91.1
N15 G20
(WHEN USING FUSION FOR PERSONAL USE, THE FEEDRATE OF RAPID)
(MOVES IS REDUCED TO MATCH THE FEEDRATE OF CUTTING MOVES,)
(WHICH CAN INCREASE MACHINING TIME. UNRESTRICTED RAPID MOVES)
(ARE AVAILABLE WITH A FUSION SUBSCRIPTION.)
N20 G53 G0 Z0.
(BORE1)
N25 T10 M6
N30 S24000 M3
N35 G17 G90 G94
N40 G54
N45 G64 P0.0004 Q0.0004
N50 G0 X0.5327 Y-0.5164
N55 G43 Z0.5906 H10
N60 G1 Z0.1575 F9.843
N65 Z0.0912
N70 X0.533 Y-0.5165 Z0.0885
N75 X0.5339 Y-0.5166 Z0.0858
N80 X0.5354 Y-0.5168 Z0.0834
N85 X0.5373 Y-0.517 Z0.0815
N90 X0.5397 Y-0.5173 Z0.08
N95 X0.5423 Y-0.5177 Z0.0791
N100 X0.5451 Y-0.518 Z0.0787
N105 X0.5513 Y-0.5188
N110 G3 X0.5652 Y-0.508 I0.0016 J0.0124
N115 X0.4926 Y-0.4987 Z0.0689 I-0.0363 J0.0046
N120 X0.5652 Y-0.508 Z0.0591 I0.0363 J-0.0046
N125 X0.4926 Y-0.4987 Z0.0492 I-0.0363 J0.0046
N130 X0.5652 Y-0.508 Z0.0394 I0.0363 J-0.0046
N135 X0.4926 Y-0.4987 Z0.0295 I-0.0363 J0.0046
N140 X0.5652 Y-0.508 Z0.0197 I0.0363 J-0.0046
N145 X0.4926 Y-0.4987 Z0.0098 I-0.0363 J0.0046
N150 X0.5652 Y-0.508 Z0. I0.0363 J-0.0046
N155 X0.4926 Y-0.4987 Z-0.0098 I-0.0363 J0.0046
N160 X0.5652 Y-0.508 Z-0.0197 I0.0363 J-0.0046
N165 X0.4926 Y-0.4987 Z-0.0295 I-0.0363 J0.0046
N170 X0.5652 Y-0.508 Z-0.0394 I0.0363 J-0.0046
N175 X0.4926 Y-0.4987 Z-0.0492 I-0.0363 J0.0046
N180 X0.5652 Y-0.508 Z-0.0591 I0.0363 J-0.0046
N185 X0.4926 Y-0.4987 Z-0.0689 I-0.0363 J0.0046
N190 X0.5652 Y-0.508 Z-0.0787 I0.0363 J-0.0046
N195 X0.4926 Y-0.4987 Z-0.0886 I-0.0363 J0.0046
N200 X0.5652 Y-0.508 Z-0.0984 I0.0363 J-0.0046
N205 X0.4926 Y-0.4987 Z-0.1083 I-0.0363 J0.0046
N210 X0.5652 Y-0.508 Z-0.1181 I0.0363 J-0.0046
N215 X0.4926 Y-0.4987 Z-0.128 I-0.0363 J0.0046
N220 X0.5652 Y-0.508 Z-0.1378 I0.0363 J-0.0046
N225 X0.4926 Y-0.4987 Z-0.1476 I-0.0363 J0.0046
N230 X0.5652 Y-0.508 Z-0.1575 I0.0363 J-0.0046
N235 X0.4926 Y-0.4987 Z-0.1673 I-0.0363 J0.0046
N240 X0.5652 Y-0.508 Z-0.1772 I0.0363 J-0.0046
N245 X0.4926 Y-0.4987 Z-0.187 I-0.0363 J0.0046
N250 X0.5652 Y-0.508 Z-0.1969 I0.0363 J-0.0046
N255 X0.4926 Y-0.4987 Z-0.2067 I-0.0363 J0.0046
N260 X0.5652 Y-0.508 Z-0.2165 I0.0363 J-0.0046
N265 X0.4926 Y-0.4987 Z-0.2264 I-0.0363 J0.0046
N270 X0.5652 Y-0.508 Z-0.2362 I0.0363 J-0.0046
N275 X0.4926 Y-0.4987 Z-0.2461 I-0.0363 J0.0046
N280 X0.5652 Y-0.508 Z-0.2559 I0.0363 J-0.0046
N285 X0.4926 Y-0.4987 Z-0.2657 I-0.0363 J0.0046
N290 X0.5652 Y-0.508 Z-0.2756 I0.0363 J-0.0046
N295 X0.4926 Y-0.4987 Z-0.2854 I-0.0363 J0.0046
N300 X0.5652 Y-0.508 Z-0.2953 I0.0363 J-0.0046
N305 X0.4926 Y-0.4987 Z-0.3051 I-0.0363 J0.0046
N310 X0.5652 Y-0.508 Z-0.315 I0.0363 J-0.0046
N315 X0.4926 Y-0.4987 Z-0.3248 I-0.0363 J0.0046
N320 X0.5652 Y-0.508 Z-0.3346 I0.0363 J-0.0046
N325 X0.4926 Y-0.4987 Z-0.3445 I-0.0363 J0.0046
N330 X0.5652 Y-0.508 Z-0.3543 I0.0363 J-0.0046
N335 X0.4926 Y-0.4987 Z-0.3642 I-0.0363 J0.0046
N340 X0.5652 Y-0.508 Z-0.374 I0.0363 J-0.0046
N345 X0.4926 Y-0.4987 Z-0.3839 I-0.0363 J0.0046
N350 X0.5652 Y-0.508 Z-0.3937 I0.0363 J-0.0046
N355 X0.4926 Y-0.4987 Z-0.4035 I-0.0363 J0.0046
N360 X0.5652 Y-0.508 Z-0.4134 I0.0363 J-0.0046
N365 X0.4926 Y-0.4987 Z-0.4232 I-0.0363 J0.0046
N370 X0.5652 Y-0.508 Z-0.4331 I0.0363 J-0.0046
N375 X0.4926 Y-0.4987 Z-0.4429 I-0.0363 J0.0046
N380 X0.5652 Y-0.508 Z-0.4528 I0.0363 J-0.0046
N385 X0.4926 Y-0.4987 Z-0.4626 I-0.0363 J0.0046
N390 X0.5652 Y-0.508 Z-0.4724 I0.0363 J-0.0046
N395 X0.4926 Y-0.4987 Z-0.4823 I-0.0363 J0.0046
N400 X0.5652 Y-0.508 Z-0.4921 I0.0363 J-0.0046
N405 X0.4926 Y-0.4987 Z-0.502 I-0.0363 J0.0046
N410 X0.5652 Y-0.508 Z-0.5118 I0.0363 J-0.0046
N415 X0.4926 Y-0.4987 Z-0.5217 I-0.0363 J0.0046
N420 X0.5652 Y-0.508 Z-0.5315 I0.0363 J-0.0046
N425 X0.4926 Y-0.4987 Z-0.5413 I-0.0363 J0.0046
N430 X0.5652 Y-0.508 Z-0.5512 I0.0363 J-0.0046
N435 X0.4926 Y-0.4987 Z-0.561 I-0.0363 J0.0046
N440 X0.5652 Y-0.508 Z-0.5709 I0.0363 J-0.0046
N445 X0.4926 Y-0.4987 Z-0.5807 I-0.0363 J0.0046
N450 X0.5652 Y-0.508 Z-0.5906 I0.0363 J-0.0046
N455 X0.4926 Y-0.4987 I-0.0363 J0.0046
N460 X0.5652 Y-0.508 I0.0363 J-0.0046
N465 X0.5544 Y-0.494 I-0.0124 J0.0016
N470 G1 X0.5482 Y-0.4932
N475 X0.5455 Y-0.4929 Z-0.5902
N480 X0.5428 Y-0.4925 Z-0.5893
N485 X0.5405 Y-0.4922 Z-0.5878
N490 X0.5385 Y-0.492 Z-0.5858
N495 X0.537 Y-0.4918 Z-0.5835
N500 X0.5361 Y-0.4917 Z-0.5808
N505 X0.5358 Y-0.4916 Z-0.5781
N510 Z0.1969
N515 X0.7599 Y0.019
N520 Z0.1575
N525 Z0.0912
N530 X0.7602 Y0.0192 Z0.0885
N535 X0.7609 Y0.0197 Z0.0858
N540 X0.7621 Y0.0206 Z0.0834
N545 X0.7636 Y0.0219 Z0.0815
N550 X0.7655 Y0.0233 Z0.08
N555 X0.7676 Y0.0249 Z0.0791
N560 X0.7698 Y0.0266 Z0.0787
N565 X0.7747 Y0.0305
N570 G3 X0.777 Y0.048 I-0.0076 J0.0099
N575 X0.7191 Y0.0032 Z0.0689 I-0.0289 J-0.0224
N580 X0.777 Y0.048 Z0.0591 I0.0289 J0.0224
N585 X0.7191 Y0.0032 Z0.0492 I-0.0289 J-0.0224
N590 X0.777 Y0.048 Z0.0394 I0.0289 J0.0224
N595 X0.7191 Y0.0032 Z0.0295 I-0.0289 J-0.0224
N600 X0.777 Y0.048 Z0.0197 I0.0289 J0.0224
N605 X0.7191 Y0.0032 Z0.0098 I-0.0289 J-0.0224
N610 X0.777 Y0.048 Z0. I0.0289 J0.0224
N615 X0.7191 Y0.0032 Z-0.0098 I-0.0289 J-0.0224
N620 X0.777 Y0.048 Z-0.0197 I0.0289 J0.0224
N625 X0.7191 Y0.0032 Z-0.0295 I-0.0289 J-0.0224
N630 X0.777 Y0.048 Z-0.0394 I0.0289 J0.0224
N635 X0.7191 Y0.0032 Z-0.0492 I-0.0289 J-0.0224
N640 X0.777 Y0.048 Z-0.0591 I0.0289 J0.0224
N645 X0.7191 Y0.0032 Z-0.0689 I-0.0289 J-0.0224
N650 X0.777 Y0.048 Z-0.0787 I0.0289 J0.0224
N655 X0.7191 Y0.0032 Z-0.0886 I-0.0289 J-0.0224
N660 X0.777 Y0.048 Z-0.0984 I0.0289 J0.0224
N665 X0.7191 Y0.0032 Z-0.1083 I-0.0289 J-0.0224
N670 X0.777 Y0.048 Z-0.1181 I0.0289 J0.0224
N675 X0.7191 Y0.0032 Z-0.128 I-0.0289 J-0.0224
N680 X0.777 Y0.048 Z-0.1378 I0.0289 J0.0224
N685 X0.7191 Y0.0032 Z-0.1476 I-0.0289 J-0.0224
N690 X0.777 Y0.048 Z-0.1575 I0.0289 J0.0224
N695 X0.7191 Y0.0032 Z-0.1673 I-0.0289 J-0.0224
N700 X0.777 Y0.048 Z-0.1772 I0.0289 J0.0224
N705 X0.7191 Y0.0032 Z-0.187 I-0.0289 J-0.0224
N710 X0.777 Y0.048 Z-0.1969 I0.0289 J0.0224
N715 X0.7191 Y0.0032 Z-0.2067 I-0.0289 J-0.0224
N720 X0.777 Y0.048 Z-0.2165 I0.0289 J0.0224
N725 X0.7191 Y0.0032 Z-0.2264 I-0.0289 J-0.0224
N730 X0.777 Y0.048 Z-0.2362 I0.0289 J0.0224
N735 X0.7191 Y0.0032 Z-0.2461 I-0.0289 J-0.0224
N740 X0.777 Y0.048 Z-0.2559 I0.0289 J0.0224
N745 X0.7191 Y0.0032 Z-0.2657 I-0.0289 J-0.0224
N750 X0.777 Y0.048 Z-0.2756 I0.0289 J0.0224
N755 X0.7191 Y0.0032 Z-0.2854 I-0.0289 J-0.0224
N760 X0.777 Y0.048 Z-0.2953 I0.0289 J0.0224
N765 X0.7191 Y0.0032 Z-0.3051 I-0.0289 J-0.0224
N770 X0.777 Y0.048 Z-0.315 I0.0289 J0.0224
N775 X0.7191 Y0.0032 Z-0.3248 I-0.0289 J-0.0224
N780 X0.777 Y0.048 Z-0.3346 I0.0289 J0.0224
N785 X0.7191 Y0.0032 Z-0.3445 I-0.0289 J-0.0224
N790 X0.777 Y0.048 Z-0.3543 I0.0289 J0.0224
N795 X0.7191 Y0.0032 Z-0.3642 I-0.0289 J-0.0224
N800 X0.777 Y0.048 Z-0.374 I0.0289 J0.0224
N805 X0.7191 Y0.0032 Z-0.3839 I-0.0289 J-0.0224
N810 X0.777 Y0.048 Z-0.3937 I0.0289 J0.0224
N815 X0.7191 Y0.0032 Z-0.4035 I-0.0289 J-0.0224
N820 X0.777 Y0.048 Z-0.4134 I0.0289 J0.0224
N825 X0.7191 Y0.0032 Z-0.4232 I-0.0289 J-0.0224
N830 X0.777 Y0.048 Z-0.4331 I0.0289 J0.0224
N835 X0.7191 Y0.0032 Z-0.4429 I-0.0289 J-0.0224
N840 X0.777 Y0.048 Z-0.4528 I0.0289 J0.0224
N845 X0.7191 Y0.0032 Z-0.4626 I-0.0289 J-0.0224
N850 X0.777 Y0.048 Z-0.4724 I0.0289 J0.0224
N855 X0.7191 Y0.0032 Z-0.4823 I-0.0289 J-0.0224
N860 X0.777 Y0.048 Z-0.4921 I0.0289 J0.0224
N865 X0.7191 Y0.0032 Z-0.502 I-0.0289 J-0.0224
N870 X0.777 Y0.048 Z-0.5118 I0.0289 J0.0224
N875 X0.7191 Y0.0032 Z-0.5217 I-0.0289 J-0.0224
N880 X0.777 Y0.048 Z-0.5315 I0.0289 J0.0224
N885 X0.7191 Y0.0032 Z-0.5413 I-0.0289 J-0.0224
N890 X0.777 Y0.048 Z-0.5512 I0.0289 J0.0224
N895 X0.7191 Y0.0032 Z-0.561 I-0.0289 J-0.0224
N900 X0.777 Y0.048 Z-0.5709 I0.0289 J0.0224
N905 X0.7191 Y0.0032 Z-0.5807 I-0.0289 J-0.0224
N910 X0.777 Y0.048 Z-0.5906 I0.0289 J0.0224
N915 X0.7191 Y0.0032 I-0.0289 J-0.0224
N920 X0.777 Y0.048 I0.0289 J0.0224
N925 X0.7594 Y0.0502 I-0.0099 J-0.0076
N930 G1 X0.7545 Y0.0464
N935 X0.7523 Y0.0447 Z-0.5902
N940 X0.7502 Y0.0431 Z-0.5893
N945 X0.7483 Y0.0416 Z-0.5878
N950 X0.7468 Y0.0404 Z-0.5858
N955 X0.7456 Y0.0395 Z-0.5835
N960 X0.7449 Y0.0389 Z-0.5808
N965 X0.7446 Y0.0387 Z-0.5781
N970 Z0.1969
N975 X0.5358 Y0.5428
N980 Z0.1575
N985 Z0.0912
N990 X0.5361 Z0.0885
N995 X0.537 Y0.543 Z0.0858
N1000 X0.5385 Y0.5431 Z0.0834
N1005 X0.5405 Y0.5434 Z0.0815
N1010 X0.5428 Y0.5437 Z0.08
N1015 X0.5455 Y0.544 Z0.0791
N1020 X0.5482 Y0.5444 Z0.0787
N1025 X0.5544 Y0.5452
N1030 G3 X0.5652 Y0.5592 I-0.0016 J0.0124
N1035 X0.4926 Y0.5499 Z0.0689 I-0.0363 J-0.0046
N1040 X0.5652 Y0.5592 Z0.0591 I0.0363 J0.0046
N1045 X0.4926 Y0.5499 Z0.0492 I-0.0363 J-0.0046
N1050 X0.5652 Y0.5592 Z0.0394 I0.0363 J0.0046
N1055 X0.4926 Y0.5499 Z0.0295 I-0.0363 J-0.0046
N1060 X0.5652 Y0.5592 Z0.0197 I0.0363 J0.0046
N1065 X0.4926 Y0.5499 Z0.0098 I-0.0363 J-0.0046
N1070 X0.5652 Y0.5592 Z0. I0.0363 J0.0046
N1075 X0.4926 Y0.5499 Z-0.0098 I-0.0363 J-0.0046
N1080 X0.5652 Y0.5592 Z-0.0197 I0.0363 J0.0046
N1085 X0.4926 Y0.5499 Z-0.0295 I-0.0363 J-0.0046
N1090 X0.5652 Y0.5592 Z-0.0394 I0.0363 J0.0046
N1095 X0.4926 Y0.5499 Z-0.0492 I-0.0363 J-0.0046
N1100 X0.5652 Y0.5592 Z-0.0591 I0.0363 J0.0046
N1105 X0.4926 Y0.5499 Z-0.0689 I-0.0363 J-0.0046
N1110 X0.5652 Y0.5592 Z-0.0787 I0.0363 J0.0046
N1115 X0.4926 Y0.5499 Z-0.0886 I-0.0363 J-0.0046
N1120 X0.5652 Y0.5592 Z-0.0984 I0.0363 J0.0046
N1125 X0.4926 Y0.5499 Z-0.1083 I-0.0363 J-0.0046
N1130 X0.5652 Y0.5592 Z-0.1181 I0.0363 J0.0046
N1135 X0.4926 Y0.5499 Z-0.128 I-0.0363 J-0.0046
N1140 X0.5652 Y0.5592 Z-0.1378 I0.0363 J0.0046
N1145 X0.4926 Y0.5499 Z-0.1476 I-0.0363 J-0.0046
N1150 X0.5652 Y0.5592 Z-0.1575 I0.0363 J0.0046
N1155 X0.4926 Y0.5499 Z-0.1673 I-0.0363 J-0.0046
N1160 X0.5652 Y0.5592 Z-0.1772 I0.0363 J0.0046
N1165 X0.4926 Y0.5499 Z-0.187 I-0.0363 J-0.0046
N1170 X0.5652 Y0.5592 Z-0.1969 I0.0363 J0.0046
N1175 X0.4926 Y0.5499 Z-0.2067 I-0.0363 J-0.0046
N1180 X0.5652 Y0.5592 Z-0.2165 I0.0363 J0.0046
N1185 X0.4926 Y0.5499 Z-0.2264 I-0.0363 J-0.0046
N1190 X0.5652 Y0.5592 Z-0.2362 I0.0363 J0.0046
N1195 X0.4926 Y0.5499 Z-0.2461 I-0.0363 J-0.0046
N1200 X0.5652 Y0.5592 Z-0.2559 I0.0363 J0.0046
N1205 X0.4926 Y0.5499 Z-0.2657 I-0.0363 J-0.0046
N1210 X0.5652 Y0.5592 Z-0.2756 I0.0363 J0.0046
N1215 X0.4926 Y0.5499 Z-0.2854 I-0.0363 J-0.0046
N1220 X0.5652 Y0.5592 Z-0.2953 I0.0363 J0.0046
N1225 X0.4926 Y0.5499 Z-0.3051 I-0.0363 J-0.0046
N1230 X0.5652 Y0.5592 Z-0.315 I0.0363 J0.0046
N1235 X0.4926 Y0.5499 Z-0.3248 I-0.0363 J-0.0046
N1240 X0.5652 Y0.5592 Z-0.3346 I0.0363 J0.0046
N1245 X0.4926 Y0.5499 Z-0.3445 I-0.0363 J-0.0046
N1250 X0.5652 Y0.5592 Z-0.3543 I0.0363 J0.0046
N1255 X0.4926 Y0.5499 Z-0.3642 I-0.0363 J-0.0046
N1260 X0.5652 Y0.5592 Z-0.374 I0.0363 J0.0046
N1265 X0.4926 Y0.5499 Z-0.3839 I-0.0363 J-0.0046
N1270 X0.5652 Y0.5592 Z-0.3937 I0.0363 J0.0046
N1275 X0.4926 Y0.5499 Z-0.4035 I-0.0363 J-0.0046
N1280 X0.5652 Y0.5592 Z-0.4134 I0.0363 J0.0046
N1285 X0.4926 Y0.5499 Z-0.4232 I-0.0363 J-0.0046
N1290 X0.5652 Y0.5592 Z-0.4331 I0.0363 J0.0046
N1295 X0.4926 Y0.5499 Z-0.4429 I-0.0363 J-0.0046
N1300 X0.5652 Y0.5592 Z-0.4528 I0.0363 J0.0046
N1305 X0.4926 Y0.5499 Z-0.4626 I-0.0363 J-0.0046
N1310 X0.5652 Y0.5592 Z-0.4724 I0.0363 J0.0046
N1315 X0.4926 Y0.5499 Z-0.4823 I-0.0363 J-0.0046
N1320 X0.5652 Y0.5592 Z-0.4921 I0.0363 J0.0046
N1325 X0.4926 Y0.5499 Z-0.502 I-0.0363 J-0.0046
N1330 X0.5652 Y0.5592 Z-0.5118 I0.0363 J0.0046
N1335 X0.4926 Y0.5499 Z-0.5217 I-0.0363 J-0.0046
N1340 X0.5652 Y0.5592 Z-0.5315 I0.0363 J0.0046
N1345 X0.4926 Y0.5499 Z-0.5413 I-0.0363 J-0.0046
N1350 X0.5652 Y0.5592 Z-0.5512 I0.0363 J0.0046
N1355 X0.4926 Y0.5499 Z-0.561 I-0.0363 J-0.0046
N1360 X0.5652 Y0.5592 Z-0.5709 I0.0363 J0.0046
N1365 X0.4926 Y0.5499 Z-0.5807 I-0.0363 J-0.0046
N1370 X0.5652 Y0.5592 Z-0.5906 I0.0363 J0.0046
N1375 X0.4926 Y0.5499 I-0.0363 J-0.0046
N1380 X0.5652 Y0.5592 I0.0363 J0.0046
N1385 X0.5513 Y0.57 I-0.0124 J-0.0016
N1390 G1 X0.5451 Y0.5692
N1395 X0.5423 Y0.5688 Z-0.5902
N1400 X0.5397 Y0.5685 Z-0.5893
N1405 X0.5373 Y0.5682 Z-0.5878
N1410 X0.5354 Y0.5679 Z-0.5858
N1415 X0.5339 Y0.5678 Z-0.5835
N1420 X0.533 Y0.5676 Z-0.5808
N1425 X0.5327 Z-0.5781
N1430 Z0.1969
N1435 X-0.5221 Y0.5428
N1440 Z0.1575
N1445 Z0.0912
N1450 X-0.5217 Z0.0885
N1455 X-0.5208 Y0.543 Z0.0858
N1460 X-0.5194 Y0.5431 Z0.0834
N1465 X-0.5174 Y0.5434 Z0.0815
N1470 X-0.515 Y0.5437 Z0.08
N1475 X-0.5124 Y0.544 Z0.0791
N1480 X-0.5097 Y0.5444 Z0.0787
N1485 X-0.5035 Y0.5452
N1490 G3 X-0.4926 Y0.5592 I-0.0016 J0.0124
N1495 X-0.5652 Y0.5499 Z0.0689 I-0.0363 J-0.0046
N1500 X-0.4926 Y0.5592 Z0.0591 I0.0363 J0.0046
N1505 X-0.5652 Y0.5499 Z0.0492 I-0.0363 J-0.0046
N1510 X-0.4926 Y0.5592 Z0.0394 I0.0363 J0.0046
N1515 X-0.5652 Y0.5499 Z0.0295 I-0.0363 J-0.0046
N1520 X-0.4926 Y0.5592 Z0.0197 I0.0363 J0.0046
N1525 X-0.5652 Y0.5499 Z0.0098 I-0.0363 J-0.0046
N1530 X-0.4926 Y0.5592 Z0. I0.0363 J0.0046
N1535 X-0.5652 Y0.5499 Z-0.0098 I-0.0363 J-0.0046
N1540 X-0.4926 Y0.5592 Z-0.0197 I0.0363 J0.0046
N1545 X-0.5652 Y0.5499 Z-0.0295 I-0.0363 J-0.0046
N1550 X-0.4926 Y0.5592 Z-0.0394 I0.0363 J0.0046
N1555 X-0.5652 Y0.5499 Z-0.0492 I-0.0363 J-0.0046
N1560 X-0.4926 Y0.5592 Z-0.0591 I0.0363 J0.0046
N1565 X-0.5652 Y0.5499 Z-0.0689 I-0.0363 J-0.0046
N1570 X-0.4926 Y0.5592 Z-0.0787 I0.0363 J0.0046
N1575 X-0.5652 Y0.5499 Z-0.0886 I-0.0363 J-0.0046
N1580 X-0.4926 Y0.5592 Z-0.0984 I0.0363 J0.0046
N1585 X-0.5652 Y0.5499 Z-0.1083 I-0.0363 J-0.0046
N1590 X-0.4926 Y0.5592 Z-0.1181 I0.0363 J0.0046
N1595 X-0.5652 Y0.5499 Z-0.128 I-0.0363 J-0.0046
N1600 X-0.4926 Y0.5592 Z-0.1378 I0.0363 J0.0046
N1605 X-0.5652 Y0.5499 Z-0.1476 I-0.0363 J-0.0046
N1610 X-0.4926 Y0.5592 Z-0.1575 I0.0363 J0.0046
N1615 X-0.5652 Y0.5499 Z-0.1673 I-0.0363 J-0.0046
N1620 X-0.4926 Y0.5592 Z-0.1772 I0.0363 J0.0046
N1625 X-0.5652 Y0.5499 Z-0.187 I-0.0363 J-0.0046
N1630 X-0.4926 Y0.5592 Z-0.1969 I0.0363 J0.0046
N1635 X-0.5652 Y0.5499 Z-0.2067 I-0.0363 J-0.0046
N1640 X-0.4926 Y0.5592 Z-0.2165 I0.0363 J0.0046
N1645 X-0.5652 Y0.5499 Z-0.2264 I-0.0363 J-0.0046
N1650 X-0.4926 Y0.5592 Z-0.2362 I0.0363 J0.0046
N1655 X-0.5652 Y0.5499 Z-0.2461 I-0.0363 J-0.0046
N1660 X-0.4926 Y0.5592 Z-0.2559 I0.0363 J0.0046
N1665 X-0.5652 Y0.5499 Z-0.2657 I-0.0363 J-0.0046
N1670 X-0.4926 Y0.5592 Z-0.2756 I0.0363 J0.0046
N1675 X-0.5652 Y0.5499 Z-0.2854 I-0.0363 J-0.0046
N1680 X-0.4926 Y0.5592 Z-0.2953 I0.0363 J0.0046
N1685 X-0.5652 Y0.5499 Z-0.3051 I-0.0363 J-0.0046
N1690 X-0.4926 Y0.5592 Z-0.315 I0.0363 J0.0046
N1695 X-0.5652 Y0.5499 Z-0.3248 I-0.0363 J-0.0046
N1700 X-0.4926 Y0.5592 Z-0.3346 I0.0363 J0.0046
N1705 X-0.5652 Y0.5499 Z-0.3445 I-0.0363 J-0.0046
N1710 X-0.4926 Y0.5592 Z-0.3543 I0.0363 J0.0046
N1715 X-0.5652 Y0.5499 Z-0.3642 I-0.0363 J-0.0046
N1720 X-0.4926 Y0.5592 Z-0.374 I0.0363 J0.0046
N1725 X-0.5652 Y0.5499 Z-0.3839 I-0.0363 J-0.0046
N1730 X-0.4926 Y0.5592 Z-0.3937 I0.0363 J0.0046
N1735 X-0.5652 Y0.5499 Z-0.4035 I-0.0363 J-0.0046
N1740 X-0.4926 Y0.5592 Z-0.4134 I0.0363 J0.0046
N1745 X-0.5652 Y0.5499 Z-0.4232 I-0.0363 J-0.0046
N1750 X-0.4926 Y0.5592 Z-0.4331 I0.0363 J0.0046
N1755 X-0.5652 Y0.5499 Z-0.4429 I-0.0363 J-0.0046
N1760 X-0.4926 Y0.5592 Z-0.4528 I0.0363 J0.0046
N1765 X-0.5652 Y0.5499 Z-0.4626 I-0.0363 J-0.0046
N1770 X-0.4926 Y0.5592 Z-0.4724 I0.0363 J0.0046
N1775 X-0.5652 Y0.5499 Z-0.4823 I-0.0363 J-0.0046
N1780 X-0.4926 Y0.5592 Z-0.4921 I0.0363 J0.0046
N1785 X-0.5652 Y0.5499 Z-0.502 I-0.0363 J-0.0046
N1790 X-0.4926 Y0.5592 Z-0.5118 I0.0363 J0.0046
N1795 X-0.5652 Y0.5499 Z-0.5217 I-0.0363 J-0.0046
N1800 X-0.4926 Y0.5592 Z-0.5315 I0.0363 J0.0046
N1805 X-0.5652 Y0.5499 Z-0.5413 I-0.0363 J-0.0046
N1810 X-0.4926 Y0.5592 Z-0.5512 I0.0363 J0.0046
N1815 X-0.5652 Y0.5499 Z-0.561 I-0.0363 J-0.0046
N1820 X-0.4926 Y0.5592 Z-0.5709 I0.0363 J0.0046
N1825 X-0.5652 Y0.5499 Z-0.5807 I-0.0363 J-0.0046
N1830 X-0.4926 Y0.5592 Z-0.5906 I0.0363 J0.0046
N1835 X-0.5652 Y0.5499 I-0.0363 J-0.0046
N1840 X-0.4926 Y0.5592 I0.0363 J0.0046
N1845 X-0.5066 Y0.57 I-0.0124 J-0.0016
N1850 G1 X-0.5128 Y0.5692
N1855 X-0.5156 Y0.5688 Z-0.5902
N1860 X-0.5182 Y0.5685 Z-0.5893
N1865 X-0.5205 Y0.5682 Z-0.5878
N1870 X-0.5225 Y0.5679 Z-0.5858
N1875 X-0.524 Y0.5678 Z-0.5835
N1880 X-0.5249 Y0.5676 Z-0.5808
N1885 X-0.5252 Z-0.5781
N1890 Z0.1969
N1895 X-0.7427 Y0.0131
N1900 Z0.1575
N1905 Z0.0912
N1910 G18 G2 X-0.7302 Z0.0787 I0.0125 K0.
N1915 G1 X-0.7239
N1920 G17 G3 X-0.7114 Y0.0256 I0. J0.0125
N1925 X-0.7846 Z0.0689 I-0.0366 J0.
N1930 X-0.7114 Z0.0591 I0.0366 J0.
N1935 X-0.7846 Z0.0492 I-0.0366 J0.
N1940 X-0.7114 Z0.0394 I0.0366 J0.
N1945 X-0.7846 Z0.0295 I-0.0366 J0.
N1950 X-0.7114 Z0.0197 I0.0366 J0.
N1955 X-0.7846 Z0.0098 I-0.0366 J0.
N1960 X-0.7114 Z0. I0.0366 J0.
N1965 X-0.7846 Z-0.0098 I-0.0366 J0.
N1970 X-0.7114 Z-0.0197 I0.0366 J0.
N1975 X-0.7846 Z-0.0295 I-0.0366 J0.
N1980 X-0.7114 Z-0.0394 I0.0366 J0.
N1985 X-0.7846 Z-0.0492 I-0.0366 J0.
N1990 X-0.7114 Z-0.0591 I0.0366 J0.
N1995 X-0.7846 Z-0.0689 I-0.0366 J0.
N2000 X-0.7114 Z-0.0787 I0.0366 J0.
N2005 X-0.7846 Z-0.0886 I-0.0366 J0.
N2010 X-0.7114 Z-0.0984 I0.0366 J0.
N2015 X-0.7846 Z-0.1083 I-0.0366 J0.
N2020 X-0.7114 Z-0.1181 I0.0366 J0.
N2025 X-0.7846 Z-0.128 I-0.0366 J0.
N2030 X-0.7114 Z-0.1378 I0.0366 J0.
N2035 X-0.7846 Z-0.1476 I-0.0366 J0.
N2040 X-0.7114 Z-0.1575 I0.0366 J0.
N2045 X-0.7846 Z-0.1673 I-0.0366 J0.
N2050 X-0.7114 Z-0.1772 I0.0366 J0.
N2055 X-0.7846 Z-0.187 I-0.0366 J0.
N2060 X-0.7114 Z-0.1969 I0.0366 J0.
N2065 X-0.7846 Z-0.2067 I-0.0366 J0.
N2070 X-0.7114 Z-0.2165 I0.0366 J0.
N2075 X-0.7846 Z-0.2264 I-0.0366 J0.
N2080 X-0.7114 Z-0.2362 I0.0366 J0.
N2085 X-0.7846 Z-0.2461 I-0.0366 J0.
N2090 X-0.7114 Z-0.2559 I0.0366 J0.
N2095 X-0.7846 Z-0.2657 I-0.0366 J0.
N2100 X-0.7114 Z-0.2756 I0.0366 J0.
N2105 X-0.7846 Z-0.2854 I-0.0366 J0.
N2110 X-0.7114 Z-0.2953 I0.0366 J0.
N2115 X-0.7846 Z-0.3051 I-0.0366 J0.
N2120 X-0.7114 Z-0.315 I0.0366 J0.
N2125 X-0.7846 Z-0.3248 I-0.0366 J0.
N2130 X-0.7114 Z-0.3346 I0.0366 J0.
N2135 X-0.7846 Z-0.3445 I-0.0366 J0.
N2140 X-0.7114 Z-0.3543 I0.0366 J0.
N2145 X-0.7846 Z-0.3642 I-0.0366 J0.
N2150 X-0.7114 Z-0.374 I0.0366 J0.
N2155 X-0.7846 Z-0.3839 I-0.0366 J0.
N2160 X-0.7114 Z-0.3937 I0.0366 J0.
N2165 X-0.7846 Z-0.4035 I-0.0366 J0.
N2170 X-0.7114 Z-0.4134 I0.0366 J0.
N2175 X-0.7846 Z-0.4232 I-0.0366 J0.
N2180 X-0.7114 Z-0.4331 I0.0366 J0.
N2185 X-0.7846 Z-0.4429 I-0.0366 J0.
N2190 X-0.7114 Z-0.4528 I0.0366 J0.
N2195 X-0.7846 Z-0.4626 I-0.0366 J0.
N2200 X-0.7114 Z-0.4724 I0.0366 J0.
N2205 X-0.7846 Z-0.4823 I-0.0366 J0.
N2210 X-0.7114 Z-0.4921 I0.0366 J0.
N2215 X-0.7846 Z-0.502 I-0.0366 J0.
N2220 X-0.7114 Z-0.5118 I0.0366 J0.
N2225 X-0.7846 Z-0.5217 I-0.0366 J0.
N2230 X-0.7114 Z-0.5315 I0.0366 J0.
N2235 X-0.7846 Z-0.5413 I-0.0366 J0.
N2240 X-0.7114 Z-0.5512 I0.0366 J0.
N2245 X-0.7846 Z-0.561 I-0.0366 J0.
N2250 X-0.7114 Z-0.5709 I0.0366 J0.
N2255 X-0.7846 Z-0.5807 I-0.0366 J0.
N2260 X-0.7114 Z-0.5906 I0.0366 J0.
N2265 X-0.7846 I-0.0366 J0.
N2270 X-0.7114 I0.0366 J0.
N2275 X-0.7239 Y0.0381 I-0.0125 J0.
N2280 G1 X-0.7302
N2285 G18 G3 X-0.7427 Z-0.5781 I0. K0.0125
N2290 G1 Z0.1969
N2295 X-0.5327 Y-0.4903
N2300 Z0.1575
N2305 Z0.0912
N2310 X-0.533 Y-0.4902 Z0.0885
N2315 X-0.5339 Y-0.4901 Z0.0858
N2320 X-0.5354 Y-0.4899 Z0.0834
N2325 X-0.5373 Y-0.4897 Z0.0815
N2330 X-0.5397 Y-0.4894 Z0.08
N2335 X-0.5423 Y-0.489 Z0.0791
N2340 X-0.5451 Y-0.4887 Z0.0787
N2345 X-0.5513 Y-0.4879
N2350 G17 G3 X-0.5652 Y-0.4987 I-0.0016 J-0.0124
N2355 X-0.4926 Y-0.508 Z0.0689 I0.0363 J-0.0046
N2360 X-0.5652 Y-0.4987 Z0.0591 I-0.0363 J0.0046
N2365 X-0.4926 Y-0.508 Z0.0492 I0.0363 J-0.0046
N2370 X-0.5652 Y-0.4987 Z0.0394 I-0.0363 J0.0046
N2375 X-0.4926 Y-0.508 Z0.0295 I0.0363 J-0.0046
N2380 X-0.5652 Y-0.4987 Z0.0197 I-0.0363 J0.0046
N2385 X-0.4926 Y-0.508 Z0.0098 I0.0363 J-0.0046
N2390 X-0.5652 Y-0.4987 Z0. I-0.0363 J0.0046
N2395 X-0.4926 Y-0.508 Z-0.0098 I0.0363 J-0.0046
N2400 X-0.5652 Y-0.4987 Z-0.0197 I-0.0363 J0.0046
N2405 X-0.4926 Y-0.508 Z-0.0295 I0.0363 J-0.0046
N2410 X-0.5652 Y-0.4987 Z-0.0394 I-0.0363 J0.0046
N2415 X-0.4926 Y-0.508 Z-0.0492 I0.0363 J-0.0046
N2420 X-0.5652 Y-0.4987 Z-0.0591 I-0.0363 J0.0046
N2425 X-0.4926 Y-0.508 Z-0.0689 I0.0363 J-0.0046
N2430 X-0.5652 Y-0.4987 Z-0.0787 I-0.0363 J0.0046
N2435 X-0.4926 Y-0.508 Z-0.0886 I0.0363 J-0.0046
N2440 X-0.5652 Y-0.4987 Z-0.0984 I-0.0363 J0.0046
N2445 X-0.4926 Y-0.508 Z-0.1083 I0.0363 J-0.0046
N2450 X-0.5652 Y-0.4987 Z-0.1181 I-0.0363 J0.0046
N2455 X-0.4926 Y-0.508 Z-0.128 I0.0363 J-0.0046
N2460 X-0.5652 Y-0.4987 Z-0.1378 I-0.0363 J0.0046
N2465 X-0.4926 Y-0.508 Z-0.1476 I0.0363 J-0.0046
N2470 X-0.5652 Y-0.4987 Z-0.1575 I-0.0363 J0.0046
N2475 X-0.4926 Y-0.508 Z-0.1673 I0.0363 J-0.0046
N2480 X-0.5652 Y-0.4987 Z-0.1772 I-0.0363 J0.0046
N2485 X-0.4926 Y-0.508 Z-0.187 I0.0363 J-0.0046
N2490 X-0.5652 Y-0.4987 Z-0.1969 I-0.0363 J0.0046
N2495 X-0.4926 Y-0.508 Z-0.2067 I0.0363 J-0.0046
N2500 X-0.5652 Y-0.4987 Z-0.2165 I-0.0363 J0.0046
N2505 X-0.4926 Y-0.508 Z-0.2264 I0.0363 J-0.0046
N2510 X-0.5652 Y-0.4987 Z-0.2362 I-0.0363 J0.0046
N2515 X-0.4926 Y-0.508 Z-0.2461 I0.0363 J-0.0046
N2520 X-0.5652 Y-0.4987 Z-0.2559 I-0.0363 J0.0046
N2525 X-0.4926 Y-0.508 Z-0.2657 I0.0363 J-0.0046
N2530 X-0.5652 Y-0.4987 Z-0.2756 I-0.0363 J0.0046
N2535 X-0.4926 Y-0.508 Z-0.2854 I0.0363 J-0.0046
N2540 X-0.5652 Y-0.4987 Z-0.2953 I-0.0363 J0.0046
N2545 X-0.4926 Y-0.508 Z-0.3051 I0.0363 J-0.0046
N2550 X-0.5652 Y-0.4987 Z-0.315 I-0.0363 J0.0046
N2555 X-0.4926 Y-0.508 Z-0.3248 I0.0363 J-0.0046
N2560 X-0.5652 Y-0.4987 Z-0.3346 I-0.0363 J0.0046
N2565 X-0.4926 Y-0.508 Z-0.3445 I0.0363 J-0.0046
N2570 X-0.5652 Y-0.4987 Z-0.3543 I-0.0363 J0.0046
N2575 X-0.4926 Y-0.508 Z-0.3642 I0.0363 J-0.0046
N2580 X-0.5652 Y-0.4987 Z-0.374 I-0.0363 J0.0046
N2585 X-0.4926 Y-0.508 Z-0.3839 I0.0363 J-0.0046
N2590 X-0.5652 Y-0.4987 Z-0.3937 I-0.0363 J0.0046
N2595 X-0.4926 Y-0.508 Z-0.4035 I0.0363 J-0.0046
N2600 X-0.5652 Y-0.4987 Z-0.4134 I-0.0363 J0.0046
N2605 X-0.4926 Y-0.508 Z-0.4232 I0.0363 J-0.0046
N2610 X-0.5652 Y-0.4987 Z-0.4331 I-0.0363 J0.0046
N2615 X-0.4926 Y-0.508 Z-0.4429 I0.0363 J-0.0046
N2620 X-0.5652 Y-0.4987 Z-0.4528 I-0.0363 J0.0046
N2625 X-0.4926 Y-0.508 Z-0.4626 I0.0363 J-0.0046
N2630 X-0.5652 Y-0.4987 Z-0.4724 I-0.0363 J0.0046
N2635 X-0.4926 Y-0.508 Z-0.4823 I0.0363 J-0.0046
N2640 X-0.5652 Y-0.4987 Z-0.4921 I-0.0363 J0.0046
N2645 X-0.4926 Y-0.508 Z-0.502 I0.0363 J-0.0046
N2650 X-0.5652 Y-0.4987 Z-0.5118 I-0.0363 J0.0046
N2655 X-0.4926 Y-0.508 Z-0.5217 I0.0363 J-0.0046
N2660 X-0.5652 Y-0.4987 Z-0.5315 I-0.0363 J0.0046
N2665 X-0.4926 Y-0.508 Z-0.5413 I0.0363 J-0.0046
N2670 X-0.5652 Y-0.4987 Z-0.5512 I-0.0363 J0.0046
N2675 X-0.4926 Y-0.508 Z-0.561 I0.0363 J-0.0046
N2680 X-0.5652 Y-0.4987 Z-0.5709 I-0.0363 J0.0046
N2685 X-0.4926 Y-0.508 Z-0.5807 I0.0363 J-0.0046
N2690 X-0.5652 Y-0.4987 Z-0.5906 I-0.0363 J0.0046
N2695 X-0.4926 Y-0.508 I0.0363 J-0.0046
N2700 X-0.5652 Y-0.4987 I-0.0363 J0.0046
N2705 X-0.5544 Y-0.5127 I0.0124 J-0.0016
N2710 G1 X-0.5482 Y-0.5135
N2715 X-0.5455 Y-0.5138 Z-0.5902
N2720 X-0.5428 Y-0.5142 Z-0.5893
N2725 X-0.5405 Y-0.5145 Z-0.5878
N2730 X-0.5385 Y-0.5147 Z-0.5858
N2735 X-0.537 Y-0.5149 Z-0.5835
N2740 X-0.5361 Y-0.515 Z-0.5808
N2745 X-0.5358 Y-0.5151 Z-0.5781
N2750 Z0.5906
(WHEN USING FUSION FOR PERSONAL USE, THE FEEDRATE OF RAPID)
(MOVES IS REDUCED TO MATCH THE FEEDRATE OF CUTTING MOVES,)
(WHICH CAN INCREASE MACHINING TIME. UNRESTRICTED RAPID MOVES)
(ARE AVAILABLE WITH A FUSION SUBSCRIPTION.)
N2755 G53 G0 Z0.
(BORE1)
N2760 G55
N2765 G0 X0.5327 Y-0.5164
N2770 G43 Z0.5906 H10
N2775 G1 Z0.1575 F9.843
N2780 Z0.0912
N2785 X0.533 Y-0.5165 Z0.0885
N2790 X0.5339 Y-0.5166 Z0.0858
N2795 X0.5354 Y-0.5168 Z0.0834
N2800 X0.5373 Y-0.517 Z0.0815
N2805 X0.5397 Y-0.5173 Z0.08
N2810 X0.5423 Y-0.5177 Z0.0791
N2815 X0.5451 Y-0.518 Z0.0787
N2820 X0.5513 Y-0.5188
N2825 G3 X0.5652 Y-0.508 I0.0016 J0.0124
N2830 X0.4926 Y-0.4987 Z0.0689 I-0.0363 J0.0046
N2835 X0.5652 Y-0.508 Z0.0591 I0.0363 J-0.0046
N2840 X0.4926 Y-0.4987 Z0.0492 I-0.0363 J0.0046
N2845 X0.5652 Y-0.508 Z0.0394 I0.0363 J-0.0046
N2850 X0.4926 Y-0.4987 Z0.0295 I-0.0363 J0.0046
N2855 X0.5652 Y-0.508 Z0.0197 I0.0363 J-0.0046
N2860 X0.4926 Y-0.4987 Z0.0098 I-0.0363 J0.0046
N2865 X0.5652 Y-0.508 Z0. I0.0363 J-0.0046
N2870 X0.4926 Y-0.4987 Z-0.0098 I-0.0363 J0.0046
N2875 X0.5652 Y-0.508 Z-0.0197 I0.0363 J-0.0046
N2880 X0.4926 Y-0.4987 Z-0.0295 I-0.0363 J0.0046
N2885 X0.5652 Y-0.508 Z-0.0394 I0.0363 J-0.0046
N2890 X0.4926 Y-0.4987 Z-0.0492 I-0.0363 J0.0046
N2895 X0.5652 Y-0.508 Z-0.0591 I0.0363 J-0.0046
N2900 X0.4926 Y-0.4987 Z-0.0689 I-0.0363 J0.0046
N2905 X0.5652 Y-0.508 Z-0.0787 I0.0363 J-0.0046
N2910 X0.4926 Y-0.4987 Z-0.0886 I-0.0363 J0.0046
N2915 X0.5652 Y-0.508 Z-0.0984 I0.0363 J-0.0046
N2920 X0.4926 Y-0.4987 Z-0.1083 I-0.0363 J0.0046
N2925 X0.5652 Y-0.508 Z-0.1181 I0.0363 J-0.0046
N2930 X0.4926 Y-0.4987 Z-0.128 I-0.0363 J0.0046
N2935 X0.5652 Y-0.508 Z-0.1378 I0.0363 J-0.0046
N2940 X0.4926 Y-0.4987 Z-0.1476 I-0.0363 J0.0046
N2945 X0.5652 Y-0.508 Z-0.1575 I0.0363 J-0.0046
N2950 X0.4926 Y-0.4987 Z-0.1673 I-0.0363 J0.0046
N2955 X0.5652 Y-0.508 Z-0.1772 I0.0363 J-0.0046
N2960 X0.4926 Y-0.4987 Z-0.187 I-0.0363 J0.0046
N2965 X0.5652 Y-0.508 Z-0.1969 I0.0363 J-0.0046
N2970 X0.4926 Y-0.4987 Z-0.2067 I-0.0363 J0.0046
N2975 X0.5652 Y-0.508 Z-0.2165 I0.0363 J-0.0046
N2980 X0.4926 Y-0.4987 Z-0.2264 I-0.0363 J0.0046
N2985 X0.5652 Y-0.508 Z-0.2362 I0.0363 J-0.0046
N2990 X0.4926 Y-0.4987 Z-0.2461 I-0.0363 J0.0046
N2995 X0.5652 Y-0.508 Z-0.2559 I0.0363 J-0.0046
N3000 X0.4926 Y-0.4987 Z-0.2657 I-0.0363 J0.0046
N3005 X0.5652 Y-0.508 Z-0.2756 I0.0363 J-0.0046
N3010 X0.4926 Y-0.4987 Z-0.2854 I-0.0363 J0.0046
N3015 X0.5652 Y-0.508 Z-0.2953 I0.0363 J-0.0046
N3020 X0.4926 Y-0.4987 Z-0.3051 I-0.0363 J0.0046
N3025 X0.5652 Y-0.508 Z-0.315 I0.0363 J-0.0046
N3030 X0.4926 Y-0.4987 Z-0.3248 I-0.0363 J0.0046
N3035 X0.5652 Y-0.508 Z-0.3346 I0.0363 J-0.0046
N3040 X0.4926 Y-0.4987 Z-0.3445 I-0.0363 J0.0046
N3045 X0.5652 Y-0.508 Z-0.3543 I0.0363 J-0.0046
N3050 X0.4926 Y-0.4987 Z-0.3642 I-0.0363 J0.0046
N3055 X0.5652 Y-0.508 Z-0.374 I0.0363 J-0.0046
N3060 X0.4926 Y-0.4987 Z-0.3839 I-0.0363 J0.0046
N3065 X0.5652 Y-0.508 Z-0.3937 I0.0363 J-0.0046
N3070 X0.4926 Y-0.4987 Z-0.4035 I-0.0363 J0.0046
N3075 X0.5652 Y-0.508 Z-0.4134 I0.0363 J-0.0046
N3080 X0.4926 Y-0.4987 Z-0.4232 I-0.0363 J0.0046
N3085 X0.5652 Y-0.508 Z-0.4331 I0.0363 J-0.0046
N3090 X0.4926 Y-0.4987 Z-0.4429 I-0.0363 J0.0046
N3095 X0.5652 Y-0.508 Z-0.4528 I0.0363 J-0.0046
N3100 X0.4926 Y-0.4987 Z-0.4626 I-0.0363 J0.0046
N3105 X0.5652 Y-0.508 Z-0.4724 I0.0363 J-0.0046
N3110 X0.4926 Y-0.4987 Z-0.4823 I-0.0363 J0.0046
N3115 X0.5652 Y-0.508 Z-0.4921 I0.0363 J-0.0046
N3120 X0.4926 Y-0.4987 Z-0.502 I-0.0363 J0.0046
N3125 X0.5652 Y-0.508 Z-0.5118 I0.0363 J-0.0046
N3130 X0.4926 Y-0.4987 Z-0.5217 I-0.0363 J0.0046
N3135 X0.5652 Y-0.508 Z-0.5315 I0.0363 J-0.0046
N3140 X0.4926 Y-0.4987 Z-0.5413 I-0.0363 J0.0046
N3145 X0.5652 Y-0.508 Z-0.5512 I0.0363 J-0.0046
N3150 X0.4926 Y-0.4987 Z-0.561 I-0.0363 J0.0046
N3155 X0.5652 Y-0.508 Z-0.5709 I0.0363 J-0.0046
N3160 X0.4926 Y-0.4987 Z-0.5807 I-0.0363 J0.0046
N3165 X0.5652 Y-0.508 Z-0.5906 I0.0363 J-0.0046
N3170 X0.4926 Y-0.4987 I-0.0363 J0.0046
N3175 X0.5652 Y-0.508 I0.0363 J-0.0046
N3180 X0.5544 Y-0.494 I-0.0124 J0.0016
N3185 G1 X0.5482 Y-0.4932
N3190 X0.5455 Y-0.4929 Z-0.5902
N3195 X0.5428 Y-0.4925 Z-0.5893
N3200 X0.5405 Y-0.4922 Z-0.5878
N3205 X0.5385 Y-0.492 Z-0.5858
N3210 X0.537 Y-0.4918 Z-0.5835
N3215 X0.5361 Y-0.4917 Z-0.5808
N3220 X0.5358 Y-0.4916 Z-0.5781
N3225 Z0.1969
N3230 X0.7599 Y0.019
N3235 Z0.1575
N3240 Z0.0912
N3245 X0.7602 Y0.0192 Z0.0885
N3250 X0.7609 Y0.0197 Z0.0858
N3255 X0.7621 Y0.0206 Z0.0834
N3260 X0.7636 Y0.0219 Z0.0815
N3265 X0.7655 Y0.0233 Z0.08
N3270 X0.7676 Y0.0249 Z0.0791
N3275 X0.7698 Y0.0266 Z0.0787
N3280 X0.7747 Y0.0305
N3285 G3 X0.777 Y0.048 I-0.0076 J0.0099
N3290 X0.7191 Y0.0032 Z0.0689 I-0.0289 J-0.0224
N3295 X0.777 Y0.048 Z0.0591 I0.0289 J0.0224
N3300 X0.7191 Y0.0032 Z0.0492 I-0.0289 J-0.0224
N3305 X0.777 Y0.048 Z0.0394 I0.0289 J0.0224
N3310 X0.7191 Y0.0032 Z0.0295 I-0.0289 J-0.0224
N3315 X0.777 Y0.048 Z0.0197 I0.0289 J0.0224
N3320 X0.7191 Y0.0032 Z0.0098 I-0.0289 J-0.0224
N3325 X0.777 Y0.048 Z0. I0.0289 J0.0224
N3330 X0.7191 Y0.0032 Z-0.0098 I-0.0289 J-0.0224
N3335 X0.777 Y0.048 Z-0.0197 I0.0289 J0.0224
N3340 X0.7191 Y0.0032 Z-0.0295 I-0.0289 J-0.0224
N3345 X0.777 Y0.048 Z-0.0394 I0.0289 J0.0224
N3350 X0.7191 Y0.0032 Z-0.0492 I-0.0289 J-0.0224
N3355 X0.777 Y0.048 Z-0.0591 I0.0289 J0.0224
N3360 X0.7191 Y0.0032 Z-0.0689 I-0.0289 J-0.0224
N3365 X0.777 Y0.048 Z-0.0787 I0.0289 J0.0224
N3370 X0.7191 Y0.0032 Z-0.0886 I-0.0289 J-0.0224
N3375 X0.777 Y0.048 Z-0.0984 I0.0289 J0.0224
N3380 X0.7191 Y0.0032 Z-0.1083 I-0.0289 J-0.0224
N3385 X0.777 Y0.048 Z-0.1181 I0.0289 J0.0224
N3390 X0.7191 Y0.0032 Z-0.128 I-0.0289 J-0.0224
N3395 X0.777 Y0.048 Z-0.1378 I0.0289 J0.0224
N3400 X0.7191 Y0.0032 Z-0.1476 I-0.0289 J-0.0224
N3405 X0.777 Y0.048 Z-0.1575 I0.0289 J0.0224
N3410 X0.7191 Y0.0032 Z-0.1673 I-0.0289 J-0.0224
N3415 X0.777 Y0.048 Z-0.1772 I0.0289 J0.0224
N3420 X0.7191 Y0.0032 Z-0.187 I-0.0289 J-0.0224
N3425 X0.777 Y0.048 Z-0.1969 I0.0289 J0.0224
N3430 X0.7191 Y0.0032 Z-0.2067 I-0.0289 J-0.0224
N3435 X0.777 Y0.048 Z-0.2165 I0.0289 J0.0224
N3440 X0.7191 Y0.0032 Z-0.2264 I-0.0289 J-0.0224
N3445 X0.777 Y0.048 Z-0.2362 I0.0289 J0.0224
N3450 X0.7191 Y0.0032 Z-0.2461 I-0.0289 J-0.0224
N3455 X0.777 Y0.048 Z-0.2559 I0.0289 J0.0224
N3460 X0.7191 Y0.0032 Z-0.2657 I-0.0289 J-0.0224
N3465 X0.777 Y0.048 Z-0.2756 I0.0289 J0.0224
N3470 X0.7191 Y0.0032 Z-0.2854 I-0.0289 J-0.0224
N3475 X0.777 Y0.048 Z-0.2953 I0.0289 J0.0224
N3480 X0.7191 Y0.0032 Z-0.3051 I-0.0289 J-0.0224
N3485 X0.777 Y0.048 Z-0.315 I0.0289 J0.0224
N3490 X0.7191 Y0.0032 Z-0.3248 I-0.0289 J-0.0224
N3495 X0.777 Y0.048 Z-0.3346 I0.0289 J0.0224
N3500 X0.7191 Y0.0032 Z-0.3445 I-0.0289 J-0.0224
N3505 X0.777 Y0.048 Z-0.3543 I0.0289 J0.0224
N3510 X0.7191 Y0.0032 Z-0.3642 I-0.0289 J-0.0224
N3515 X0.777 Y0.048 Z-0.374 I0.0289 J0.0224
N3520 X0.7191 Y0.0032 Z-0.3839 I-0.0289 J-0.0224
N3525 X0.777 Y0.048 Z-0.3937 I0.0289 J0.0224
N3530 X0.7191 Y0.0032 Z-0.4035 I-0.0289 J-0.0224
N3535 X0.777 Y0.048 Z-0.4134 I0.0289 J0.0224
N3540 X0.7191 Y0.0032 Z-0.4232 I-0.0289 J-0.0224
N3545 X0.777 Y0.048 Z-0.4331 I0.0289 J0.0224
N3550 X0.7191 Y0.0032 Z-0.4429 I-0.0289 J-0.0224
N3555 X0.777 Y0.048 Z-0.4528 I0.0289 J0.0224
N3560 X0.7191 Y0.0032 Z-0.4626 I-0.0289 J-0.0224
N3565 X0.777 Y0.048 Z-0.4724 I0.0289 J0.0224
N3570 X0.7191 Y0.0032 Z-0.4823 I-0.0289 J-0.0224
N3575 X0.777 Y0.048 Z-0.4921 I0.0289 J0.0224
N3580 X0.7191 Y0.0032 Z-0.502 I-0.0289 J-0.0224
N3585 X0.777 Y0.048 Z-0.5118 I0.0289 J0.0224
N3590 X0.7191 Y0.0032 Z-0.5217 I-0.0289 J-0.0224
N3595 X0.777 Y0.048 Z-0.5315 I0.0289 J0.0224
N3600 X0.7191 Y0.0032 Z-0.5413 I-0.0289 J-0.0224
N3605 X0.777 Y0.048 Z-0.5512 I0.0289 J0.0224
N3610 X0.7191 Y0.0032 Z-0.561 I-0.0289 J-0.0224
N3615 X0.777 Y0.048 Z-0.5709 I0.0289 J0.0224
N3620 X0.7191 Y0.0032 Z-0.5807 I-0.0289 J-0.0224
N3625 X0.777 Y0.048 Z-0.5906 I0.0289 J0.0224
N3630 X0.7191 Y0.0032 I-0.0289 J-0.0224
N3635 X0.777 Y0.048 I0.0289 J0.0224
N3640 X0.7594 Y0.0502 I-0.0099 J-0.0076
N3645 G1 X0.7545 Y0.0464
N3650 X0.7523 Y0.0447 Z-0.5902
N3655 X0.7502 Y0.0431 Z-0.5893
N3660 X0.7483 Y0.0416 Z-0.5878
N3665 X0.7468 Y0.0404 Z-0.5858
N3670 X0.7456 Y0.0395 Z-0.5835
N3675 X0.7449 Y0.0389 Z-0.5808
N3680 X0.7446 Y0.0387 Z-0.5781
N3685 Z0.1969
N3690 X0.5358 Y0.5428
N3695 Z0.1575
N3700 Z0.0912
N3705 X0.5361 Z0.0885
N3710 X0.537 Y0.543 Z0.0858
N3715 X0.5385 Y0.5431 Z0.0834
N3720 X0.5405 Y0.5434 Z0.0815
N3725 X0.5428 Y0.5437 Z0.08
N3730 X0.5455 Y0.544 Z0.0791
N3735 X0.5482 Y0.5444 Z0.0787
N3740 X0.5544 Y0.5452
N3745 G3 X0.5652 Y0.5592 I-0.0016 J0.0124
N3750 X0.4926 Y0.5499 Z0.0689 I-0.0363 J-0.0046
N3755 X0.5652 Y0.5592 Z0.0591 I0.0363 J0.0046
N3760 X0.4926 Y0.5499 Z0.0492 I-0.0363 J-0.0046
N3765 X0.5652 Y0.5592 Z0.0394 I0.0363 J0.0046
N3770 X0.4926 Y0.5499 Z0.0295 I-0.0363 J-0.0046
N3775 X0.5652 Y0.5592 Z0.0197 I0.0363 J0.0046
N3780 X0.4926 Y0.5499 Z0.0098 I-0.0363 J-0.0046
N3785 X0.5652 Y0.5592 Z0. I0.0363 J0.0046
N3790 X0.4926 Y0.5499 Z-0.0098 I-0.0363 J-0.0046
N3795 X0.5652 Y0.5592 Z-0.0197 I0.0363 J0.0046
N3800 X0.4926 Y0.5499 Z-0.0295 I-0.0363 J-0.0046
N3805 X0.5652 Y0.5592 Z-0.0394 I0.0363 J0.0046
N3810 X0.4926 Y0.5499 Z-0.0492 I-0.0363 J-0.0046
N3815 X0.5652 Y0.5592 Z-0.0591 I0.0363 J0.0046
N3820 X0.4926 Y0.5499 Z-0.0689 I-0.0363 J-0.0046
N3825 X0.5652 Y0.5592 Z-0.0787 I0.0363 J0.0046
N3830 X0.4926 Y0.5499 Z-0.0886 I-0.0363 J-0.0046
N3835 X0.5652 Y0.5592 Z-0.0984 I0.0363 J0.0046
N3840 X0.4926 Y0.5499 Z-0.1083 I-0.0363 J-0.0046
N3845 X0.5652 Y0.5592 Z-0.1181 I0.0363 J0.0046
N3850 X0.4926 Y0.5499 Z-0.128 I-0.0363 J-0.0046
N3855 X0.5652 Y0.5592 Z-0.1378 I0.0363 J0.0046
N3860 X0.4926 Y0.5499 Z-0.1476 I-0.0363 J-0.0046
N3865 X0.5652 Y0.5592 Z-0.1575 I0.0363 J0.0046
N3870 X0.4926 Y0.5499 Z-0.1673 I-0.0363 J-0.0046
N3875 X0.5652 Y0.5592 Z-0.1772 I0.0363 J0.0046
N3880 X0.4926 Y0.5499 Z-0.187 I-0.0363 J-0.0046
N3885 X0.5652 Y0.5592 Z-0.1969 I0.0363 J0.0046
N3890 X0.4926 Y0.5499 Z-0.2067 I-0.0363 J-0.0046
N3895 X0.5652 Y0.5592 Z-0.2165 I0.0363 J0.0046
N3900 X0.4926 Y0.5499 Z-0.2264 I-0.0363 J-0.0046
N3905 X0.5652 Y0.5592 Z-0.2362 I0.0363 J0.0046
N3910 X0.4926 Y0.5499 Z-0.2461 I-0.0363 J-0.0046
N3915 X0.5652 Y0.5592 Z-0.2559 I0.0363 J0.0046
N3920 X0.4926 Y0.5499 Z-0.2657 I-0.0363 J-0.0046
N3925 X0.5652 Y0.5592 Z-0.2756 I0.0363 J0.0046
N3930 X0.4926 Y0.5499 Z-0.2854 I-0.0363 J-0.0046
N3935 X0.5652 Y0.5592 Z-0.2953 I0.0363 J0.0046
N3940 X0.4926 Y0.5499 Z-0.3051 I-0.0363 J-0.0046
N3945 X0.5652 Y0.5592 Z-0.315 I0.0363 J0.0046
N3950 X0.4926 Y0.5499 Z-0.3248 I-0.0363 J-0.0046
N3955 X0.5652 Y0.5592 Z-0.3346 I0.0363 J0.0046
N3960 X0.4926 Y0.5499 Z-0.3445 I-0.0363 J-0.0046
N3965 X0.5652 Y0.5592 Z-0.3543 I0.0363 J0.0046
N3970 X0.4926 Y0.5499 Z-0.3642 I-0.0363 J-0.0046
N3975 X0.5652 Y0.5592 Z-0.374 I0.0363 J0.0046
N3980 X0.4926 Y0.5499 Z-0.3839 I-0.0363 J-0.0046
N3985 X0.5652 Y0.5592 Z-0.3937 I0.0363 J0.0046
N3990 X0.4926 Y0.5499 Z-0.4035 I-0.0363 J-0.0046
N3995 X0.5652 Y0.5592 Z-0.4134 I0.0363 J0.0046
N4000 X0.4926 Y0.5499 Z-0.4232 I-0.0363 J-0.0046
N4005 X0.5652 Y0.5592 Z-0.4331 I0.0363 J0.0046
N4010 X0.4926 Y0.5499 Z-0.4429 I-0.0363 J-0.0046
N4015 X0.5652 Y0.5592 Z-0.4528 I0.0363 J0.0046
N4020 X0.4926 Y0.5499 Z-0.4626 I-0.0363 J-0.0046
N4025 X0.5652 Y0.5592 Z-0.4724 I0.0363 J0.0046
N4030 X0.4926 Y0.5499 Z-0.4823 I-0.0363 J-0.0046
N4035 X0.5652 Y0.5592 Z-0.4921 I0.0363 J0.0046
N4040 X0.4926 Y0.5499 Z-0.502 I-0.0363 J-0.0046
N4045 X0.5652 Y0.5592 Z-0.5118 I0.0363 J0.0046
N4050 X0.4926 Y0.5499 Z-0.5217 I-0.0363 J-0.0046
N4055 X0.5652 Y0.5592 Z-0.5315 I0.0363 J0.0046
N4060 X0.4926 Y0.5499 Z-0.5413 I-0.0363 J-0.0046
N4065 X0.5652 Y0.5592 Z-0.5512 I0.0363 J0.0046
N4070 X0.4926 Y0.5499 Z-0.561 I-0.0363 J-0.0046
N4075 X0.5652 Y0.5592 Z-0.5709 I0.0363 J0.0046
N4080 X0.4926 Y0.5499 Z-0.5807 I-0.0363 J-0.0046
N4085 X0.5652 Y0.5592 Z-0.5906 I0.0363 J0.0046
N4090 X0.4926 Y0.5499 I-0.0363 J-0.0046
N4095 X0.5652 Y0.5592 I0.0363 J0.0046
N4100 X0.5513 Y0.57 I-0.0124 J-0.0016
N4105 G1 X0.5451 Y0.5692
N4110 X0.5423 Y0.5688 Z-0.5902
N4115 X0.5397 Y0.5685 Z-0.5893
N4120 X0.5373 Y0.5682 Z-0.5878
N4125 X0.5354 Y0.5679 Z-0.5858
N4130 X0.5339 Y0.5678 Z-0.5835
N4135 X0.533 Y0.5676 Z-0.5808
N4140 X0.5327 Z-0.5781
N4145 Z0.1969
N4150 X-0.5221 Y0.5428
N4155 Z0.1575
N4160 Z0.0912
N4165 X-0.5217 Z0.0885
N4170 X-0.5208 Y0.543 Z0.0858
N4175 X-0.5194 Y0.5431 Z0.0834
N4180 X-0.5174 Y0.5434 Z0.0815
N4185 X-0.515 Y0.5437 Z0.08
N4190 X-0.5124 Y0.544 Z0.0791
N4195 X-0.5097 Y0.5444 Z0.0787
N4200 X-0.5035 Y0.5452
N4205 G3 X-0.4926 Y0.5592 I-0.0016 J0.0124
N4210 X-0.5652 Y0.5499 Z0.0689 I-0.0363 J-0.0046
N4215 X-0.4926 Y0.5592 Z0.0591 I0.0363 J0.0046
N4220 X-0.5652 Y0.5499 Z0.0492 I-0.0363 J-0.0046
N4225 X-0.4926 Y0.5592 Z0.0394 I0.0363 J0.0046
N4230 X-0.5652 Y0.5499 Z0.0295 I-0.0363 J-0.0046
N4235 X-0.4926 Y0.5592 Z0.0197 I0.0363 J0.0046
N4240 X-0.5652 Y0.5499 Z0.0098 I-0.0363 J-0.0046
N4245 X-0.4926 Y0.5592 Z0. I0.0363 J0.0046
N4250 X-0.5652 Y0.5499 Z-0.0098 I-0.0363 J-0.0046
N4255 X-0.4926 Y0.5592 Z-0.0197 I0.0363 J0.0046
N4260 X-0.5652 Y0.5499 Z-0.0295 I-0.0363 J-0.0046
N4265 X-0.4926 Y0.5592 Z-0.0394 I0.0363 J0.0046
N4270 X-0.5652 Y0.5499 Z-0.0492 I-0.0363 J-0.0046
N4275 X-0.4926 Y0.5592 Z-0.0591 I0.0363 J0.0046
N4280 X-0.5652 Y0.5499 Z-0.0689 I-0.0363 J-0.0046
N4285 X-0.4926 Y0.5592 Z-0.0787 I0.0363 J0.0046
N4290 X-0.5652 Y0.5499 Z-0.0886 I-0.0363 J-0.0046
N4295 X-0.4926 Y0.5592 Z-0.0984 I0.0363 J0.0046
N4300 X-0.5652 Y0.5499 Z-0.1083 I-0.0363 J-0.0046
N4305 X-0.4926 Y0.5592 Z-0.1181 I0.0363 J0.0046
N4310 X-0.5652 Y0.5499 Z-0.128 I-0.0363 J-0.0046
N4315 X-0.4926 Y0.5592 Z-0.1378 I0.0363 J0.0046
N4320 X-0.5652 Y0.5499 Z-0.1476 I-0.0363 J-0.0046
N4325 X-0.4926 Y0.5592 Z-0.1575 I0.0363 J0.0046
N4330 X-0.5652 Y0.5499 Z-0.1673 I-0.0363 J-0.0046
N4335 X-0.4926 Y0.5592 Z-0.1772 I0.0363 J0.0046
N4340 X-0.5652 Y0.5499 Z-0.187 I-0.0363 J-0.0046
N4345 X-0.4926 Y0.5592 Z-0.1969 I0.0363 J0.0046
N4350 X-0.5652 Y0.5499 Z-0.2067 I-0.0363 J-0.0046
N4355 X-0.4926 Y0.5592 Z-0.2165 I0.0363 J0.0046
N4360 X-0.5652 Y0.5499 Z-0.2264 I-0.0363 J-0.0046
N4365 X-0.4926 Y0.5592 Z-0.2362 I0.0363 J0.0046
N4370 X-0.5652 Y0.5499 Z-0.2461 I-0.0363 J-0.0046
N4375 X-0.4926 Y0.5592 Z-0.2559 I0.0363 J0.0046
N4380 X-0.5652 Y0.5499 Z-0.2657 I-0.0363 J-0.0046
N4385 X-0.4926 Y0.5592 Z-0.2756 I0.0363 J0.0046
N4390 X-0.5652 Y0.5499 Z-0.2854 I-0.0363 J-0.0046
N4395 X-0.4926 Y0.5592 Z-0.2953 I0.0363 J0.0046
N4400 X-0.5652 Y0.5499 Z-0.3051 I-0.0363 J-0.0046
N4405 X-0.4926 Y0.5592 Z-0.315 I0.0363 J0.0046
N4410 X-0.5652 Y0.5499 Z-0.3248 I-0.0363 J-0.0046
N4415 X-0.4926 Y0.5592 Z-0.3346 I0.0363 J0.0046
N4420 X-0.5652 Y0.5499 Z-0.3445 I-0.0363 J-0.0046
N4425 X-0.4926 Y0.5592 Z-0.3543 I0.0363 J0.0046
N4430 X-0.5652 Y0.5499 Z-0.3642 I-0.0363 J-0.0046
N4435 X-0.4926 Y0.5592 Z-0.374 I0.0363 J0.0046
N4440 X-0.5652 Y0.5499 Z-0.3839 I-0.0363 J-0.0046
N4445 X-0.4926 Y0.5592 Z-0.3937 I0.0363 J0.0046
N4450 X-0.5652 Y0.5499 Z-0.4035 I-0.0363 J-0.0046
N4455 X-0.4926 Y0.5592 Z-0.4134 I0.0363 J0.0046
N4460 X-0.5652 Y0.5499 Z-0.4232 I-0.0363 J-0.0046
N4465 X-0.4926 Y0.5592 Z-0.4331 I0.0363 J0.0046
N4470 X-0.5652 Y0.5499 Z-0.4429 I-0.0363 J-0.0046
N4475 X-0.4926 Y0.5592 Z-0.4528 I0.0363 J0.0046
N4480 X-0.5652 Y0.5499 Z-0.4626 I-0.0363 J-0.0046
N4485 X-0.4926 Y0.5592 Z-0.4724 I0.0363 J0.0046
N4490 X-0.5652 Y0.5499 Z-0.4823 I-0.0363 J-0.0046
N4495 X-0.4926 Y0.5592 Z-0.4921 I0.0363 J0.0046
N4500 X-0.5652 Y0.5499 Z-0.502 I-0.0363 J-0.0046
N4505 X-0.4926 Y0.5592 Z-0.5118 I0.0363 J0.0046
N4510 X-0.5652 Y0.5499 Z-0.5217 I-0.0363 J-0.0046
N4515 X-0.4926 Y0.5592 Z-0.5315 I0.0363 J0.0046
N4520 X-0.5652 Y0.5499 Z-0.5413 I-0.0363 J-0.0046
N4525 X-0.4926 Y0.5592 Z-0.5512 I0.0363 J0.0046
N4530 X-0.5652 Y0.5499 Z-0.561 I-0.0363 J-0.0046
N4535 X-0.4926 Y0.5592 Z-0.5709 I0.0363 J0.0046
N4540 X-0.5652 Y0.5499 Z-0.5807 I-0.0363 J-0.0046
N4545 X-0.4926 Y0.5592 Z-0.5906 I0.0363 J0.0046
N4550 X-0.5652 Y0.5499 I-0.0363 J-0.0046
N4555 X-0.4926 Y0.5592 I0.0363 J0.0046
N4560 X-0.5066 Y0.57 I-0.0124 J-0.0016
N4565 G1 X-0.5128 Y0.5692
N4570 X-0.5156 Y0.5688 Z-0.5902
N4575 X-0.5182 Y0.5685 Z-0.5893
N4580 X-0.5205 Y0.5682 Z-0.5878
N4585 X-0.5225 Y0.5679 Z-0.5858
N4590 X-0.524 Y0.5678 Z-0.5835
N4595 X-0.5249 Y0.5676 Z-0.5808
N4600 X-0.5252 Z-0.5781
N4605 Z0.1969
N4610 X-0.7427 Y0.0131
N4615 Z0.1575
N4620 Z0.0912
N4625 G18 G2 X-0.7302 Z0.0787 I0.0125 K0.
N4630 G1 X-0.7239
N4635 G17 G3 X-0.7114 Y0.0256 I0. J0.0125
N4640 X-0.7846 Z0.0689 I-0.0366 J0.
N4645 X-0.7114 Z0.0591 I0.0366 J0.
N4650 X-0.7846 Z0.0492 I-0.0366 J0.
N4655 X-0.7114 Z0.0394 I0.0366 J0.
N4660 X-0.7846 Z0.0295 I-0.0366 J0.
N4665 X-0.7114 Z0.0197 I0.0366 J0.
N4670 X-0.7846 Z0.0098 I-0.0366 J0.
N4675 X-0.7114 Z0. I0.0366 J0.
N4680 X-0.7846 Z-0.0098 I-0.0366 J0.
N4685 X-0.7114 Z-0.0197 I0.0366 J0.
N4690 X-0.7846 Z-0.0295 I-0.0366 J0.
N4695 X-0.7114 Z-0.0394 I0.0366 J0.
N4700 X-0.7846 Z-0.0492 I-0.0366 J0.
N4705 X-0.7114 Z-0.0591 I0.0366 J0.
N4710 X-0.7846 Z-0.0689 I-0.0366 J0.
N4715 X-0.7114 Z-0.0787 I0.0366 J0.
N4720 X-0.7846 Z-0.0886 I-0.0366 J0.
N4725 X-0.7114 Z-0.0984 I0.0366 J0.
N4730 X-0.7846 Z-0.1083 I-0.0366 J0.
N4735 X-0.7114 Z-0.1181 I0.0366 J0.
N4740 X-0.7846 Z-0.128 I-0.0366 J0.
N4745 X-0.7114 Z-0.1378 I0.0366 J0.
N4750 X-0.7846 Z-0.1476 I-0.0366 J0.
N4755 X-0.7114 Z-0.1575 I0.0366 J0.
N4760 X-0.7846 Z-0.1673 I-0.0366 J0.
N4765 X-0.7114 Z-0.1772 I0.0366 J0.
N4770 X-0.7846 Z-0.187 I-0.0366 J0.
N4775 X-0.7114 Z-0.1969 I0.0366 J0.
N4780 X-0.7846 Z-0.2067 I-0.0366 J0.
N4785 X-0.7114 Z-0.2165 I0.0366 J0.
N4790 X-0.7846 Z-0.2264 I-0.0366 J0.
N4795 X-0.7114 Z-0.2362 I0.0366 J0.
N4800 X-0.7846 Z-0.2461 I-0.0366 J0.
N4805 X-0.7114 Z-0.2559 I0.0366 J0.
N4810 X-0.7846 Z-0.2657 I-0.0366 J0.
N4815 X-0.7114 Z-0.2756 I0.0366 J0.
N4820 X-0.7846 Z-0.2854 I-0.0366 J0.
N4825 X-0.7114 Z-0.2953 I0.0366 J0.
N4830 X-0.7846 Z-0.3051 I-0.0366 J0.
N4835 X-0.7114 Z-0.315 I0.0366 J0.
N4840 X-0.7846 Z-0.3248 I-0.0366 J0.
N4845 X-0.7114 Z-0.3346 I0.0366 J0.
N4850 X-0.7846 Z-0.3445 I-0.0366 J0.
N4855 X-0.7114 Z-0.3543 I0.0366 J0.
N4860 X-0.7846 Z-0.3642 I-0.0366 J0.
N4865 X-0.7114 Z-0.374 I0.0366 J0.
N4870 X-0.7846 Z-0.3839 I-0.0366 J0.
N4875 X-0.7114 Z-0.3937 I0.0366 J0.
N4880 X-0.7846 Z-0.4035 I-0.0366 J0.
N4885 X-0.7114 Z-0.4134 I0.0366 J0.
N4890 X-0.7846 Z-0.4232 I-0.0366 J0.
N4895 X-0.7114 Z-0.4331 I0.0366 J0.
N4900 X-0.7846 Z-0.4429 I-0.0366 J0.
N4905 X-0.7114 Z-0.4528 I0.0366 J0.
N4910 X-0.7846 Z-0.4626 I-0.0366 J0.
N4915 X-0.7114 Z-0.4724 I0.0366 J0.
N4920 X-0.7846 Z-0.4823 I-0.0366 J0.
N4925 X-0.7114 Z-0.4921 I0.0366 J0.
N4930 X-0.7846 Z-0.502 I-0.0366 J0.
N4935 X-0.7114 Z-0.5118 I0.0366 J0.
N4940 X-0.7846 Z-0.5217 I-0.0366 J0.
N4945 X-0.7114 Z-0.5315 I0.0366 J0.
N4950 X-0.7846 Z-0.5413 I-0.0366 J0.
N4955 X-0.7114 Z-0.5512 I0.0366 J0.
N4960 X-0.7846 Z-0.561 I-0.0366 J0.
N4965 X-0.7114 Z-0.5709 I0.0366 J0.
N4970 X-0.7846 Z-0.5807 I-0.0366 J0.
N4975 X-0.7114 Z-0.5906 I0.0366 J0.
N4980 X-0.7846 I-0.0366 J0.
N4985 X-0.7114 I0.0366 J0.
N4990 X-0.7239 Y0.0381 I-0.0125 J0.
N4995 G1 X-0.7302
N5000 G18 G3 X-0.7427 Z-0.5781 I0. K0.0125
N5005 G1 Z0.1969
N5010 X-0.5327 Y-0.4903
N5015 Z0.1575
N5020 Z0.0912
N5025 X-0.533 Y-0.4902 Z0.0885
N5030 X-0.5339 Y-0.4901 Z0.0858
N5035 X-0.5354 Y-0.4899 Z0.0834
N5040 X-0.5373 Y-0.4897 Z0.0815
N5045 X-0.5397 Y-0.4894 Z0.08
N5050 X-0.5423 Y-0.489 Z0.0791
N5055 X-0.5451 Y-0.4887 Z0.0787
N5060 X-0.5513 Y-0.4879
N5065 G17 G3 X-0.5652 Y-0.4987 I-0.0016 J-0.0124
N5070 X-0.4926 Y-0.508 Z0.0689 I0.0363 J-0.0046
N5075 X-0.5652 Y-0.4987 Z0.0591 I-0.0363 J0.0046
N5080 X-0.4926 Y-0.508 Z0.0492 I0.0363 J-0.0046
N5085 X-0.5652 Y-0.4987 Z0.0394 I-0.0363 J0.0046
N5090 X-0.4926 Y-0.508 Z0.0295 I0.0363 J-0.0046
N5095 X-0.5652 Y-0.4987 Z0.0197 I-0.0363 J0.0046
N5100 X-0.4926 Y-0.508 Z0.0098 I0.0363 J-0.0046
N5105 X-0.5652 Y-0.4987 Z0. I-0.0363 J0.0046
N5110 X-0.4926 Y-0.508 Z-0.0098 I0.0363 J-0.0046
N5115 X-0.5652 Y-0.4987 Z-0.0197 I-0.0363 J0.0046
N5120 X-0.4926 Y-0.508 Z-0.0295 I0.0363 J-0.0046
N5125 X-0.5652 Y-0.4987 Z-0.0394 I-0.0363 J0.0046
N5130 X-0.4926 Y-0.508 Z-0.0492 I0.0363 J-0.0046
N5135 X-0.5652 Y-0.4987 Z-0.0591 I-0.0363 J0.0046
N5140 X-0.4926 Y-0.508 Z-0.0689 I0.0363 J-0.0046
N5145 X-0.5652 Y-0.4987 Z-0.0787 I-0.0363 J0.0046
N5150 X-0.4926 Y-0.508 Z-0.0886 I0.0363 J-0.0046
N5155 X-0.5652 Y-0.4987 Z-0.0984 I-0.0363 J0.0046
N5160 X-0.4926 Y-0.508 Z-0.1083 I0.0363 J-0.0046
N5165 X-0.5652 Y-0.4987 Z-0.1181 I-0.0363 J0.0046
N5170 X-0.4926 Y-0.508 Z-0.128 I0.0363 J-0.0046
N5175 X-0.5652 Y-0.4987 Z-0.1378 I-0.0363 J0.0046
N5180 X-0.4926 Y-0.508 Z-0.1476 I0.0363 J-0.0046
N5185 X-0.5652 Y-0.4987 Z-0.1575 I-0.0363 J0.0046
N5190 X-0.4926 Y-0.508 Z-0.1673 I0.0363 J-0.0046
N5195 X-0.5652 Y-0.4987 Z-0.1772 I-0.0363 J0.0046
N5200 X-0.4926 Y-0.508 Z-0.187 I0.0363 J-0.0046
N5205 X-0.5652 Y-0.4987 Z-0.1969 I-0.0363 J0.0046
N5210 X-0.4926 Y-0.508 Z-0.2067 I0.0363 J-0.0046
N5215 X-0.5652 Y-0.4987 Z-0.2165 I-0.0363 J0.0046
N5220 X-0.4926 Y-0.508 Z-0.2264 I0.0363 J-0.0046
N5225 X-0.5652 Y-0.4987 Z-0.2362 I-0.0363 J0.0046
N5230 X-0.4926 Y-0.508 Z-0.2461 I0.0363 J-0.0046
N5235 X-0.5652 Y-0.4987 Z-0.2559 I-0.0363 J0.0046
N5240 X-0.4926 Y-0.508 Z-0.2657 I0.0363 J-0.0046
N5245 X-0.5652 Y-0.4987 Z-0.2756 I-0.0363 J0.0046
N5250 X-0.4926 Y-0.508 Z-0.2854 I0.0363 J-0.0046
N5255 X-0.5652 Y-0.4987 Z-0.2953 I-0.0363 J0.0046
N5260 X-0.4926 Y-0.508 Z-0.3051 I0.0363 J-0.0046
N5265 X-0.5652 Y-0.4987 Z-0.315 I-0.0363 J0.0046
N5270 X-0.4926 Y-0.508 Z-0.3248 I0.0363 J-0.0046
N5275 X-0.5652 Y-0.4987 Z-0.3346 I-0.0363 J0.0046
N5280 X-0.4926 Y-0.508 Z-0.3445 I0.0363 J-0.0046
N5285 X-0.5652 Y-0.4987 Z-0.3543 I-0.0363 J0.0046
N5290 X-0.4926 Y-0.508 Z-0.3642 I0.0363 J-0.0046
N5295 X-0.5652 Y-0.4987 Z-0.374 I-0.0363 J0.0046
N5300 X-0.4926 Y-0.508 Z-0.3839 I0.0363 J-0.0046
N5305 X-0.5652 Y-0.4987 Z-0.3937 I-0.0363 J0.0046
N5310 X-0.4926 Y-0.508 Z-0.4035 I0.0363 J-0.0046
N5315 X-0.5652 Y-0.4987 Z-0.4134 I-0.0363 J0.0046
N5320 X-0.4926 Y-0.508 Z-0.4232 I0.0363 J-0.0046
N5325 X-0.5652 Y-0.4987 Z-0.4331 I-0.0363 J0.0046
N5330 X-0.4926 Y-0.508 Z-0.4429 I0.0363 J-0.0046
N5335 X-0.5652 Y-0.4987 Z-0.4528 I-0.0363 J0.0046
N5340 X-0.4926 Y-0.508 Z-0.4626 I0.0363 J-0.0046
N5345 X-0.5652 Y-0.4987 Z-0.4724 I-0.0363 J0.0046
N5350 X-0.4926 Y-0.508 Z-0.4823 I0.0363 J-0.0046
N5355 X-0.5652 Y-0.4987 Z-0.4921 I-0.0363 J0.0046
N5360 X-0.4926 Y-0.508 Z-0.502 I0.0363 J-0.0046
N5365 X-0.5652 Y-0.4987 Z-0.5118 I-0.0363 J0.0046
N5370 X-0.4926 Y-0.508 Z-0.5217 I0.0363 J-0.0046
N5375 X-0.5652 Y-0.4987 Z-0.5315 I-0.0363 J0.0046
N5380 X-0.4926 Y-0.508 Z-0.5413 I0.0363 J-0.0046
N5385 X-0.5652 Y-0.4987 Z-0.5512 I-0.0363 J0.0046
N5390 X-0.4926 Y-0.508 Z-0.561 I0.0363 J-0.0046
N5395 X-0.5652 Y-0.4987 Z-0.5709 I-0.0363 J0.0046
N5400 X-0.4926 Y-0.508 Z-0.5807 I0.0363 J-0.0046
N5405 X-0.5652 Y-0.4987 Z-0.5906 I-0.0363 J0.0046
N5410 X-0.4926 Y-0.508 I0.0363 J-0.0046
N5415 X-0.5652 Y-0.4987 I-0.0363 J0.0046
N5420 X-0.5544 Y-0.5127 I0.0124 J-0.0016
N5425 G1 X-0.5482 Y-0.5135
N5430 X-0.5455 Y-0.5138 Z-0.5902
N5435 X-0.5428 Y-0.5142 Z-0.5893
N5440 X-0.5405 Y-0.5145 Z-0.5878
N5445 X-0.5385 Y-0.5147 Z-0.5858
N5450 X-0.537 Y-0.5149 Z-0.5835
N5455 X-0.5361 Y-0.515 Z-0.5808
N5460 X-0.5358 Y-0.5151 Z-0.5781
N5465 Z0.5906
N5470 M5
N5475 G53 G0 Z0.
N5480 M30
%
