%
(1001)
(MACHINE)
(  VENDOR PRINTNC)
(  MODEL PRINTNC V4 METALCUTTER)
(  DESCRIPTION GENERIC 3-AXIS ROUTER)
(T11 D=0.1575 CR=0. TAPER=45DEG - ZMIN=-0.0787 - CHAMFER MILL)
N10 G90 G94 G17 G91.1
N15 G20
(WHEN USING FUSION FOR PERSONAL USE, THE FEEDRATE OF RAPID)
(MOVES IS REDUCED TO MATCH THE FEEDRATE OF CUTTING MOVES,)
(WHICH CAN INCREASE MACHINING TIME. UNRESTRICTED RAPID MOVES)
(ARE AVAILABLE WITH A FUSION SUBSCRIPTION.)
N20 G53 G0 Z0.
(2D CHAMFER1 2)
N25 T11 M6
N30 S15000 M3
N35 G17 G90 G94
N40 G54
N45 G64 P0.0004 Q0.0004
N50 G0 X-0.5009 Y-0.4997
N55 G43 Z0.5906 H11
N60 G1 Z0.1969 F78.74
N65 Z0.0787 F13.123
N70 Z-0.0787
N75 X-0.4853 Y-0.4977 F78.74
N80 G3 X-0.5233 Y-0.4597 I-0.0436 J-0.0056
N85 G1 X-0.5253 Y-0.4753
N90 Z0.1969
N95 X-0.5325
N100 Z0.0787 F13.123
N105 Z-0.0787
N110 X-0.5345 Y-0.4597 F78.74
N115 G3 X-0.5726 Y-0.4978 I0.0056 J-0.0436
N120 G1 X-0.5569 Y-0.4998
N125 Z0.1969
N130 Y-0.5069
N135 Z0.0787 F13.123
N140 Z-0.0787
N145 X-0.5726 Y-0.5089 F78.74
N150 G3 X-0.5346 Y-0.547 I0.0436 J0.0056
N155 G1 X-0.5325 Y-0.5313
N160 Z0.1969
N165 X-0.5254
N170 Z0.0787 F13.123
N175 Z-0.0787
N180 X-0.5234 Y-0.547 F78.74
N185 G3 X-0.4853 Y-0.509 I-0.0056 J0.0436
N190 G1 X-0.5009 Y-0.507
N195 Z0.1969
N200 X0.5009
N205 Z0.0787 F13.123
N210 Z-0.0787
N215 X0.4853 Y-0.509 F78.74
N220 G3 X0.5233 Y-0.547 I0.0436 J0.0056
N225 G1 X0.5253 Y-0.5313
N230 Z0.1969
N235 X0.5325
N240 Z0.0787 F13.123
N245 Z-0.0787
N250 X0.5345 Y-0.547 F78.74
N255 G3 X0.5726 Y-0.509 I-0.0056 J0.0436
N260 G1 X0.5569 Y-0.507
N265 Z0.1969
N270 Y-0.4998
N275 Z0.0787 F13.123
N280 Z-0.0787
N285 X0.5726 Y-0.4978 F78.74
N290 G3 X0.5346 Y-0.4597 I-0.0436 J-0.0056
N295 G1 X0.5325 Y-0.4753
N300 Z0.1969
N305 X0.5254
N310 Z0.0787 F13.123
N315 Z-0.0787
N320 X0.5234 Y-0.4597 F78.74
N325 G3 X0.4853 Y-0.4977 I0.0056 J-0.0436
N330 G1 X0.5009 Y-0.4997
N335 Z0.1969
N340 X0.5325 Y0.5265
N345 Z0.0787 F13.123
N350 Z-0.0787
N355 X0.5345 Y0.5109 F78.74
N360 G3 X0.5726 Y0.5489 I-0.0056 J0.0436
N365 G1 X0.5569 Y0.5509
N370 Z0.1969
N375 Y0.5581
N380 Z0.0787 F13.123
N385 Z-0.0787
N390 X0.5726 Y0.5601 F78.74
N395 G3 X0.5345 Y0.5982 I-0.0436 J-0.0056
N400 G1 X0.5325 Y0.5825
N405 Z0.1969
N410 X0.5254
N415 Z0.0787 F13.123
N420 Z-0.0787
N425 X0.5234 Y0.5981 F78.74
N430 G3 X0.4853 Y0.5601 I0.0056 J-0.0436
N435 G1 X0.5009 Y0.5581
N440 Z0.1969
N445 Y0.5509
N450 Z0.0787 F13.123
N455 Z-0.0787
N460 X0.4853 Y0.5489 F78.74
N465 G3 X0.5233 Y0.5109 I0.0436 J0.0056
N470 G1 X0.5253 Y0.5265
N475 Z0.1969
N480 X-0.5009 Y0.5581
N485 Z0.0787 F13.123
N490 Z-0.0787
N495 X-0.4853 Y0.5601 F78.74
N500 G3 X-0.5234 Y0.5982 I-0.0436 J-0.0056
N505 G1 X-0.5254 Y0.5825
N510 Z0.1969
N515 X-0.5325
N520 Z0.0787 F13.123
N525 Z-0.0787
N530 X-0.5345 Y0.5981 F78.74
N535 G3 X-0.5726 Y0.5601 I0.0056 J-0.0436
N540 G1 X-0.5569 Y0.5581
N545 Z0.1969
N550 Y0.5509
N555 Z0.0787 F13.123
N560 Z-0.0787
N565 X-0.5726 Y0.5489 F78.74
N570 G3 X-0.5346 Y0.5109 I0.0436 J0.0056
N575 G1 X-0.5325 Y0.5265
N580 Z0.1969
N585 X-0.5254
N590 Z0.0787 F13.123
N595 Z-0.0787
N600 X-0.5234 Y0.5109 F78.74
N605 G3 X-0.4853 Y0.5489 I-0.0056 J0.0436
N610 G1 X-0.5009 Y0.5509
N615 Z0.5906
(WHEN USING FUSION FOR PERSONAL USE, THE FEEDRATE OF RAPID)
(MOVES IS REDUCED TO MATCH THE FEEDRATE OF CUTTING MOVES,)
(WHICH CAN INCREASE MACHINING TIME. UNRESTRICTED RAPID MOVES)
(ARE AVAILABLE WITH A FUSION SUBSCRIPTION.)
(2D CHAMFER1)
N620 G0 X0.3509 Y0.3818
N625 G1 Z0.5906 F78.74
N630 Z0.1969
N635 Z0.0787 F13.123
N640 Z-0.0787
N645 X0.3619 Y0.393 F78.74
N650 G2 X0.315 Y0.5052 I0.1105 J0.1122
N655 G1 Y0.7539
N660 G2 X0.4724 Y0.9114 I0.1575 J0.
N665 G1 X1.0876
N670 G2 X1.4026 Y0.5965 I0. J-0.315
N675 G1 Y-0.5965
N680 G2 X1.0876 Y-0.9114 I-0.315 J0.
N685 G1 X-1.0876
N690 G2 X-1.4026 Y-0.5965 I0. J0.315
N695 G1 Y0.5965
N700 G2 X-1.0876 Y0.9114 I0.315 J0.
N705 G1 X-0.4724
N710 G2 X-0.315 Y0.7539 I0. J-0.1575
N715 G1 Y0.5052
N720 G2 X-0.3619 Y0.393 I-0.1575 J0.
N725 G3 X0.3619 Y-0.3418 I0.3619 J-0.3674
N730 Y0.393 I-0.3619 J0.3674
N735 G1 X0.3509 Y0.3818
N740 Z0.1969
N745 X0.7257 Y0.0428
N750 Z0.0787 F13.123
N755 Z-0.0787
N760 X0.7132 Y0.0525 F78.74
N765 G3 Y-0.0013 I0.0348 J-0.0269
N770 G1 X0.7257 Y0.0083
N775 Z0.1969
N780 X0.7308 Y0.0033
N785 Z0.0787 F13.123
N790 Z-0.0787
N795 X0.7211 Y-0.0092 F78.74
N800 G3 X0.7749 I0.0269 J0.0348
N805 G1 X0.7653 Y0.0033
N810 Z0.1969
N815 X0.7704 Y0.0083
N820 Z0.0787 F13.123
N825 Z-0.0787
N830 X0.7828 Y-0.0013 F78.74
N835 G3 Y0.0525 I-0.0348 J0.0269
N840 G1 X0.7704 Y0.0428
N845 Z0.1969
N850 X0.7653 Y0.0479
N855 Z0.0787 F13.123
N860 Z-0.0787
N865 X0.7749 Y0.0604 F78.74
N870 G3 X0.7211 I-0.0269 J-0.0348
N875 G1 X0.7308 Y0.0479
N880 Z0.1969
N885 X-0.7257 Y0.0083
N890 Z0.0787 F13.123
N895 Z-0.0787
N900 X-0.7132 Y-0.0013 F78.74
N905 G3 Y0.0525 I-0.0348 J0.0269
N910 G1 X-0.7257 Y0.0428
N915 Z0.1969
N920 X-0.7308 Y0.0479
N925 Z0.0787 F13.123
N930 Z-0.0787
N935 X-0.7211 Y0.0604 F78.74
N940 G3 X-0.7749 I-0.0269 J-0.0348
N945 G1 X-0.7653 Y0.0479
N950 Z0.1969
N955 X-0.7704 Y0.0428
N960 Z0.0787 F13.123
N965 Z-0.0787
N970 X-0.7828 Y0.0525 F78.74
N975 G3 Y-0.0013 I0.0348 J-0.0269
N980 G1 X-0.7704 Y0.0083
N985 Z0.1969
N990 X-0.7653 Y0.0033
N995 Z0.0787 F13.123
N1000 Z-0.0787
N1005 X-0.7749 Y-0.0092 F78.74
N1010 G3 X-0.7211 I0.0269 J0.0348
N1015 G1 X-0.7308 Y0.0033
N1020 Z0.5906
(WHEN USING FUSION FOR PERSONAL USE, THE FEEDRATE OF RAPID)
(MOVES IS REDUCED TO MATCH THE FEEDRATE OF CUTTING MOVES,)
(WHICH CAN INCREASE MACHINING TIME. UNRESTRICTED RAPID MOVES)
(ARE AVAILABLE WITH A FUSION SUBSCRIPTION.)
N1025 G53 G0 Z0.
(2D CHAMFER1 2)
N1030 G55
N1035 G0 X-0.5009 Y-0.4997
N1040 G43 Z0.5906 H11
N1045 G1 Z0.1969 F78.74
N1050 Z0.0787 F13.123
N1055 Z-0.0787
N1060 X-0.4853 Y-0.4977 F78.74
N1065 G3 X-0.5233 Y-0.4597 I-0.0436 J-0.0056
N1070 G1 X-0.5253 Y-0.4753
N1075 Z0.1969
N1080 X-0.5325
N1085 Z0.0787 F13.123
N1090 Z-0.0787
N1095 X-0.5345 Y-0.4597 F78.74
N1100 G3 X-0.5726 Y-0.4978 I0.0056 J-0.0436
N1105 G1 X-0.5569 Y-0.4998
N1110 Z0.1969
N1115 Y-0.5069
N1120 Z0.0787 F13.123
N1125 Z-0.0787
N1130 X-0.5726 Y-0.5089 F78.74
N1135 G3 X-0.5346 Y-0.547 I0.0436 J0.0056
N1140 G1 X-0.5325 Y-0.5313
N1145 Z0.1969
N1150 X-0.5254
N1155 Z0.0787 F13.123
N1160 Z-0.0787
N1165 X-0.5234 Y-0.547 F78.74
N1170 G3 X-0.4853 Y-0.509 I-0.0056 J0.0436
N1175 G1 X-0.5009 Y-0.507
N1180 Z0.1969
N1185 X0.5009
N1190 Z0.0787 F13.123
N1195 Z-0.0787
N1200 X0.4853 Y-0.509 F78.74
N1205 G3 X0.5233 Y-0.547 I0.0436 J0.0056
N1210 G1 X0.5253 Y-0.5313
N1215 Z0.1969
N1220 X0.5325
N1225 Z0.0787 F13.123
N1230 Z-0.0787
N1235 X0.5345 Y-0.547 F78.74
N1240 G3 X0.5726 Y-0.509 I-0.0056 J0.0436
N1245 G1 X0.5569 Y-0.507
N1250 Z0.1969
N1255 Y-0.4998
N1260 Z0.0787 F13.123
N1265 Z-0.0787
N1270 X0.5726 Y-0.4978 F78.74
N1275 G3 X0.5346 Y-0.4597 I-0.0436 J-0.0056
N1280 G1 X0.5325 Y-0.4753
N1285 Z0.1969
N1290 X0.5254
N1295 Z0.0787 F13.123
N1300 Z-0.0787
N1305 X0.5234 Y-0.4597 F78.74
N1310 G3 X0.4853 Y-0.4977 I0.0056 J-0.0436
N1315 G1 X0.5009 Y-0.4997
N1320 Z0.1969
N1325 X0.5325 Y0.5265
N1330 Z0.0787 F13.123
N1335 Z-0.0787
N1340 X0.5345 Y0.5109 F78.74
N1345 G3 X0.5726 Y0.5489 I-0.0056 J0.0436
N1350 G1 X0.5569 Y0.5509
N1355 Z0.1969
N1360 Y0.5581
N1365 Z0.0787 F13.123
N1370 Z-0.0787
N1375 X0.5726 Y0.5601 F78.74
N1380 G3 X0.5345 Y0.5982 I-0.0436 J-0.0056
N1385 G1 X0.5325 Y0.5825
N1390 Z0.1969
N1395 X0.5254
N1400 Z0.0787 F13.123
N1405 Z-0.0787
N1410 X0.5234 Y0.5981 F78.74
N1415 G3 X0.4853 Y0.5601 I0.0056 J-0.0436
N1420 G1 X0.5009 Y0.5581
N1425 Z0.1969
N1430 Y0.5509
N1435 Z0.0787 F13.123
N1440 Z-0.0787
N1445 X0.4853 Y0.5489 F78.74
N1450 G3 X0.5233 Y0.5109 I0.0436 J0.0056
N1455 G1 X0.5253 Y0.5265
N1460 Z0.1969
N1465 X-0.5009 Y0.5581
N1470 Z0.0787 F13.123
N1475 Z-0.0787
N1480 X-0.4853 Y0.5601 F78.74
N1485 G3 X-0.5234 Y0.5982 I-0.0436 J-0.0056
N1490 G1 X-0.5254 Y0.5825
N1495 Z0.1969
N1500 X-0.5325
N1505 Z0.0787 F13.123
N1510 Z-0.0787
N1515 X-0.5345 Y0.5981 F78.74
N1520 G3 X-0.5726 Y0.5601 I0.0056 J-0.0436
N1525 G1 X-0.5569 Y0.5581
N1530 Z0.1969
N1535 Y0.5509
N1540 Z0.0787 F13.123
N1545 Z-0.0787
N1550 X-0.5726 Y0.5489 F78.74
N1555 G3 X-0.5346 Y0.5109 I0.0436 J0.0056
N1560 G1 X-0.5325 Y0.5265
N1565 Z0.1969
N1570 X-0.5254
N1575 Z0.0787 F13.123
N1580 Z-0.0787
N1585 X-0.5234 Y0.5109 F78.74
N1590 G3 X-0.4853 Y0.5489 I-0.0056 J0.0436
N1595 G1 X-0.5009 Y0.5509
N1600 Z0.5906
(WHEN USING FUSION FOR PERSONAL USE, THE FEEDRATE OF RAPID)
(MOVES IS REDUCED TO MATCH THE FEEDRATE OF CUTTING MOVES,)
(WHICH CAN INCREASE MACHINING TIME. UNRESTRICTED RAPID MOVES)
(ARE AVAILABLE WITH A FUSION SUBSCRIPTION.)
(2D CHAMFER1)
N1605 G0 X0.3509 Y0.3818
N1610 G1 Z0.5906 F78.74
N1615 Z0.1969
N1620 Z0.0787 F13.123
N1625 Z-0.0787
N1630 X0.3619 Y0.393 F78.74
N1635 G2 X0.315 Y0.5052 I0.1105 J0.1122
N1640 G1 Y0.7539
N1645 G2 X0.4724 Y0.9114 I0.1575 J0.
N1650 G1 X1.0876
N1655 G2 X1.4026 Y0.5965 I0. J-0.315
N1660 G1 Y-0.5965
N1665 G2 X1.0876 Y-0.9114 I-0.315 J0.
N1670 G1 X-1.0876
N1675 G2 X-1.4026 Y-0.5965 I0. J0.315
N1680 G1 Y0.5965
N1685 G2 X-1.0876 Y0.9114 I0.315 J0.
N1690 G1 X-0.4724
N1695 G2 X-0.315 Y0.7539 I0. J-0.1575
N1700 G1 Y0.5052
N1705 G2 X-0.3619 Y0.393 I-0.1575 J0.
N1710 G3 X0.3619 Y-0.3418 I0.3619 J-0.3674
N1715 Y0.393 I-0.3619 J0.3674
N1720 G1 X0.3509 Y0.3818
N1725 Z0.1969
N1730 X0.7257 Y0.0428
N1735 Z0.0787 F13.123
N1740 Z-0.0787
N1745 X0.7132 Y0.0525 F78.74
N1750 G3 Y-0.0013 I0.0348 J-0.0269
N1755 G1 X0.7257 Y0.0083
N1760 Z0.1969
N1765 X0.7308 Y0.0033
N1770 Z0.0787 F13.123
N1775 Z-0.0787
N1780 X0.7211 Y-0.0092 F78.74
N1785 G3 X0.7749 I0.0269 J0.0348
N1790 G1 X0.7653 Y0.0033
N1795 Z0.1969
N1800 X0.7704 Y0.0083
N1805 Z0.0787 F13.123
N1810 Z-0.0787
N1815 X0.7828 Y-0.0013 F78.74
N1820 G3 Y0.0525 I-0.0348 J0.0269
N1825 G1 X0.7704 Y0.0428
N1830 Z0.1969
N1835 X0.7653 Y0.0479
N1840 Z0.0787 F13.123
N1845 Z-0.0787
N1850 X0.7749 Y0.0604 F78.74
N1855 G3 X0.7211 I-0.0269 J-0.0348
N1860 G1 X0.7308 Y0.0479
N1865 Z0.1969
N1870 X-0.7257 Y0.0083
N1875 Z0.0787 F13.123
N1880 Z-0.0787
N1885 X-0.7132 Y-0.0013 F78.74
N1890 G3 Y0.0525 I-0.0348 J0.0269
N1895 G1 X-0.7257 Y0.0428
N1900 Z0.1969
N1905 X-0.7308 Y0.0479
N1910 Z0.0787 F13.123
N1915 Z-0.0787
N1920 X-0.7211 Y0.0604 F78.74
N1925 G3 X-0.7749 I-0.0269 J-0.0348
N1930 G1 X-0.7653 Y0.0479
N1935 Z0.1969
N1940 X-0.7704 Y0.0428
N1945 Z0.0787 F13.123
N1950 Z-0.0787
N1955 X-0.7828 Y0.0525 F78.74
N1960 G3 Y-0.0013 I0.0348 J-0.0269
N1965 G1 X-0.7704 Y0.0083
N1970 Z0.1969
N1975 X-0.7653 Y0.0033
N1980 Z0.0787 F13.123
N1985 Z-0.0787
N1990 X-0.7749 Y-0.0092 F78.74
N1995 G3 X-0.7211 I0.0269 J0.0348
N2000 G1 X-0.7308 Y0.0033
N2005 Z0.5906
N2010 M5
N2015 G53 G0 Z0.
N2020 M30
%
