%
(1001)
(MACHINE)
(  VENDOR PRINTNC)
(  MODEL PRINTNC V4 METALCUTTER)
(  DESCRIPTION GENERIC 3-AXIS ROUTER)
(T16 D=0.9843 CR=0.0787 - ZMIN=-0.0354 - FACE MILL)
N10 G90 G94 G17 G91.1
N15 G20
(WHEN USING FUSION FOR PERSONAL USE, THE FEEDRATE OF RAPID)
(MOVES IS REDUCED TO MATCH THE FEEDRATE OF CUTTING MOVES,)
(WHICH CAN INCREASE MACHINING TIME. UNRESTRICTED RAPID MOVES)
(ARE AVAILABLE WITH A FUSION SUBSCRIPTION.)
N20 G53 G0 Z0.
(FACE6)
N25 T16 M6
N30 S15000 M3
N35 G17 G90 G94
N40 G54
N45 G64 P0.0004 Q0.0004
N50 G0 X3.9862 Y0.0701
N55 G43 Z0.5906 H16
N60 G1 Z0.1969 F59.055
N65 Z0.0866 F13.123
N70 G18 G3 X3.8878 Z-0.0118 I-0.0984 K0. F59.055
N75 G1 X3.839
N80 X-0.4925
N85 G17 G2 Y0.6265 I0. J0.2782
N90 G1 X3.839
N95 G3 Y1.1829 I0. J0.2782
N100 G1 X-0.4925
N105 G2 Y1.7393 I0. J0.2782
N110 G1 X3.839
N115 G18 G2 X3.9374 Z0.0866 I0. K0.0984
N120 G1 Z0.1969
N125 X3.9862 Y0.0701
N130 Z0.0748 F13.123
N135 G3 X3.8878 Z-0.0236 I-0.0984 K0. F59.055
N140 G1 X3.839
N145 X-0.4925
N150 G17 G2 Y0.6265 I0. J0.2782
N155 G1 X3.839
N160 G3 Y1.1829 I0. J0.2782
N165 G1 X-0.4925
N170 G2 Y1.7393 I0. J0.2782
N175 G1 X3.839
N180 G18 G2 X3.9374 Z0.0748 I0. K0.0984
N185 G1 Z0.1969
N190 X3.9862 Y0.0701
N195 Z0.063 F13.123
N200 G3 X3.8878 Z-0.0354 I-0.0984 K0. F59.055
N205 G1 X3.839
N210 X-0.4925
N215 G17 G2 Y0.6265 I0. J0.2782
N220 G1 X3.839
N225 G3 Y1.1829 I0. J0.2782
N230 G1 X-0.4925
N235 G2 Y1.7393 I0. J0.2782
N240 G1 X3.839
N245 G18 G2 X3.9374 Z0.063 I0. K0.0984
N250 G1 Z0.5906
N255 G17
N260 M5
N265 G53 G0 Z0.
N270 M30
%
