%
(1001)
(MACHINE)
(  VENDOR PRINTNC)
(  MODEL PRINTNC V4 METALCUTTER)
(  DESCRIPTION GENERIC 3-AXIS ROUTER)
(T6 D=8. CR=0. - ZMIN=-15.9 - FLAT END MILL)
N10 G90 G94 G17 G91.1
N15 G21
(WHEN USING FUSION FOR PERSONAL USE, THE FEEDRATE OF RAPID)
(MOVES IS REDUCED TO MATCH THE FEEDRATE OF CUTTING MOVES,)
(WHICH CAN INCREASE MACHINING TIME. UNRESTRICTED RAPID MOVES)
(ARE AVAILABLE WITH A FUSION SUBSCRIPTION.)
N20 G53 G0 Z0.
(2D CONTOUR7)
N25 T6 M6
N30 S15000 M3
N35 G17 G90 G94
N40 G54
N45 G64 P0.01 Q0.01
N50 G0 X5.412 Y5.004
N55 G43 Z15. H6
N60 G1 Z5. F1500.
N65 Z1. F333.33
N70 Z-15.1
N75 X5.417 Y5.009 Z-15.204 F1500.
N80 X5.431 Y5.024 Z-15.307
N85 X5.455 Y5.048 Z-15.406
N90 X5.487 Y5.081 Z-15.5
N95 X5.528 Y5.122 Z-15.587
N100 X5.576 Y5.171 Z-15.666
N105 X5.632 Y5.227 Z-15.735
N110 X5.693 Y5.289 Z-15.793
N115 X5.759 Y5.356 Z-15.839
N120 X5.828 Y5.427 Z-15.873
N125 X5.9 Y5.5 Z-15.893
N130 X5.973 Y5.574 Z-15.9
N135 X6.535 Y6.144
N140 G3 X6.526 Y7.275 I-0.57 J0.561
N145 G2 X4.2 Y12.832 I5.474 J5.557
N150 G1 Y22.65
N155 G2 X12. Y30.45 I7.8 J0.
N160 G1 X31.125
N165 G2 X42.925 Y18.65 I0. J-11.8
N170 G1 Y-18.65
N175 G2 X31.125 Y-30.45 I-11.8 J0.
N180 G1 X-31.125
N185 G2 X-42.925 Y-18.65 I0. J11.8
N190 G1 Y18.65
N195 G2 X-31.125 Y30.45 I11.8 J0.
N200 G1 X-12.
N205 G2 X-4.2 Y22.65 I0. J-7.8
N210 G1 Y12.832
N215 G2 X-6.526 Y7.275 I-7.8 J0.
N220 G3 X6.526 Y-5.975 I6.526 J-6.625
N225 Y7.275 I-6.526 J6.625
N230 G2 X6.386 Y8.011 I0.463 J0.47
N235 G3 X6.309 Y8.757 I-0.691 J0.305
N240 G2 X5. Y12.832 I5.691 J4.076
N245 G1 Y22.65
N250 G2 X12. Y29.65 I7. J0.
N255 G1 X31.125
N260 G2 X42.125 Y18.65 I0. J-11.
N265 G1 Y-18.65
N270 G2 X31.125 Y-29.65 I-11. J0.
N275 G1 X-31.125
N280 G2 X-42.125 Y-18.65 I0. J11.
N285 G1 Y18.65
N290 G2 X-31.125 Y29.65 I11. J0.
N295 G1 X-12.
N300 G2 X-5. Y22.65 I0. J-7.
N305 G1 Y12.832
N310 G2 X-7.088 Y7.845 I-7. J0.
N315 G3 X7.088 Y-6.545 I7.088 J-7.195
N320 Y7.845 I-7.088 J7.195
N325 G2 X6.309 Y8.757 I4.912 J4.987
N330 G3 X5.193 Y8.941 I-0.65 J-0.466
N335 G1 X4.542 Y8.475
N340 X4.457 Y8.414 Z-15.893
N345 X4.374 Y8.355 Z-15.873
N350 X4.293 Y8.297 Z-15.839
N355 X4.217 Y8.242 Z-15.793
N360 X4.146 Y8.192 Z-15.735
N365 X4.082 Y8.146 Z-15.666
N370 X4.026 Y8.106 Z-15.587
N375 X3.979 Y8.072 Z-15.5
N380 X3.942 Y8.045 Z-15.406
N385 X3.914 Y8.025 Z-15.307
N390 X3.898 Y8.013 Z-15.204
N395 X3.892 Y8.009 Z-15.1
N400 Z15.
N405 M5
N410 G53 G0 Z0.
N415 M30
%
