%
(1001)
(MACHINE)
(  VENDOR PRINTNC)
(  MODEL PRINTNC V4 METALCUTTER)
(  DESCRIPTION GENERIC 3-AXIS ROUTER)
(T10 D=0.125 CR=0. - ZMIN=-0.6063 - FLAT END MILL)
N10 G90 G94 G17 G91.1
N15 G20
(WHEN USING FUSION FOR PERSONAL USE, THE FEEDRATE OF RAPID)
(MOVES IS REDUCED TO MATCH THE FEEDRATE OF CUTTING MOVES,)
(WHICH CAN INCREASE MACHINING TIME. UNRESTRICTED RAPID MOVES)
(ARE AVAILABLE WITH A FUSION SUBSCRIPTION.)
N20 G53 G0 Z0.
(BORE1)
N25 T10 M6
N30 S18048 M3
N35 G17 G90 G94
N40 G54
N45 G64 P0.0004 Q0.0004
N50 G0 X2.1926 Y0.5563
N55 G43 Z0.5906 H10
N60 G1 Z0.122 F19.685
N65 Z0.0558
N70 X2.1929 Y0.5562 Z0.053
N75 X2.1938 Y0.5561 Z0.0504
N80 X2.1953 Y0.5559 Z0.048
N85 X2.1973 Y0.5557 Z0.046
N90 X2.1996 Y0.5554 Z0.0445
N95 X2.2022 Y0.555 Z0.0436
N100 X2.205 Y0.5547 Z0.0433
N105 X2.2112 Y0.5539
N110 G3 X2.2228 Y0.5629 I0.0013 J0.0103
N115 X2.1815 Y0.5682 Z0.0335 I-0.0207 J0.0026
N120 X2.2228 Y0.5629 Z0.0236 I0.0207 J-0.0026
N125 X2.1815 Y0.5682 Z0.0138 I-0.0207 J0.0026
N130 X2.2228 Y0.5629 Z0.0039 I0.0207 J-0.0026
N135 X2.1815 Y0.5682 Z-0.0059 I-0.0207 J0.0026
N140 X2.2228 Y0.5629 Z-0.0157 I0.0207 J-0.0026
N145 X2.1815 Y0.5682 Z-0.0256 I-0.0207 J0.0026
N150 X2.2228 Y0.5629 Z-0.0354 I0.0207 J-0.0026
N155 X2.1815 Y0.5682 Z-0.0453 I-0.0207 J0.0026
N160 X2.2228 Y0.5629 Z-0.0551 I0.0207 J-0.0026
N165 X2.1815 Y0.5682 Z-0.065 I-0.0207 J0.0026
N170 X2.2228 Y0.5629 Z-0.0748 I0.0207 J-0.0026
N175 X2.1815 Y0.5682 Z-0.0846 I-0.0207 J0.0026
N180 X2.2228 Y0.5629 Z-0.0945 I0.0207 J-0.0026
N185 X2.1815 Y0.5682 Z-0.1043 I-0.0207 J0.0026
N190 X2.2228 Y0.5629 Z-0.1142 I0.0207 J-0.0026
N195 X2.1815 Y0.5682 Z-0.124 I-0.0207 J0.0026
N200 X2.2228 Y0.5629 Z-0.1339 I0.0207 J-0.0026
N205 X2.1815 Y0.5682 Z-0.1437 I-0.0207 J0.0026
N210 X2.2228 Y0.5629 Z-0.1535 I0.0207 J-0.0026
N215 X2.1815 Y0.5682 Z-0.1634 I-0.0207 J0.0026
N220 X2.2228 Y0.5629 Z-0.1732 I0.0207 J-0.0026
N225 X2.1815 Y0.5682 Z-0.1831 I-0.0207 J0.0026
N230 X2.2228 Y0.5629 Z-0.1929 I0.0207 J-0.0026
N235 X2.1815 Y0.5682 Z-0.2028 I-0.0207 J0.0026
N240 X2.2228 Y0.5629 Z-0.2126 I0.0207 J-0.0026
N245 X2.1815 Y0.5682 Z-0.2224 I-0.0207 J0.0026
N250 X2.2228 Y0.5629 Z-0.2323 I0.0207 J-0.0026
N255 X2.1815 Y0.5682 Z-0.2421 I-0.0207 J0.0026
N260 X2.2228 Y0.5629 Z-0.252 I0.0207 J-0.0026
N265 X2.1815 Y0.5682 Z-0.2618 I-0.0207 J0.0026
N270 X2.2228 Y0.5629 Z-0.2717 I0.0207 J-0.0026
N275 X2.1815 Y0.5682 Z-0.2815 I-0.0207 J0.0026
N280 X2.2228 Y0.5629 Z-0.2913 I0.0207 J-0.0026
N285 X2.1815 Y0.5682 Z-0.3012 I-0.0207 J0.0026
N290 X2.2228 Y0.5629 Z-0.311 I0.0207 J-0.0026
N295 X2.1815 Y0.5682 Z-0.3209 I-0.0207 J0.0026
N300 X2.2228 Y0.5629 Z-0.3307 I0.0207 J-0.0026
N305 X2.1815 Y0.5682 Z-0.3406 I-0.0207 J0.0026
N310 X2.2228 Y0.5629 Z-0.3504 I0.0207 J-0.0026
N315 X2.1815 Y0.5682 Z-0.3602 I-0.0207 J0.0026
N320 X2.2228 Y0.5629 Z-0.3701 I0.0207 J-0.0026
N325 X2.1815 Y0.5682 Z-0.3799 I-0.0207 J0.0026
N330 X2.2228 Y0.5629 Z-0.3898 I0.0207 J-0.0026
N335 X2.1815 Y0.5682 Z-0.3996 I-0.0207 J0.0026
N340 X2.2228 Y0.5629 Z-0.4094 I0.0207 J-0.0026
N345 X2.1815 Y0.5682 Z-0.4193 I-0.0207 J0.0026
N350 X2.2228 Y0.5629 Z-0.4291 I0.0207 J-0.0026
N355 X2.1815 Y0.5682 Z-0.439 I-0.0207 J0.0026
N360 X2.2228 Y0.5629 Z-0.4488 I0.0207 J-0.0026
N365 X2.1815 Y0.5682 Z-0.4587 I-0.0207 J0.0026
N370 X2.2228 Y0.5629 Z-0.4685 I0.0207 J-0.0026
N375 X2.1815 Y0.5682 Z-0.4783 I-0.0207 J0.0026
N380 X2.2228 Y0.5629 Z-0.4882 I0.0207 J-0.0026
N385 X2.1815 Y0.5682 Z-0.498 I-0.0207 J0.0026
N390 X2.2228 Y0.5629 Z-0.5079 I0.0207 J-0.0026
N395 X2.1815 Y0.5682 Z-0.5177 I-0.0207 J0.0026
N400 X2.2228 Y0.5629 Z-0.5276 I0.0207 J-0.0026
N405 X2.1815 Y0.5682 Z-0.5374 I-0.0207 J0.0026
N410 X2.2228 Y0.5629 Z-0.5472 I0.0207 J-0.0026
N415 X2.1815 Y0.5682 Z-0.5571 I-0.0207 J0.0026
N420 X2.2228 Y0.5629 Z-0.5669 I0.0207 J-0.0026
N425 X2.1815 Y0.5682 Z-0.5768 I-0.0207 J0.0026
N430 X2.2228 Y0.5629 Z-0.5866 I0.0207 J-0.0026
N435 X2.1815 Y0.5682 Z-0.5965 I-0.0207 J0.0026
N440 X2.2228 Y0.5629 Z-0.6063 I0.0207 J-0.0026
N445 X2.1815 Y0.5682 I-0.0207 J0.0026
N450 X2.2228 Y0.5629 I0.0207 J-0.0026
N455 X2.2138 Y0.5746 I-0.0103 J0.0013
N460 G1 X2.2076 Y0.5754
N465 X2.2049 Y0.5757 Z-0.606
N470 X2.2022 Y0.576 Z-0.6051
N475 X2.1999 Y0.5763 Z-0.6036
N480 X2.1979 Y0.5766 Z-0.6016
N485 X2.1965 Y0.5768 Z-0.5992
N490 X2.1955 Y0.5769 Z-0.5966
N495 X2.1952 Z-0.5938
N500 Z0.1969
N505 X2.4211 Y1.0811
N510 Z0.0827
N515 Z0.0164
N520 X2.4213 Y1.0813 Z0.0137
N525 X2.422 Y1.0819 Z0.011
N530 X2.4232 Y1.0828 Z0.0086
N535 X2.4248 Y1.084 Z0.0067
N540 X2.4266 Y1.0855 Z0.0052
N545 X2.4287 Y1.0871 Z0.0043
N550 X2.4309 Y1.0888 Z0.0039
N555 X2.4359 Y1.0926
N560 G3 X2.4377 Y1.1072 I-0.0064 J0.0082
N565 X2.4048 Y1.0817 Z-0.0059 I-0.0165 J-0.0128
N570 X2.4377 Y1.1072 Z-0.0157 I0.0165 J0.0128
N575 X2.4048 Y1.0817 Z-0.0256 I-0.0165 J-0.0128
N580 X2.4377 Y1.1072 Z-0.0354 I0.0165 J0.0128
N585 X2.4048 Y1.0817 Z-0.0453 I-0.0165 J-0.0128
N590 X2.4377 Y1.1072 Z-0.0551 I0.0165 J0.0128
N595 X2.4048 Y1.0817 Z-0.065 I-0.0165 J-0.0128
N600 X2.4377 Y1.1072 Z-0.0748 I0.0165 J0.0128
N605 X2.4048 Y1.0817 Z-0.0846 I-0.0165 J-0.0128
N610 X2.4377 Y1.1072 Z-0.0945 I0.0165 J0.0128
N615 X2.4048 Y1.0817 Z-0.1043 I-0.0165 J-0.0128
N620 X2.4377 Y1.1072 Z-0.1142 I0.0165 J0.0128
N625 X2.4048 Y1.0817 Z-0.124 I-0.0165 J-0.0128
N630 X2.4377 Y1.1072 Z-0.1339 I0.0165 J0.0128
N635 X2.4048 Y1.0817 Z-0.1437 I-0.0165 J-0.0128
N640 X2.4377 Y1.1072 Z-0.1535 I0.0165 J0.0128
N645 X2.4048 Y1.0817 Z-0.1634 I-0.0165 J-0.0128
N650 X2.4377 Y1.1072 Z-0.1732 I0.0165 J0.0128
N655 X2.4048 Y1.0817 Z-0.1831 I-0.0165 J-0.0128
N660 X2.4377 Y1.1072 Z-0.1929 I0.0165 J0.0128
N665 X2.4048 Y1.0817 Z-0.2028 I-0.0165 J-0.0128
N670 X2.4377 Y1.1072 Z-0.2126 I0.0165 J0.0128
N675 X2.4048 Y1.0817 Z-0.2224 I-0.0165 J-0.0128
N680 X2.4377 Y1.1072 Z-0.2323 I0.0165 J0.0128
N685 X2.4048 Y1.0817 Z-0.2421 I-0.0165 J-0.0128
N690 X2.4377 Y1.1072 Z-0.252 I0.0165 J0.0128
N695 X2.4048 Y1.0817 Z-0.2618 I-0.0165 J-0.0128
N700 X2.4377 Y1.1072 Z-0.2717 I0.0165 J0.0128
N705 X2.4048 Y1.0817 Z-0.2815 I-0.0165 J-0.0128
N710 X2.4377 Y1.1072 Z-0.2913 I0.0165 J0.0128
N715 X2.4048 Y1.0817 Z-0.3012 I-0.0165 J-0.0128
N720 X2.4377 Y1.1072 Z-0.311 I0.0165 J0.0128
N725 X2.4048 Y1.0817 Z-0.3209 I-0.0165 J-0.0128
N730 X2.4377 Y1.1072 Z-0.3307 I0.0165 J0.0128
N735 X2.4048 Y1.0817 Z-0.3406 I-0.0165 J-0.0128
N740 X2.4377 Y1.1072 Z-0.3504 I0.0165 J0.0128
N745 X2.4048 Y1.0817 Z-0.3602 I-0.0165 J-0.0128
N750 X2.4377 Y1.1072 Z-0.3701 I0.0165 J0.0128
N755 X2.4048 Y1.0817 Z-0.3799 I-0.0165 J-0.0128
N760 X2.4377 Y1.1072 Z-0.3898 I0.0165 J0.0128
N765 X2.4048 Y1.0817 Z-0.3996 I-0.0165 J-0.0128
N770 X2.4377 Y1.1072 Z-0.4094 I0.0165 J0.0128
N775 X2.4048 Y1.0817 Z-0.4193 I-0.0165 J-0.0128
N780 X2.4377 Y1.1072 Z-0.4291 I0.0165 J0.0128
N785 X2.4048 Y1.0817 Z-0.439 I-0.0165 J-0.0128
N790 X2.4377 Y1.1072 Z-0.4488 I0.0165 J0.0128
N795 X2.4048 Y1.0817 Z-0.4587 I-0.0165 J-0.0128
N800 X2.4377 Y1.1072 Z-0.4685 I0.0165 J0.0128
N805 X2.4048 Y1.0817 Z-0.4783 I-0.0165 J-0.0128
N810 X2.4377 Y1.1072 Z-0.4882 I0.0165 J0.0128
N815 X2.4048 Y1.0817 Z-0.498 I-0.0165 J-0.0128
N820 X2.4377 Y1.1072 Z-0.5079 I0.0165 J0.0128
N825 X2.4048 Y1.0817 Z-0.5177 I-0.0165 J-0.0128
N830 X2.4377 Y1.1072 Z-0.5276 I0.0165 J0.0128
N835 X2.4048 Y1.0817 Z-0.5374 I-0.0165 J-0.0128
N840 X2.4377 Y1.1072 Z-0.5472 I0.0165 J0.0128
N845 X2.4048 Y1.0817 Z-0.5571 I-0.0165 J-0.0128
N850 X2.4377 Y1.1072 Z-0.5669 I0.0165 J0.0128
N855 X2.4048 Y1.0817 Z-0.5768 I-0.0165 J-0.0128
N860 X2.4377 Y1.1072 Z-0.5866 I0.0165 J0.0128
N865 X2.4048 Y1.0817 Z-0.5965 I-0.0165 J-0.0128
N870 X2.4377 Y1.1072 Z-0.6063 I0.0165 J0.0128
N875 X2.4048 Y1.0817 I-0.0165 J-0.0128
N880 X2.4377 Y1.1072 I0.0165 J0.0128
N885 X2.4231 Y1.1091 I-0.0082 J-0.0064
N890 G1 X2.4182 Y1.1053
N895 X2.416 Y1.1036 Z-0.606
N900 X2.4139 Y1.102 Z-0.6051
N905 X2.412 Y1.1005 Z-0.6036
N910 X2.4105 Y1.0993 Z-0.6016
N915 X2.4093 Y1.0984 Z-0.5992
N920 X2.4085 Y1.0978 Z-0.5966
N925 X2.4083 Y1.0976 Z-0.5938
N930 Z0.1969
N935 X2.1952 Y1.612
N940 Z0.122
N945 Z0.0558
N950 X2.1955 Y1.6121 Z0.053
N955 X2.1965 Y1.6122 Z0.0504
N960 X2.1979 Y1.6124 Z0.048
N965 X2.1999 Y1.6126 Z0.046
N970 X2.2022 Y1.6129 Z0.0445
N975 X2.2049 Y1.6133 Z0.0436
N980 X2.2076 Y1.6136 Z0.0433
N985 X2.2138 Y1.6144
N990 G3 X2.2228 Y1.6261 I-0.0013 J0.0103
N995 X2.1815 Y1.6208 Z0.0335 I-0.0207 J-0.0026
N1000 X2.2228 Y1.6261 Z0.0236 I0.0207 J0.0026
N1005 X2.1815 Y1.6208 Z0.0138 I-0.0207 J-0.0026
N1010 X2.2228 Y1.6261 Z0.0039 I0.0207 J0.0026
N1015 X2.1815 Y1.6208 Z-0.0059 I-0.0207 J-0.0026
N1020 X2.2228 Y1.6261 Z-0.0157 I0.0207 J0.0026
N1025 X2.1815 Y1.6208 Z-0.0256 I-0.0207 J-0.0026
N1030 X2.2228 Y1.6261 Z-0.0354 I0.0207 J0.0026
N1035 X2.1815 Y1.6208 Z-0.0453 I-0.0207 J-0.0026
N1040 X2.2228 Y1.6261 Z-0.0551 I0.0207 J0.0026
N1045 X2.1815 Y1.6208 Z-0.065 I-0.0207 J-0.0026
N1050 X2.2228 Y1.6261 Z-0.0748 I0.0207 J0.0026
N1055 X2.1815 Y1.6208 Z-0.0846 I-0.0207 J-0.0026
N1060 X2.2228 Y1.6261 Z-0.0945 I0.0207 J0.0026
N1065 X2.1815 Y1.6208 Z-0.1043 I-0.0207 J-0.0026
N1070 X2.2228 Y1.6261 Z-0.1142 I0.0207 J0.0026
N1075 X2.1815 Y1.6208 Z-0.124 I-0.0207 J-0.0026
N1080 X2.2228 Y1.6261 Z-0.1339 I0.0207 J0.0026
N1085 X2.1815 Y1.6208 Z-0.1437 I-0.0207 J-0.0026
N1090 X2.2228 Y1.6261 Z-0.1535 I0.0207 J0.0026
N1095 X2.1815 Y1.6208 Z-0.1634 I-0.0207 J-0.0026
N1100 X2.2228 Y1.6261 Z-0.1732 I0.0207 J0.0026
N1105 X2.1815 Y1.6208 Z-0.1831 I-0.0207 J-0.0026
N1110 X2.2228 Y1.6261 Z-0.1929 I0.0207 J0.0026
N1115 X2.1815 Y1.6208 Z-0.2028 I-0.0207 J-0.0026
N1120 X2.2228 Y1.6261 Z-0.2126 I0.0207 J0.0026
N1125 X2.1815 Y1.6208 Z-0.2224 I-0.0207 J-0.0026
N1130 X2.2228 Y1.6261 Z-0.2323 I0.0207 J0.0026
N1135 X2.1815 Y1.6208 Z-0.2421 I-0.0207 J-0.0026
N1140 X2.2228 Y1.6261 Z-0.252 I0.0207 J0.0026
N1145 X2.1815 Y1.6208 Z-0.2618 I-0.0207 J-0.0026
N1150 X2.2228 Y1.6261 Z-0.2717 I0.0207 J0.0026
N1155 X2.1815 Y1.6208 Z-0.2815 I-0.0207 J-0.0026
N1160 X2.2228 Y1.6261 Z-0.2913 I0.0207 J0.0026
N1165 X2.1815 Y1.6208 Z-0.3012 I-0.0207 J-0.0026
N1170 X2.2228 Y1.6261 Z-0.311 I0.0207 J0.0026
N1175 X2.1815 Y1.6208 Z-0.3209 I-0.0207 J-0.0026
N1180 X2.2228 Y1.6261 Z-0.3307 I0.0207 J0.0026
N1185 X2.1815 Y1.6208 Z-0.3406 I-0.0207 J-0.0026
N1190 X2.2228 Y1.6261 Z-0.3504 I0.0207 J0.0026
N1195 X2.1815 Y1.6208 Z-0.3602 I-0.0207 J-0.0026
N1200 X2.2228 Y1.6261 Z-0.3701 I0.0207 J0.0026
N1205 X2.1815 Y1.6208 Z-0.3799 I-0.0207 J-0.0026
N1210 X2.2228 Y1.6261 Z-0.3898 I0.0207 J0.0026
N1215 X2.1815 Y1.6208 Z-0.3996 I-0.0207 J-0.0026
N1220 X2.2228 Y1.6261 Z-0.4094 I0.0207 J0.0026
N1225 X2.1815 Y1.6208 Z-0.4193 I-0.0207 J-0.0026
N1230 X2.2228 Y1.6261 Z-0.4291 I0.0207 J0.0026
N1235 X2.1815 Y1.6208 Z-0.439 I-0.0207 J-0.0026
N1240 X2.2228 Y1.6261 Z-0.4488 I0.0207 J0.0026
N1245 X2.1815 Y1.6208 Z-0.4587 I-0.0207 J-0.0026
N1250 X2.2228 Y1.6261 Z-0.4685 I0.0207 J0.0026
N1255 X2.1815 Y1.6208 Z-0.4783 I-0.0207 J-0.0026
N1260 X2.2228 Y1.6261 Z-0.4882 I0.0207 J0.0026
N1265 X2.1815 Y1.6208 Z-0.498 I-0.0207 J-0.0026
N1270 X2.2228 Y1.6261 Z-0.5079 I0.0207 J0.0026
N1275 X2.1815 Y1.6208 Z-0.5177 I-0.0207 J-0.0026
N1280 X2.2228 Y1.6261 Z-0.5276 I0.0207 J0.0026
N1285 X2.1815 Y1.6208 Z-0.5374 I-0.0207 J-0.0026
N1290 X2.2228 Y1.6261 Z-0.5472 I0.0207 J0.0026
N1295 X2.1815 Y1.6208 Z-0.5571 I-0.0207 J-0.0026
N1300 X2.2228 Y1.6261 Z-0.5669 I0.0207 J0.0026
N1305 X2.1815 Y1.6208 Z-0.5768 I-0.0207 J-0.0026
N1310 X2.2228 Y1.6261 Z-0.5866 I0.0207 J0.0026
N1315 X2.1815 Y1.6208 Z-0.5965 I-0.0207 J-0.0026
N1320 X2.2228 Y1.6261 Z-0.6063 I0.0207 J0.0026
N1325 X2.1815 Y1.6208 I-0.0207 J-0.0026
N1330 X2.2228 Y1.6261 I0.0207 J0.0026
N1335 X2.2112 Y1.6351 I-0.0103 J-0.0013
N1340 G1 X2.205 Y1.6343
N1345 X2.2022 Y1.6339 Z-0.606
N1350 X2.1996 Y1.6336 Z-0.6051
N1355 X2.1973 Y1.6333 Z-0.6036
N1360 X2.1953 Y1.6331 Z-0.6016
N1365 X2.1938 Y1.6329 Z-0.5992
N1370 X2.1929 Y1.6328 Z-0.5966
N1375 X2.1926 Y1.6327 Z-0.5938
N1380 Z0.1969
N1385 X1.1373 Y1.612
N1390 Z0.122
N1395 Z0.0558
N1400 X1.1377 Y1.6121 Z0.053
N1405 X1.1386 Y1.6122 Z0.0504
N1410 X1.1401 Y1.6124 Z0.048
N1415 X1.142 Y1.6126 Z0.046
N1420 X1.1444 Y1.6129 Z0.0445
N1425 X1.147 Y1.6133 Z0.0436
N1430 X1.1497 Y1.6136 Z0.0433
N1435 X1.1559 Y1.6144
N1440 G3 X1.165 Y1.6261 I-0.0013 J0.0103
N1445 X1.1236 Y1.6208 Z0.0335 I-0.0207 J-0.0026
N1450 X1.165 Y1.6261 Z0.0236 I0.0207 J0.0026
N1455 X1.1236 Y1.6208 Z0.0138 I-0.0207 J-0.0026
N1460 X1.165 Y1.6261 Z0.0039 I0.0207 J0.0026
N1465 X1.1236 Y1.6208 Z-0.0059 I-0.0207 J-0.0026
N1470 X1.165 Y1.6261 Z-0.0157 I0.0207 J0.0026
N1475 X1.1236 Y1.6208 Z-0.0256 I-0.0207 J-0.0026
N1480 X1.165 Y1.6261 Z-0.0354 I0.0207 J0.0026
N1485 X1.1236 Y1.6208 Z-0.0453 I-0.0207 J-0.0026
N1490 X1.165 Y1.6261 Z-0.0551 I0.0207 J0.0026
N1495 X1.1236 Y1.6208 Z-0.065 I-0.0207 J-0.0026
N1500 X1.165 Y1.6261 Z-0.0748 I0.0207 J0.0026
N1505 X1.1236 Y1.6208 Z-0.0846 I-0.0207 J-0.0026
N1510 X1.165 Y1.6261 Z-0.0945 I0.0207 J0.0026
N1515 X1.1236 Y1.6208 Z-0.1043 I-0.0207 J-0.0026
N1520 X1.165 Y1.6261 Z-0.1142 I0.0207 J0.0026
N1525 X1.1236 Y1.6208 Z-0.124 I-0.0207 J-0.0026
N1530 X1.165 Y1.6261 Z-0.1339 I0.0207 J0.0026
N1535 X1.1236 Y1.6208 Z-0.1437 I-0.0207 J-0.0026
N1540 X1.165 Y1.6261 Z-0.1535 I0.0207 J0.0026
N1545 X1.1236 Y1.6208 Z-0.1634 I-0.0207 J-0.0026
N1550 X1.165 Y1.6261 Z-0.1732 I0.0207 J0.0026
N1555 X1.1236 Y1.6208 Z-0.1831 I-0.0207 J-0.0026
N1560 X1.165 Y1.6261 Z-0.1929 I0.0207 J0.0026
N1565 X1.1236 Y1.6208 Z-0.2028 I-0.0207 J-0.0026
N1570 X1.165 Y1.6261 Z-0.2126 I0.0207 J0.0026
N1575 X1.1236 Y1.6208 Z-0.2224 I-0.0207 J-0.0026
N1580 X1.165 Y1.6261 Z-0.2323 I0.0207 J0.0026
N1585 X1.1236 Y1.6208 Z-0.2421 I-0.0207 J-0.0026
N1590 X1.165 Y1.6261 Z-0.252 I0.0207 J0.0026
N1595 X1.1236 Y1.6208 Z-0.2618 I-0.0207 J-0.0026
N1600 X1.165 Y1.6261 Z-0.2717 I0.0207 J0.0026
N1605 X1.1236 Y1.6208 Z-0.2815 I-0.0207 J-0.0026
N1610 X1.165 Y1.6261 Z-0.2913 I0.0207 J0.0026
N1615 X1.1236 Y1.6208 Z-0.3012 I-0.0207 J-0.0026
N1620 X1.165 Y1.6261 Z-0.311 I0.0207 J0.0026
N1625 X1.1236 Y1.6208 Z-0.3209 I-0.0207 J-0.0026
N1630 X1.165 Y1.6261 Z-0.3307 I0.0207 J0.0026
N1635 X1.1236 Y1.6208 Z-0.3406 I-0.0207 J-0.0026
N1640 X1.165 Y1.6261 Z-0.3504 I0.0207 J0.0026
N1645 X1.1236 Y1.6208 Z-0.3602 I-0.0207 J-0.0026
N1650 X1.165 Y1.6261 Z-0.3701 I0.0207 J0.0026
N1655 X1.1236 Y1.6208 Z-0.3799 I-0.0207 J-0.0026
N1660 X1.165 Y1.6261 Z-0.3898 I0.0207 J0.0026
N1665 X1.1236 Y1.6208 Z-0.3996 I-0.0207 J-0.0026
N1670 X1.165 Y1.6261 Z-0.4094 I0.0207 J0.0026
N1675 X1.1236 Y1.6208 Z-0.4193 I-0.0207 J-0.0026
N1680 X1.165 Y1.6261 Z-0.4291 I0.0207 J0.0026
N1685 X1.1236 Y1.6208 Z-0.439 I-0.0207 J-0.0026
N1690 X1.165 Y1.6261 Z-0.4488 I0.0207 J0.0026
N1695 X1.1236 Y1.6208 Z-0.4587 I-0.0207 J-0.0026
N1700 X1.165 Y1.6261 Z-0.4685 I0.0207 J0.0026
N1705 X1.1236 Y1.6208 Z-0.4783 I-0.0207 J-0.0026
N1710 X1.165 Y1.6261 Z-0.4882 I0.0207 J0.0026
N1715 X1.1236 Y1.6208 Z-0.498 I-0.0207 J-0.0026
N1720 X1.165 Y1.6261 Z-0.5079 I0.0207 J0.0026
N1725 X1.1236 Y1.6208 Z-0.5177 I-0.0207 J-0.0026
N1730 X1.165 Y1.6261 Z-0.5276 I0.0207 J0.0026
N1735 X1.1236 Y1.6208 Z-0.5374 I-0.0207 J-0.0026
N1740 X1.165 Y1.6261 Z-0.5472 I0.0207 J0.0026
N1745 X1.1236 Y1.6208 Z-0.5571 I-0.0207 J-0.0026
N1750 X1.165 Y1.6261 Z-0.5669 I0.0207 J0.0026
N1755 X1.1236 Y1.6208 Z-0.5768 I-0.0207 J-0.0026
N1760 X1.165 Y1.6261 Z-0.5866 I0.0207 J0.0026
N1765 X1.1236 Y1.6208 Z-0.5965 I-0.0207 J-0.0026
N1770 X1.165 Y1.6261 Z-0.6063 I0.0207 J0.0026
N1775 X1.1236 Y1.6208 I-0.0207 J-0.0026
N1780 X1.165 Y1.6261 I0.0207 J0.0026
N1785 X1.1533 Y1.6351 I-0.0103 J-0.0013
N1790 G1 X1.1471 Y1.6343
N1795 X1.1444 Y1.6339 Z-0.606
N1800 X1.1417 Y1.6336 Z-0.6051
N1805 X1.1394 Y1.6333 Z-0.6036
N1810 X1.1374 Y1.6331 Z-0.6016
N1815 X1.1359 Y1.6329 Z-0.5992
N1820 X1.135 Y1.6328 Z-0.5966
N1825 X1.1347 Y1.6327 Z-0.5938
N1830 Z0.1969
N1835 X0.9169 Y1.0841
N1840 Z0.0827
N1845 Z0.0164
N1850 G18 G2 X0.9294 Z0.0039 I0.0125 K0.
N1855 G1 X0.9356
N1860 G17 G3 X0.946 Y1.0945 I0. J0.0104
N1865 X0.9044 Z-0.0059 I-0.0208 J0.
N1870 X0.946 Z-0.0157 I0.0208 J0.
N1875 X0.9044 Z-0.0256 I-0.0208 J0.
N1880 X0.946 Z-0.0354 I0.0208 J0.
N1885 X0.9044 Z-0.0453 I-0.0208 J0.
N1890 X0.946 Z-0.0551 I0.0208 J0.
N1895 X0.9044 Z-0.065 I-0.0208 J0.
N1900 X0.946 Z-0.0748 I0.0208 J0.
N1905 X0.9044 Z-0.0846 I-0.0208 J0.
N1910 X0.946 Z-0.0945 I0.0208 J0.
N1915 X0.9044 Z-0.1043 I-0.0208 J0.
N1920 X0.946 Z-0.1142 I0.0208 J0.
N1925 X0.9044 Z-0.124 I-0.0208 J0.
N1930 X0.946 Z-0.1339 I0.0208 J0.
N1935 X0.9044 Z-0.1437 I-0.0208 J0.
N1940 X0.946 Z-0.1535 I0.0208 J0.
N1945 X0.9044 Z-0.1634 I-0.0208 J0.
N1950 X0.946 Z-0.1732 I0.0208 J0.
N1955 X0.9044 Z-0.1831 I-0.0208 J0.
N1960 X0.946 Z-0.1929 I0.0208 J0.
N1965 X0.9044 Z-0.2028 I-0.0208 J0.
N1970 X0.946 Z-0.2126 I0.0208 J0.
N1975 X0.9044 Z-0.2224 I-0.0208 J0.
N1980 X0.946 Z-0.2323 I0.0208 J0.
N1985 X0.9044 Z-0.2421 I-0.0208 J0.
N1990 X0.946 Z-0.252 I0.0208 J0.
N1995 X0.9044 Z-0.2618 I-0.0208 J0.
N2000 X0.946 Z-0.2717 I0.0208 J0.
N2005 X0.9044 Z-0.2815 I-0.0208 J0.
N2010 X0.946 Z-0.2913 I0.0208 J0.
N2015 X0.9044 Z-0.3012 I-0.0208 J0.
N2020 X0.946 Z-0.311 I0.0208 J0.
N2025 X0.9044 Z-0.3209 I-0.0208 J0.
N2030 X0.946 Z-0.3307 I0.0208 J0.
N2035 X0.9044 Z-0.3406 I-0.0208 J0.
N2040 X0.946 Z-0.3504 I0.0208 J0.
N2045 X0.9044 Z-0.3602 I-0.0208 J0.
N2050 X0.946 Z-0.3701 I0.0208 J0.
N2055 X0.9044 Z-0.3799 I-0.0208 J0.
N2060 X0.946 Z-0.3898 I0.0208 J0.
N2065 X0.9044 Z-0.3996 I-0.0208 J0.
N2070 X0.946 Z-0.4094 I0.0208 J0.
N2075 X0.9044 Z-0.4193 I-0.0208 J0.
N2080 X0.946 Z-0.4291 I0.0208 J0.
N2085 X0.9044 Z-0.439 I-0.0208 J0.
N2090 X0.946 Z-0.4488 I0.0208 J0.
N2095 X0.9044 Z-0.4587 I-0.0208 J0.
N2100 X0.946 Z-0.4685 I0.0208 J0.
N2105 X0.9044 Z-0.4783 I-0.0208 J0.
N2110 X0.946 Z-0.4882 I0.0208 J0.
N2115 X0.9044 Z-0.498 I-0.0208 J0.
N2120 X0.946 Z-0.5079 I0.0208 J0.
N2125 X0.9044 Z-0.5177 I-0.0208 J0.
N2130 X0.946 Z-0.5276 I0.0208 J0.
N2135 X0.9044 Z-0.5374 I-0.0208 J0.
N2140 X0.946 Z-0.5472 I0.0208 J0.
N2145 X0.9044 Z-0.5571 I-0.0208 J0.
N2150 X0.946 Z-0.5669 I0.0208 J0.
N2155 X0.9044 Z-0.5768 I-0.0208 J0.
N2160 X0.946 Z-0.5866 I0.0208 J0.
N2165 X0.9044 Z-0.5965 I-0.0208 J0.
N2170 X0.946 Z-0.6063 I0.0208 J0.
N2175 X0.9044 I-0.0208 J0.
N2180 X0.946 I0.0208 J0.
N2185 X0.9356 Y1.1049 I-0.0104 J0.
N2190 G1 X0.9294
N2195 G18 G3 X0.9169 Z-0.5938 I0. K0.0125
N2200 G1 Z0.1969
N2205 X1.1539 Y0.5748
N2210 Z0.122
N2215 Z0.0558
N2220 X1.1536 Y0.5749 Z0.053
N2225 X1.1526 Y0.575 Z0.0504
N2230 X1.1512 Y0.5752 Z0.048
N2235 X1.1492 Y0.5754 Z0.046
N2240 X1.1468 Y0.5757 Z0.0445
N2245 X1.1442 Y0.5761 Z0.0436
N2250 X1.1415 Y0.5764 Z0.0433
N2255 X1.1353 Y0.5772
N2260 G17 G3 X1.1236 Y0.5682 I-0.0013 J-0.0103
N2265 X1.165 Y0.5629 Z0.0335 I0.0207 J-0.0026
N2270 X1.1236 Y0.5682 Z0.0236 I-0.0207 J0.0026
N2275 X1.165 Y0.5629 Z0.0138 I0.0207 J-0.0026
N2280 X1.1236 Y0.5682 Z0.0039 I-0.0207 J0.0026
N2285 X1.165 Y0.5629 Z-0.0059 I0.0207 J-0.0026
N2290 X1.1236 Y0.5682 Z-0.0157 I-0.0207 J0.0026
N2295 X1.165 Y0.5629 Z-0.0256 I0.0207 J-0.0026
N2300 X1.1236 Y0.5682 Z-0.0354 I-0.0207 J0.0026
N2305 X1.165 Y0.5629 Z-0.0453 I0.0207 J-0.0026
N2310 X1.1236 Y0.5682 Z-0.0551 I-0.0207 J0.0026
N2315 X1.165 Y0.5629 Z-0.065 I0.0207 J-0.0026
N2320 X1.1236 Y0.5682 Z-0.0748 I-0.0207 J0.0026
N2325 X1.165 Y0.5629 Z-0.0846 I0.0207 J-0.0026
N2330 X1.1236 Y0.5682 Z-0.0945 I-0.0207 J0.0026
N2335 X1.165 Y0.5629 Z-0.1043 I0.0207 J-0.0026
N2340 X1.1236 Y0.5682 Z-0.1142 I-0.0207 J0.0026
N2345 X1.165 Y0.5629 Z-0.124 I0.0207 J-0.0026
N2350 X1.1236 Y0.5682 Z-0.1339 I-0.0207 J0.0026
N2355 X1.165 Y0.5629 Z-0.1437 I0.0207 J-0.0026
N2360 X1.1236 Y0.5682 Z-0.1535 I-0.0207 J0.0026
N2365 X1.165 Y0.5629 Z-0.1634 I0.0207 J-0.0026
N2370 X1.1236 Y0.5682 Z-0.1732 I-0.0207 J0.0026
N2375 X1.165 Y0.5629 Z-0.1831 I0.0207 J-0.0026
N2380 X1.1236 Y0.5682 Z-0.1929 I-0.0207 J0.0026
N2385 X1.165 Y0.5629 Z-0.2028 I0.0207 J-0.0026
N2390 X1.1236 Y0.5682 Z-0.2126 I-0.0207 J0.0026
N2395 X1.165 Y0.5629 Z-0.2224 I0.0207 J-0.0026
N2400 X1.1236 Y0.5682 Z-0.2323 I-0.0207 J0.0026
N2405 X1.165 Y0.5629 Z-0.2421 I0.0207 J-0.0026
N2410 X1.1236 Y0.5682 Z-0.252 I-0.0207 J0.0026
N2415 X1.165 Y0.5629 Z-0.2618 I0.0207 J-0.0026
N2420 X1.1236 Y0.5682 Z-0.2717 I-0.0207 J0.0026
N2425 X1.165 Y0.5629 Z-0.2815 I0.0207 J-0.0026
N2430 X1.1236 Y0.5682 Z-0.2913 I-0.0207 J0.0026
N2435 X1.165 Y0.5629 Z-0.3012 I0.0207 J-0.0026
N2440 X1.1236 Y0.5682 Z-0.311 I-0.0207 J0.0026
N2445 X1.165 Y0.5629 Z-0.3209 I0.0207 J-0.0026
N2450 X1.1236 Y0.5682 Z-0.3307 I-0.0207 J0.0026
N2455 X1.165 Y0.5629 Z-0.3406 I0.0207 J-0.0026
N2460 X1.1236 Y0.5682 Z-0.3504 I-0.0207 J0.0026
N2465 X1.165 Y0.5629 Z-0.3602 I0.0207 J-0.0026
N2470 X1.1236 Y0.5682 Z-0.3701 I-0.0207 J0.0026
N2475 X1.165 Y0.5629 Z-0.3799 I0.0207 J-0.0026
N2480 X1.1236 Y0.5682 Z-0.3898 I-0.0207 J0.0026
N2485 X1.165 Y0.5629 Z-0.3996 I0.0207 J-0.0026
N2490 X1.1236 Y0.5682 Z-0.4094 I-0.0207 J0.0026
N2495 X1.165 Y0.5629 Z-0.4193 I0.0207 J-0.0026
N2500 X1.1236 Y0.5682 Z-0.4291 I-0.0207 J0.0026
N2505 X1.165 Y0.5629 Z-0.439 I0.0207 J-0.0026
N2510 X1.1236 Y0.5682 Z-0.4488 I-0.0207 J0.0026
N2515 X1.165 Y0.5629 Z-0.4587 I0.0207 J-0.0026
N2520 X1.1236 Y0.5682 Z-0.4685 I-0.0207 J0.0026
N2525 X1.165 Y0.5629 Z-0.4783 I0.0207 J-0.0026
N2530 X1.1236 Y0.5682 Z-0.4882 I-0.0207 J0.0026
N2535 X1.165 Y0.5629 Z-0.498 I0.0207 J-0.0026
N2540 X1.1236 Y0.5682 Z-0.5079 I-0.0207 J0.0026
N2545 X1.165 Y0.5629 Z-0.5177 I0.0207 J-0.0026
N2550 X1.1236 Y0.5682 Z-0.5276 I-0.0207 J0.0026
N2555 X1.165 Y0.5629 Z-0.5374 I0.0207 J-0.0026
N2560 X1.1236 Y0.5682 Z-0.5472 I-0.0207 J0.0026
N2565 X1.165 Y0.5629 Z-0.5571 I0.0207 J-0.0026
N2570 X1.1236 Y0.5682 Z-0.5669 I-0.0207 J0.0026
N2575 X1.165 Y0.5629 Z-0.5768 I0.0207 J-0.0026
N2580 X1.1236 Y0.5682 Z-0.5866 I-0.0207 J0.0026
N2585 X1.165 Y0.5629 Z-0.5965 I0.0207 J-0.0026
N2590 X1.1236 Y0.5682 Z-0.6063 I-0.0207 J0.0026
N2595 X1.165 Y0.5629 I0.0207 J-0.0026
N2600 X1.1236 Y0.5682 I-0.0207 J0.0026
N2605 X1.1326 Y0.5565 I0.0103 J-0.0013
N2610 G1 X1.1388 Y0.5557
N2615 X1.1416 Y0.5554 Z-0.606
N2620 X1.1442 Y0.5551 Z-0.6051
N2625 X1.1466 Y0.5548 Z-0.6036
N2630 X1.1485 Y0.5545 Z-0.6016
N2635 X1.15 Y0.5543 Z-0.5992
N2640 X1.1509 Y0.5542 Z-0.5966
N2645 X1.1512 Z-0.5938
N2650 Z0.5906
N2655 M5
N2660 G53 G0 Z0.
N2665 M30
%
