%
(1001)
(MACHINE)
(  VENDOR PRINTNC)
(  MODEL PRINTNC V4 METALCUTTER)
(  DESCRIPTION GENERIC 3-AXIS ROUTER)
(T11 D=4. CR=0. TAPER=45DEG - ZMIN=-2.9 - CHAMFER MILL)
N10 G90 G94 G17 G91.1
N15 G21
(WHEN USING FUSION FOR PERSONAL USE, THE FEEDRATE OF RAPID)
(MOVES IS REDUCED TO MATCH THE FEEDRATE OF CUTTING MOVES,)
(WHICH CAN INCREASE MACHINING TIME. UNRESTRICTED RAPID MOVES)
(ARE AVAILABLE WITH A FUSION SUBSCRIPTION.)
N20 G53 G0 Z0.
(2D CHAMFER1 2)
N25 T11 M6
N30 S15000 M3
N35 G17 G90 G94
N40 G54
N45 G64 P0.01 Q0.01
N50 G0 X-12.724 Y-12.693
N55 G43 Z15. H11
N60 G1 Z5. F2500.
N65 Z2. F333.33
N70 Z-2.9
N75 X-12.327 Y-12.642 F2500.
N80 G3 X-13.292 Y-11.677 I-1.108 J-0.143
N85 G1 X-13.343 Y-12.074
N90 Z5.
N95 X-13.526
N100 Z2. F333.33
N105 Z-2.9
N110 X-13.577 Y-11.677 F2500.
N115 G3 X-14.543 Y-12.644 I0.142 J-1.108
N120 G1 X-14.146 Y-12.694
N125 Z5.
N130 Y-12.876
N135 Z2. F333.33
N140 Z-2.9
N145 X-14.543 Y-12.927 F2500.
N150 G3 X-13.578 Y-13.893 I1.108 J0.142
N155 G1 X-13.527 Y-13.496
N160 Z5.
N165 X-13.344
N170 Z2. F333.33
N175 Z-2.9
N180 X-13.293 Y-13.893 F2500.
N185 G3 X-12.327 Y-12.928 I-0.142 J1.108
N190 G1 X-12.724 Y-12.877
N195 Z5.
N200 X12.724
N205 Z2. F333.33
N210 Z-2.9
N215 X12.327 Y-12.928 F2500.
N220 G3 X13.292 Y-13.893 I1.108 J0.143
N225 G1 X13.343 Y-13.496
N230 Z5.
N235 X13.526
N240 Z2. F333.33
N245 Z-2.9
N250 X13.577 Y-13.893 F2500.
N255 G3 X14.543 Y-12.928 I-0.142 J1.108
N260 G1 X14.146 Y-12.877
N265 Z5.
N270 Y-12.694
N275 Z2. F333.33
N280 Z-2.9
N285 X14.543 Y-12.643 F2500.
N290 G3 X13.578 Y-11.677 I-1.108 J-0.142
N295 G1 X13.527 Y-12.074
N300 Z5.
N305 X13.344
N310 Z2. F333.33
N315 Z-2.9
N320 X13.293 Y-11.677 F2500.
N325 G3 X12.327 Y-12.642 I0.142 J-1.108
N330 G1 X12.724 Y-12.693
N335 Z5.
N340 X13.526 Y13.374
N345 Z2. F333.33
N350 Z-2.9
N355 X13.577 Y12.977 F2500.
N360 G3 X14.543 Y13.942 I-0.142 J1.108
N365 G1 X14.146 Y13.993
N370 Z5.
N375 Y14.176
N380 Z2. F333.33
N385 Z-2.9
N390 X14.543 Y14.227 F2500.
N395 G3 X13.576 Y15.193 I-1.108 J-0.142
N400 G1 X13.526 Y14.796
N405 Z5.
N410 X13.344
N415 Z2. F333.33
N420 Z-2.9
N425 X13.293 Y15.193 F2500.
N430 G3 X12.327 Y14.228 I0.142 J-1.108
N435 G1 X12.724 Y14.177
N440 Z5.
N445 Y13.993
N450 Z2. F333.33
N455 Z-2.9
N460 X12.327 Y13.942 F2500.
N465 G3 X13.292 Y12.977 I1.108 J0.143
N470 G1 X13.343 Y13.374
N475 Z5.
N480 X-12.724 Y14.177
N485 Z2. F333.33
N490 Z-2.9
N495 X-12.327 Y14.228 F2500.
N500 G3 X-13.294 Y15.193 I-1.108 J-0.143
N505 G1 X-13.344 Y14.796
N510 Z5.
N515 X-13.526
N520 Z2. F333.33
N525 Z-2.9
N530 X-13.577 Y15.193 F2500.
N535 G3 X-14.543 Y14.226 I0.142 J-1.108
N540 G1 X-14.146 Y14.176
N545 Z5.
N550 Y13.994
N555 Z2. F333.33
N560 Z-2.9
N565 X-14.543 Y13.943 F2500.
N570 G3 X-13.578 Y12.977 I1.108 J0.142
N575 G1 X-13.527 Y13.374
N580 Z5.
N585 X-13.344
N590 Z2. F333.33
N595 Z-2.9
N600 X-13.293 Y12.977 F2500.
N605 G3 X-12.327 Y13.942 I-0.142 J1.108
N610 G1 X-12.724 Y13.993
N615 Z15.
N620 M5
N625 G53 G0 Z0.
N630 M30
%
