%
(1001)
(MACHINE)
(  VENDOR PRINTNC)
(  MODEL PRINTNC V4 METALCUTTER)
(  DESCRIPTION GENERIC 3-AXIS ROUTER)
(T11 D=4. CR=0. TAPER=45DEG - ZMIN=-2.9 - CHAMFER MILL)
N10 G90 G94 G17 G91.1
N15 G21
(WHEN USING FUSION FOR PERSONAL USE, THE FEEDRATE OF RAPID)
(MOVES IS REDUCED TO MATCH THE FEEDRATE OF CUTTING MOVES,)
(WHICH CAN INCREASE MACHINING TIME. UNRESTRICTED RAPID MOVES)
(ARE AVAILABLE WITH A FUSION SUBSCRIPTION.)
N20 G53 G0 Z0.
(2D CHAMFER1)
N25 T11 M6
N30 S15000 M3
N35 G17 G90 G94
N40 G54
N45 G64 P0.01 Q0.01
N50 G0 X8.912 Y9.698
N55 G43 Z15. H11
N60 G1 Z5. F2500.
N65 Z2. F333.33
N70 Z-2.9
N75 X9.193 Y9.983 F2500.
N80 G2 X8. Y12.832 I2.807 J2.85
N85 G1 Y19.15
N90 G2 X12. Y23.15 I4. J0.
N95 G1 X27.625
N100 G2 X35.625 Y15.15 I0. J-8.
N105 G1 Y-15.15
N110 G2 X27.625 Y-23.15 I-8. J0.
N115 G1 X-27.625
N120 G2 X-35.625 Y-15.15 I0. J8.
N125 G1 Y15.15
N130 G2 X-27.625 Y23.15 I8. J0.
N135 G1 X-12.
N140 G2 X-8. Y19.15 I0. J-4.
N145 G1 Y12.832
N150 G2 X-9.193 Y9.983 I-4. J0.
N155 G3 X9.193 Y-8.683 I9.193 J-9.333
N160 Y9.983 I-9.193 J9.333
N165 G1 X8.912 Y9.698
N170 Z5.
N175 X18.433 Y1.088
N180 Z2. F333.33
N185 Z-2.9
N190 X18.116 Y1.333 F2500.
N195 G3 Y-0.033 I0.884 J-0.683
N200 G1 X18.433 Y0.212
N205 Z5.
N210 X18.562 Y0.083
N215 Z2. F333.33
N220 Z-2.9
N225 X18.317 Y-0.234 F2500.
N230 G3 X19.683 I0.683 J0.884
N235 G1 X19.438 Y0.083
N240 Z5.
N245 X19.567 Y0.212
N250 Z2. F333.33
N255 Z-2.9
N260 X19.884 Y-0.033 F2500.
N265 G3 Y1.333 I-0.884 J0.683
N270 G1 X19.567 Y1.088
N275 Z5.
N280 X19.438 Y1.217
N285 Z2. F333.33
N290 Z-2.9
N295 X19.683 Y1.534 F2500.
N300 G3 X18.317 I-0.683 J-0.884
N305 G1 X18.562 Y1.217
N310 Z5.
N315 X-18.433 Y0.212
N320 Z2. F333.33
N325 Z-2.9
N330 X-18.116 Y-0.033 F2500.
N335 G3 Y1.333 I-0.884 J0.683
N340 G1 X-18.433 Y1.088
N345 Z5.
N350 X-18.562 Y1.217
N355 Z2. F333.33
N360 Z-2.9
N365 X-18.317 Y1.534 F2500.
N370 G3 X-19.683 I-0.683 J-0.884
N375 G1 X-19.438 Y1.217
N380 Z5.
N385 X-19.567 Y1.088
N390 Z2. F333.33
N395 Z-2.9
N400 X-19.884 Y1.333 F2500.
N405 G3 Y-0.033 I0.884 J-0.683
N410 G1 X-19.567 Y0.212
N415 Z5.
N420 X-19.438 Y0.083
N425 Z2. F333.33
N430 Z-2.9
N435 X-19.683 Y-0.234 F2500.
N440 G3 X-18.317 I0.683 J0.884
N445 G1 X-18.562 Y0.083
N450 Z15.
N455 M5
N460 G53 G0 Z0.
N465 M30
%
