%
(1001)
(MACHINE)
(  VENDOR PRINTNC)
(  MODEL PRINTNC V4 METALCUTTER)
(  DESCRIPTION GENERIC 3-AXIS ROUTER)
(T6 D=0.315 CR=0. - ZMIN=-0.3307 - FLAT END MILL)
N10 G90 G94 G17 G91.1
N15 G20
(WHEN USING FUSION FOR PERSONAL USE, THE FEEDRATE OF RAPID)
(MOVES IS REDUCED TO MATCH THE FEEDRATE OF CUTTING MOVES,)
(WHICH CAN INCREASE MACHINING TIME. UNRESTRICTED RAPID MOVES)
(ARE AVAILABLE WITH A FUSION SUBSCRIPTION.)
N20 G53 G0 Z0.
(2D CONTOUR7 2)
N25 T6 M6
N30 S15000 M3
N35 G17 G90 G94
N40 G54
N45 G64 P0.0004 Q0.0004
N50 G0 X1.7441 Y1.7913
N55 G43 Z0.5906 H6
N60 G1 Z0.1969 F59.055
N65 Z0.0394 F13.123
N70 Z-0.2992
N75 G18 G2 X1.7756 Z-0.3307 I0.0315 K0. F59.055
N80 G1 X1.8071
N85 G17 G3 X1.8386 Y1.8228 I0. J0.0315
N90 G2 X2.1457 Y2.1299 I0.3071 J0.
N95 G1 X2.7608
N100 G2 X3.2254 Y1.6654 I0. J-0.4646
N105 G1 Y0.4724
N110 G2 X2.7608 Y0.0079 I-0.4646 J0.
N115 G1 X0.5856
N120 G2 X0.1211 Y0.4724 I0. J0.4646
N125 G1 Y1.6654
N130 G2 X0.5856 Y2.1299 I0.4646 J0.
N135 G1 X1.2008
N140 G2 X1.5079 Y1.8228 I0. J-0.3071
N145 G3 X1.5394 Y1.7913 I0.0315 J0.
N150 G1 X1.5709
N155 G18 G2 X1.6024 Z-0.2992 I0. K0.0315
N160 G1 Z0.1969
N165 X1.7756
N170 Z0.0394 F13.123
N175 Z-0.2992
N180 G2 X1.8071 Z-0.3307 I0.0315 K0. F59.055
N185 G1 X1.8386
N190 G17 G3 X1.8701 Y1.8228 I0. J0.0315
N195 G2 X2.1457 Y2.0984 I0.2756 J0.
N200 G1 X2.7608
N205 G2 X3.1939 Y1.6654 I0. J-0.4331
N210 G1 Y0.4724
N215 G2 X2.7608 Y0.0394 I-0.4331 J0.
N220 G1 X0.5856
N225 G2 X0.1526 Y0.4724 I0. J0.4331
N230 G1 Y1.6654
N235 G2 X0.5856 Y2.0984 I0.4331 J0.
N240 G1 X1.2008
N245 G2 X1.4764 Y1.8228 I0. J-0.2756
N250 G3 X1.5079 Y1.7913 I0.0315 J0.
N255 G1 X1.5394
N260 G18 G2 X1.5709 Z-0.2992 I0. K0.0315
N265 G1 Z0.5906
N270 G17
N275 M5
N280 G53 G0 Z0.
N285 M30
%
